ResourceID,ResourceID2,AdminArea,AdminAreaType,Currency,Address Status,Building Name,Building Number SubStreet,SubStreet,Building Number,Street,Locality,Town,Postcode,EventUID,RecordType,Name Type,Name,DateFrom,DateTo,Description Type,Description,Notes
0226fabe-5fce-464c-a91b-218634b039b2,0226fabe-5fce-464c-a91b-218634b039b2,Harrow,Borough,Current,,,,,,,,,,,,,,,,,,
0470d7db-2d51-4890-80e2-103ef0d79e5d,0470d7db-2d51-4890-80e2-103ef0d79e5d,,,,Alternate,,,,5-8,Clothier Street,,,,,,,,,,,,
04c95d06-b81d-4d92-8083-66f66032fda2,04c95d06-b81d-4d92-8083-66f66032fda2,,,,Alternate,,,,,Fell Road,,,,,,,,,,,,
0690a118-52a6-4f63-a39a-fd717bb174a3,0690a118-52a6-4f63-a39a-fd717bb174a3,,,,Alternate,,,,27-34,Wood Street,,,,,,,,,,,,
07206218-2ef0-4535-95c6-38731ca21c36,07206218-2ef0-4535-95c6-38731ca21c36,,,,Alternate,,,,15,Westmorlands Buildings,,,,,,,,,,,,
08209574-db8a-4edc-bce8-e60d36f2e99b,08209574-db8a-4edc-bce8-e60d36f2e99b,,,,Alternate,,,,58,Park Street,,,,,,,,,,,,
094956aa-022c-4a23-a738-5a77ee98917d,094956aa-022c-4a23-a738-5a77ee98917d,,,,Alternate,,,,"10, 11-17",Blossom Street,,,,,,,,,,,,
094be105-623f-4dcd-92c4-c847f2a6ed1e,094be105-623f-4dcd-92c4-c847f2a6ed1e,,,,Alternate,,,,"26, 29, 30, 32",Gracechurch Street,,,,,,,,,,,,
0aef673f-49d7-46ad-b394-2da68984365f,0aef673f-49d7-46ad-b394-2da68984365f,,,,Alternate,,,,23-77,Gray Street,,,,,,,,,,,,
0be5d3ab-c5b1-4a8e-ba43-20b342a212b0,0be5d3ab-c5b1-4a8e-ba43-20b342a212b0,,,,Alternate,,,,,Stone House Court,,,,,,,,,,,,
0c129979-7370-4134-99f5-c802e7395c9d,0c129979-7370-4134-99f5-c802e7395c9d,,,,Alternate,,,,76,Mark Lane,,,,,,,,,,,,
0c38ac74-3f7f-4da0-ad9d-267d29c473f2,0c38ac74-3f7f-4da0-ad9d-267d29c473f2,,,,Alternate,,,,68-75,Aldermanbury,,,,,,,,,,,,
0d4c4915-37aa-4e47-91e4-7a6f2293371a,0d4c4915-37aa-4e47-91e4-7a6f2293371a,,,,Alternate,,,,19-28,Watling Street,,,,,,,,,,,,
0df38e2e-7875-4c13-be72-cd8ea0effb2f,0df38e2e-7875-4c13-be72-cd8ea0effb2f,,,,Alternate,,,,10-18,Newport Place,,,,,,,,,,,,
0e5c109c-3887-40f6-a5ae-32ee3bf347aa,0e5c109c-3887-40f6-a5ae-32ee3bf347aa,,,,Alternate,,,,15,Cooper's Row,,,,,,,,,,,,
0fbdfa8d-069c-45b6-a177-3dca93241d9f,0fbdfa8d-069c-45b6-a177-3dca93241d9f,Harrow,Borough,Current,,,,,,,,,,,,,,,,,,
132dc6d9-4898-4325-98d0-d374b7421fff,132dc6d9-4898-4325-98d0-d374b7421fff,,,,Alternate,,,,,Winchester Square,,,,,,,,,,,,
18aeef47-0371-4b3a-aa09-5a9547b94855,18aeef47-0371-4b3a-aa09-5a9547b94855,,,,Alternate,,,,,Tabernacle Street,,,,,,,,,,,,
18dd9636-fc34-4ee4-9cdb-633cfd7c0dc0,18dd9636-fc34-4ee4-9cdb-633cfd7c0dc0,,,,Alternate,,,,1-6,Lloyd's Chambers,,,,,,,,,,,,
1aebfdc5-d14a-47a0-b78b-7f61e0023063,1aebfdc5-d14a-47a0-b78b-7f61e0023063,,,,Alternate,,,,1-6,Bury Street,,,,,,,,,,,,
1b4d0a03-53d8-48fa-8744-6e4132c225e0,1b4d0a03-53d8-48fa-8744-6e4132c225e0,,,,Alternate,,,,19-20,Garlick Hill,,,,,,,,,,,,
1b688af6-ab5b-4ce9-97c1-5256384ac1c0,1b688af6-ab5b-4ce9-97c1-5256384ac1c0,,,,Alternate,,,,,St Mary's Place,,,,,,,,,,,,
1be7c0ff-d403-472b-b1d0-fa97ef1bdd00,1be7c0ff-d403-472b-b1d0-fa97ef1bdd00,,,,Alternate,,,,9-10,Fleur Street,,,,,,,,,,,,
1e8bae09-00f3-4a93-bf51-5da957902101,1e8bae09-00f3-4a93-bf51-5da957902101,,,,Alternate,,,,3-7,Haymarket,,,,,,,,,,,,
1f3f0548-cce9-42f9-b8bf-f1539a11d589,1f3f0548-cce9-42f9-b8bf-f1539a11d589,,,,Alternate,,,,46-50,Gun Street,,,,,,,,,,,,
2093ef4e-d647-4d9e-bd85-ec8d3867a481,2093ef4e-d647-4d9e-bd85-ec8d3867a481,,,,Alternate,,,,59,Mill Hill Grove,,,,,,,,,,,,
231e1ca9-f9b3-4d72-b9cc-f778e66a2393,231e1ca9-f9b3-4d72-b9cc-f778e66a2393,,,,Alternate,,,,13,Ironmonger Lane,,,,,,,,,,,,
232303cc-e7df-477e-8c90-e7e6ac43d454,232303cc-e7df-477e-8c90-e7e6ac43d454,,,,Alternate,,,,20,Buckle Street,,,,,,,,,,,,
234e4bcb-5024-419d-8482-276b6f69a710,234e4bcb-5024-419d-8482-276b6f69a710,,,,Alternate,,,,13-16,Woodstock Street,,,,,,,,,,,,
2393db78-3588-4f03-9ed1-0cef8ba25058,2393db78-3588-4f03-9ed1-0cef8ba25058,,,,Alternate,,,,14-15,Philpot Lane,,,,,,,,,,,,
25a3e1e0-126f-4a65-b4c7-7d49437f8346,25a3e1e0-126f-4a65-b4c7-7d49437f8346,,,,Alternate,,,,,Aragon Mews,,,,,,,,,,,,
26948ef0-eb19-4299-99ff-d103a183f927,26948ef0-eb19-4299-99ff-d103a183f927,,,,Alternate,,,,46-50,Gun Street,,,,,,,,,,,,
28596e30-3816-44a7-bf9a-d19fb8a94dc1,28596e30-3816-44a7-bf9a-d19fb8a94dc1,,,,Alternate,,,,10-12,White Horse Street,,,,,,,,,,,,
28d0c14e-1876-4982-acc4-2b1277aa8a65,28d0c14e-1876-4982-acc4-2b1277aa8a65,,,,Alternate,,,,,White's Row,,,,,,,,,,,,
2908fcf2-566c-424a-a9b7-b7d22999d710,2908fcf2-566c-424a-a9b7-b7d22999d710,,,,Alternate,,,,"2-4, 7",Bedale Street,,,,,,,,,,,,
292f382e-b1de-469c-89f7-4c3a026fa92a,292f382e-b1de-469c-89f7-4c3a026fa92a,,,,Alternate,,,,19-28,Bury Court,,,,,,,,,,,,
2b2275b2-3038-45f2-ad8c-7bed628d7825,2b2275b2-3038-45f2-ad8c-7bed628d7825,,,,Alternate,,,,490-512,Wandsworth Road,,,,,,,,,,,,
2eaad15b-6a8a-4761-8e73-19aac5946b6a,2eaad15b-6a8a-4761-8e73-19aac5946b6a,,,,Alternate,,,,46-50,Gun Street,,,,,,,,,,,,
2ecd5b5a-bf5e-4e2f-9dfe-1d89162fb9c6,2ecd5b5a-bf5e-4e2f-9dfe-1d89162fb9c6,,,,Alternate,,,,16-19,Laurence Pountney Lane,,,,,,,,,,,,
2ef1f208-e195-43d2-92b7-470501735568,2ef1f208-e195-43d2-92b7-470501735568,,,,Alternate,,,,18-23,Jermyn Street,,,,,,,,,,,,
2f4bc138-e48b-4eaf-bdf4-7839ad382c61,2f4bc138-e48b-4eaf-bdf4-7839ad382c61,Harrow,Borough,Current,,,,,,,,,,,,,,,,,,
2f7bfdf5-3017-4549-a103-48f15fac3a92,2f7bfdf5-3017-4549-a103-48f15fac3a92,,,,Alternate,,,,2-3,Cross Key Court,,,,,,,,,,,,
308c4345-ae5d-438c-b2a4-e95f4b92b00a,308c4345-ae5d-438c-b2a4-e95f4b92b00a,,,,Alternate,,,,"20-21, 24-25, 27, 29",Princes Street,,,,,,,,,,,,
336ef30e-a7b4-4df8-95fd-4274f5c25431,336ef30e-a7b4-4df8-95fd-4274f5c25431,,,,Alternate,,,,51-53,White Lion Street,,,,,,,,,,,,
353f2cb8-0b7e-4df9-aba0-ac49ce30b2e1,353f2cb8-0b7e-4df9-aba0-ac49ce30b2e1,,,,Alternate,,,,"34, 37",Commerell Street,,,,,,,,,,,,
35e2f62d-f2af-41e5-a9c7-3907cd296cbf,35e2f62d-f2af-41e5-a9c7-3907cd296cbf,,,,Alternate,,,,15-18,Bury Street,,,,,,,,,,,,
36eb83f8-d512-4c15-b382-c39cef18c313,36eb83f8-d512-4c15-b382-c39cef18c313,,,,Alternate,,,,13,Ironmonger Lane,,,,,,,,,,,,
37d21470-bc5c-4939-ad93-8119790be775,37d21470-bc5c-4939-ad93-8119790be775,,,,Alternate,,,,11,Bartlett Court,,,,,,,,,,,,
393af012-e814-48d3-9706-def94e7451b0,393af012-e814-48d3-9706-def94e7451b0,,,,Alternate,,,,5A-10,Wardrobe Place,,,,,,,,,,,,
3c44a8c2-a9a6-44a7-a82d-a7cc9112afbd,3c44a8c2-a9a6-44a7-a82d-a7cc9112afbd,,,,Alternate,,,,5,Langley Street,,,,,,,,,,,,
3dc22c4f-0c5e-4a37-85a6-d495b8b404b9,3dc22c4f-0c5e-4a37-85a6-d495b8b404b9,,,,Alternate,,,,1-9,Limeburner Lane,,,,,,,,,,,,
3df351fb-7aef-4a55-9b50-4b521b97fe49,3df351fb-7aef-4a55-9b50-4b521b97fe49,,,,Alternate,,,,20-20A,Rear of Murphy Street,,,,,,,,,,,,
3e0431fe-f002-46c1-9961-a278191b7a03,3e0431fe-f002-46c1-9961-a278191b7a03,,,,Alternate,,,,29,Smithfield Street,,,,,,,,,,,,
402f5ac5-b10c-43b1-8d8b-42d8f20bdf32,402f5ac5-b10c-43b1-8d8b-42d8f20bdf32,,,,Alternate,,,,1-3,Ashfield Street,,,,,,,,,,,,
415b12b2-0b61-4ae3-b40f-f982ebe30f0f,415b12b2-0b61-4ae3-b40f-f982ebe30f0f,,,,Alternate,,,,6-10,Wardrobe Place,,,,,,,,,,,,
4286106b-5cad-4b8d-b0e9-5fea38b3b685,4286106b-5cad-4b8d-b0e9-5fea38b3b685,,,,Alternate,,,,,Dominion Street,,,,,,,,,,,,
43f9c0e9-3a45-47b9-9404-e36224b044be,43f9c0e9-3a45-47b9-9404-e36224b044be,,,,Alternate,,,,,College Approach,,,,,,,,,,,,
44977e5a-4b68-4c32-907e-a3ef9dbc6ba2,44977e5a-4b68-4c32-907e-a3ef9dbc6ba2,,,,Alternate,,,,2-12,Gray's Inn Road,,,,,,,,,,,,
4548458d-1060-45a4-b9a2-2a1b2a260830,4548458d-1060-45a4-b9a2-2a1b2a260830,,,,Alternate,,,,"20-21, 24-25, 27, 29",Princes Street,,,,,,,,,,,,
46f4f589-9be2-4f1b-877a-9944ced4d85e,46f4f589-9be2-4f1b-877a-9944ced4d85e,,,,Alternate,,,,29,Smithfield Street,,,,,,,,,,,,
46faedd7-c74e-4f96-a847-72032a1f5594,46faedd7-c74e-4f96-a847-72032a1f5594,,,,Alternate,,,,15-16,St Helen's Place,,,,,,,,,,,,
49185f1e-3106-4e2c-adca-0287c5c447e8,49185f1e-3106-4e2c-adca-0287c5c447e8,,,,Alternate,,,,1-11,Addle Hill,,,,,,,,,,,,
4af042b7-3384-42d1-912e-a779fc3034c4,4af042b7-3384-42d1-912e-a779fc3034c4,Islington,Borough,Current,,,,,,,,,,,,,,,,,,
4e62a345-c654-413d-875a-0c1a7411513a,4e62a345-c654-413d-875a-0c1a7411513a,,,,Alternate,,,,,Bapchild Place,,,,,,,,,,,,
5011260f-6dc1-46d4-b77f-c92c18b2cede,5011260f-6dc1-46d4-b77f-c92c18b2cede,Barnet,Borough,Current,Alternate,Stanmore Golf Club,,,,Brockley Hill,,,,,,,,,,,,
50d93853-f7e0-4df4-8ebd-23ee71b26ad9,50d93853-f7e0-4df4-8ebd-23ee71b26ad9,,,,Alternate,,,,25-26,Old Jewry,,,,,,,,,,,,
5221a974-78f1-4925-bbe1-9b3a467b9977,5221a974-78f1-4925-bbe1-9b3a467b9977,,,,Alternate,,,,13-33,Wapping High Street,,,,,,,,,,,,
56dabd23-95bf-46d4-8ca1-0146bb688016,56dabd23-95bf-46d4-8ca1-0146bb688016,,,,Alternate,,,,,Millbank,,,,,,,,,,,,
58620daa-073c-43e3-ac00-48aef8e76f84,58620daa-073c-43e3-ac00-48aef8e76f84,,,,Alternate,,,,,Dominion Street,,,,,,,,,,,,
59a03519-646b-4e05-9072-260e35f2b504,59a03519-646b-4e05-9072-260e35f2b504,Islington,Borough,Current,,,,,,,,,,,,,,,,,,
5a2483f7-f163-4e45-aeda-9eac13b1d6e5,5a2483f7-f163-4e45-aeda-9eac13b1d6e5,,,,Alternate,,,,"1-17, 2-12",Chichester Rents,,,,,,,,,,,,
5aa2084b-460f-41d4-aa94-f5436db304ce,5aa2084b-460f-41d4-aa94-f5436db304ce,,,,Alternate,,,,,St Mary's Place,,,,,,,,,,,,
5bf7b380-78ae-4aa7-bfc6-ca9a790ae7b0,5bf7b380-78ae-4aa7-bfc6-ca9a790ae7b0,,,,Alternate,,,,7-8,Exchange Buildings,,,,,,,,,,,,
5d60d93f-59b3-44b9-8bb0-741f5cc4747e,5d60d93f-59b3-44b9-8bb0-741f5cc4747e,Harrow,Borough,Current,,,,,,,,,,,,,,,,,,
5e2f8460-82e1-413e-b4e7-a9d30ef22bae,5e2f8460-82e1-413e-b4e7-a9d30ef22bae,,,,Alternate,,,,4-16,Pearman Street,,,,,,,,,,,,
5e68e26d-6e60-4140-8875-2ff2dabc416b,5e68e26d-6e60-4140-8875-2ff2dabc416b,,,,Alternate,,,,8,Shelton Street,,,,,,,,,,,,
5f335487-fc99-45e3-a7d3-6c1fb9ac4c17,5f335487-fc99-45e3-a7d3-6c1fb9ac4c17,,,,Alternate,,,,8-10,Telegraph Street,,,,,,,,,,,,
5f5f7dc6-3e0e-4039-acc6-6897e6c7f05b,5f5f7dc6-3e0e-4039-acc6-6897e6c7f05b,,,,Alternate,,,,1-5,Inverness Street,,,,,,,,,,,,
60605646-fa74-423a-9b16-df3afde17fa8,60605646-fa74-423a-9b16-df3afde17fa8,,,,Alternate,,,,5,Salamanca Street,,,,,,,,,,,,
614e09da-73bd-49c2-993f-fe2fd8677c4d,614e09da-73bd-49c2-993f-fe2fd8677c4d,,,,Alternate,,,,5,Salamanca Street,,,,,,,,,,,,
64633ec7-8b0a-4314-a739-3447c8b5271a,64633ec7-8b0a-4314-a739-3447c8b5271a,,,,Alternate,,,,14-23,Jermyn Street,,,,,,,,,,,,
658c23ba-bf33-4c80-8edd-23ff6dcd8ef8,658c23ba-bf33-4c80-8edd-23ff6dcd8ef8,,,,Alternate,,,,95-99,Charing Cross Road,,,,,,,,,,,,
65d2e09e-ccff-47f2-858b-330c07d78289,65d2e09e-ccff-47f2-858b-330c07d78289,,,,Alternate,,,,95-99,Charing Cross Road,,,,,,,,,,,,
682fd870-8b3e-4a83-a02b-0baa45fd11c4,682fd870-8b3e-4a83-a02b-0baa45fd11c4,,,,Alternate,,,,,Pratt Walk,,,,,,,,,,,,
69c8125e-a0ca-4c04-a070-63031c2b220c,69c8125e-a0ca-4c04-a070-63031c2b220c,,,,Alternate,,,,,Walden Street,,,,,,,,,,,,
6a1b8c37-02ab-45df-a0cb-83932e03678a,6a1b8c37-02ab-45df-a0cb-83932e03678a,,,,Alternate,,,,,New Broad Street,,,,,,,,,,,,
6bdbe2c8-b61b-4634-9f39-f3d4f169e0ab,6bdbe2c8-b61b-4634-9f39-f3d4f169e0ab,,,,Alternate,Granite House,,,97-101,Cannon Street,,,,,,,,,,,,
6fef0145-db3e-4e41-9646-21ac30675465,6fef0145-db3e-4e41-9646-21ac30675465,,,,Alternate,Mercers' Hall Offices and Dauntsey House,,,4-5,Old Jewry,,,,,,,,,,,,
70367ca0-bff2-4edd-8fd2-2f0eaf786e54,70367ca0-bff2-4edd-8fd2-2f0eaf786e54,,,,Alternate,,,,19-28,Bury Street,,,,,,,,,,,,
713290c9-1ab7-4518-ac17-676551c1b328,713290c9-1ab7-4518-ac17-676551c1b328,,,,Alternate,,,,3-6,Trump Street,,,,,,,,,,,,
71534c26-0bac-4a0e-a85c-98d6590ee56b,71534c26-0bac-4a0e-a85c-98d6590ee56b,,,,Alternate,,,,,Nelson Road,,,,,,,,,,,,
720a5596-0a73-4443-a45c-3da4d3a88523,720a5596-0a73-4443-a45c-3da4d3a88523,Greenwich,Borough,Current,,,,,,,,,,,,,,,,,,
73db98fc-313c-4d21-8127-23e18716e283,73db98fc-313c-4d21-8127-23e18716e283,Harrow,Borough,Current,,,,,,,,,,,,,,,,,,
7593a3db-d769-4627-a699-7127c0a6c017,7593a3db-d769-4627-a699-7127c0a6c017,Tower Hamlets,Borough,Current,,,,,,,,,,,,,,,,,,
7605a7df-0a3f-43db-8dcf-e9e5917e05f7,7605a7df-0a3f-43db-8dcf-e9e5917e05f7,,,,Alternate,,,,20-21,Took's Court,,,,,,,,,,,,
76a143fa-cdbd-4b1f-a64b-eb777faf7d38,76a143fa-cdbd-4b1f-a64b-eb777faf7d38,,,,Alternate,,,,1A,Windsor Court,,,,,,,,,,,,
7745e94e-6ddd-401b-a444-94d77ac0df58,7745e94e-6ddd-401b-a444-94d77ac0df58,Camden,Borough,Current,Alternate,,,,157-167,Charing Cross Road,,,WC2,,,,,,,,,
7768da8b-6ea9-4fa8-8306-a19563c4908d,7768da8b-6ea9-4fa8-8306-a19563c4908d,,,,Alternate,,,,2-10,Curzon Place,,,,,,,,,,,,
77839927-7a16-4bc9-b7d7-711b76eade65,77839927-7a16-4bc9-b7d7-711b76eade65,,,,Alternate,,,,55-59,Long Acre,,,,,,,,,,,,
77880ed1-01d1-44c9-8f52-bf31c13086c2,77880ed1-01d1-44c9-8f52-bf31c13086c2,,,,Alternate,,,,18-20,Cock Lane,,,,,,,,,,,,
7854d2a2-59aa-43ea-b8a7-3897a3ad045d,7854d2a2-59aa-43ea-b8a7-3897a3ad045d,,,,Alternate,,,,74,Crowndale Road,,,,,,,,,,,,
79f642a1-900d-4f36-9079-8792253cbfb4,79f642a1-900d-4f36-9079-8792253cbfb4,,,,Alternate,,,,29-33,Ludgate Hill,,,,,,,,,,,,
7dc7d86e-edbd-458a-a537-7b6a34874f80,7dc7d86e-edbd-458a-a537-7b6a34874f80,,,,Alternate,,,,19-26,Floral Street,,,,,,,,,,,,
7dce548a-a4cc-46a0-9623-2b89a7494958,7dce548a-a4cc-46a0-9623-2b89a7494958,,,,Alternate,,,,2-4,Russia Row,,,,,,,,,,,,
7e38072e-baf1-4a71-a5d5-0a6590b09eae,7e38072e-baf1-4a71-a5d5-0a6590b09eae,,,,Alternate,,,,46,Fish Street Hill,,,,,,,,,,,,
813b974a-1e1f-4037-b7f4-a3408f6f4b43,813b974a-1e1f-4037-b7f4-a3408f6f4b43,Waltham Forest,Borough,Current,,,,,,,,,,,,,,,,,,
82ac6b05-d7c0-4b82-ba26-61b00e1f87ce,82ac6b05-d7c0-4b82-ba26-61b00e1f87ce,,,,Alternate,,,,,Bishopsgate,,,,,,,,,,,,
868c003d-820c-44b2-9231-75ba0c37aeb0,868c003d-820c-44b2-9231-75ba0c37aeb0,,,,Alternate,,,,,Wood Street,,,,,,,,,,,,
86cb4759-5349-4a65-8761-523a35db6229,86cb4759-5349-4a65-8761-523a35db6229,,,,Alternate,,,,9-15,Neal Street,,,,,,,,,,,,
8836731a-fda2-4633-87d1-2cf3c8ab0186,8836731a-fda2-4633-87d1-2cf3c8ab0186,,,,Alternate,,,,11,Bartlett Court,,,,,,,,,,,,
8859527b-1b2b-4b29-bbbe-59ce9264b279,8859527b-1b2b-4b29-bbbe-59ce9264b279,,,,Alternate,,,,,Farringdon Street,,,,,,,,,,,,
89b494b1-8dd5-4503-840a-b74b798b2f43,89b494b1-8dd5-4503-840a-b74b798b2f43,Sutton,Borough,Current,,,,,,,,,,,,,,,,,,
8b211faf-3b50-4897-acd3-eea66d49a92c,8b211faf-3b50-4897-acd3-eea66d49a92c,,,,Alternate,,,,7-11,Modern Court,,,,,,,,,,,,
8eb3d586-ac1b-430f-bf80-8686333504f2,8eb3d586-ac1b-430f-bf80-8686333504f2,,,,Alternate,,,,1-13,Copthall Court,,,,,,,,,,,,
913b65bf-bb05-4133-b2ab-e21a0bd2a63b,913b65bf-bb05-4133-b2ab-e21a0bd2a63b,Harrow,Borough,Current,,,,,,,,,,,,,,,,,,
9183e9b0-9373-4883-95d8-ffea856b2f46,9183e9b0-9373-4883-95d8-ffea856b2f46,,,,Alternate,,,,,Aragon Mews,,,,,,,,,,,,
93995e0f-1f77-4b7b-a727-83572ed987f1,93995e0f-1f77-4b7b-a727-83572ed987f1,,,,Alternate,,,,12-42,Mark Lane,,,,,,,,,,,,
956b2acf-8d4e-4037-8ff1-9b0aced04ff4,956b2acf-8d4e-4037-8ff1-9b0aced04ff4,,,,Alternate,,,,20,Buckle Street,,,,,,,,,,,,
974a384a-3c5f-4721-93cf-c3bbe115a05f,974a384a-3c5f-4721-93cf-c3bbe115a05f,Wandsworth,Borough,Current,,,,,,,,,,,,,,,,,,
97d73d7f-8092-4c00-91f2-24448d6e9841,97d73d7f-8092-4c00-91f2-24448d6e9841,Newham,Borough,Current,,,,,,,,,,,,,,,,,,
988a0d2b-2013-487d-854d-a27598be1073,988a0d2b-2013-487d-854d-a27598be1073,,,,Alternate,,,,46-50,Gun Street,,,,,,,,,,,,
999bae9c-79ee-4002-8449-a84396667f67,999bae9c-79ee-4002-8449-a84396667f67,,,,Alternate,,,,10-11,Eldon Street,,,,,,,,,,,,
9b0032e0-6ee1-4e9d-8da9-8ac0f01b44f4,9b0032e0-6ee1-4e9d-8da9-8ac0f01b44f4,,,,Alternate,,,,,Hawley Road,,,,,,,,,,,,
9be81cb2-2cdc-499a-a7e5-2d2e9b01b4c4,9be81cb2-2cdc-499a-a7e5-2d2e9b01b4c4,,,,Alternate,,,,14,Eldon Street,,,,,,,,,,,,
9e39933d-cee0-48c9-b99e-f0f33ca955d4,9e39933d-cee0-48c9-b99e-f0f33ca955d4,Harrow,Borough,Current,,,,,,,,,,,,,,,,,,
9fef3d65-14c0-4e7e-83a8-92b59bab7298,9fef3d65-14c0-4e7e-83a8-92b59bab7298,,,,Alternate,,,,,Queen Street,,,,,,,,,,,,
a0c99f9f-9d3f-44db-ba76-ffcc3313ed9f,a0c99f9f-9d3f-44db-ba76-ffcc3313ed9f,City of London,Borough,Current,Alternate,,,,7-17,Lady Booth Road,,,,,,,,,,,,
a103f569-105d-4453-902d-9f9f773f5d46,a103f569-105d-4453-902d-9f9f773f5d46,,,,Alternate,,,,"69-71, 80-81",Fleet Street,,,,,,,,,,,,
a205690d-fbef-43d3-8359-3c95e11dcb36,a205690d-fbef-43d3-8359-3c95e11dcb36,,,,Alternate,,,,,Royal Docks Road,,,,,,,,,,,,
a36a950e-cea7-4c1e-978a-d4de7094b529,a36a950e-cea7-4c1e-978a-d4de7094b529,,,,Alternate,,,,63-67,Fleet Street,,,,,,,,,,,,
a4e958b8-9d18-4735-ac0f-9ac5c9cf669c,a4e958b8-9d18-4735-ac0f-9ac5c9cf669c,Harrow,Borough,Current,,,,,,,,,,,,,,,,,,
a59b9330-c621-4ddb-934c-aab9e2d121d9,a59b9330-c621-4ddb-934c-aab9e2d121d9,,,,Alternate,,,,11,Bartlett Court,,,,,,,,,,,,
a6a56fc9-bbeb-4b41-92fe-fd3b3aa9412b,a6a56fc9-bbeb-4b41-92fe-fd3b3aa9412b,Islington,Borough,Current,,,,,,,,,,,,,,,,,,
a861cc2c-67e6-4808-a691-5491b718ebaf,a861cc2c-67e6-4808-a691-5491b718ebaf,,,,Alternate,,,,,Savage Gardens,,,,,,,,,,,,
a95aa25c-9a02-44bf-a530-13589219fc9d,a95aa25c-9a02-44bf-a530-13589219fc9d,,,,Alternate,,,,,Cheapside,,,,,,,,,,,,
a97a39e2-efb8-418a-8fa9-f198e75be93e,a97a39e2-efb8-418a-8fa9-f198e75be93e,,,,Alternate,,,,46,Fish Street Hill,,,,,,,,,,,,
ac855eef-642f-4cbf-b13d-ccf00bab5eef,ac855eef-642f-4cbf-b13d-ccf00bab5eef,,,,Alternate,,,,52-54,Lime Street,,,,,,,,,,,,
ad7ffb85-b172-4d69-81cd-952def6096af,ad7ffb85-b172-4d69-81cd-952def6096af,Tower Hamlets,Borough,Current,,,,,,,,,,,,,,,,,,
aeae06aa-a2ae-4415-9195-3e0a5d90f0f4,aeae06aa-a2ae-4415-9195-3e0a5d90f0f4,,,,Alternate,,,,,Bermondsey Street,,,,,,,,,,,,
aef24cd8-0749-4857-85d9-d305822de8d5,aef24cd8-0749-4857-85d9-d305822de8d5,Hounslow,Borough,Current,Alternate,,,,1-2,Shingle End,,,TW8 8JZ,,,,,,,,,
b2dfbd9c-24b6-4912-86fa-e70e571476db,b2dfbd9c-24b6-4912-86fa-e70e571476db,,,,Alternate,,,,,Stone House Court,,,,,,,,,,,,
b337bdd9-cf5b-4b21-9870-32bcf0fad6b8,b337bdd9-cf5b-4b21-9870-32bcf0fad6b8,,,,Alternate,,,,1-4,Great Sutton Street,,,,,,,,,,,,
b682d044-f0af-42ca-a02c-16aeebc6663b,b682d044-f0af-42ca-a02c-16aeebc6663b,,,,Alternate,,,,29-40,Botolph Lane,,,,,,,,,,,,
b716ecda-8d68-4ada-8f6a-e123391f8c53,b716ecda-8d68-4ada-8f6a-e123391f8c53,,,,Alternate,,,,22-26,Monument Street,,,,,,,,,,,,
b71edff7-de02-4fd6-a2bd-901d9bdf5602,b71edff7-de02-4fd6-a2bd-901d9bdf5602,,,,Alternate,,,,2-4,Carlisle Street,,,,,,,,,,,,
bae372ef-90ec-4d24-9372-5bfd9d4b5b91,bae372ef-90ec-4d24-9372-5bfd9d4b5b91,,,,Alternate,,,,76,Mark Lane,,,,,,,,,,,,
bc27cbe5-8f15-4a15-95de-8c638ae5e5d6,bc27cbe5-8f15-4a15-95de-8c638ae5e5d6,,,,Alternate,,,,,High Street,,,,,,,,,,,,
bc8a1563-436b-49a9-b157-0d108c23d514,bc8a1563-436b-49a9-b157-0d108c23d514,,,,Alternate,,,,4-12,Whittington Avenue,,,,,,,,,,,,
bccc7785-b9fb-4e1f-a609-ba5855533504,bccc7785-b9fb-4e1f-a609-ba5855533504,,,,Alternate,,,,16,Fish Street Hill,,,,,,,,,,,,
bcd46dab-30b2-45e1-b399-b83d0ff7c1e8,bcd46dab-30b2-45e1-b399-b83d0ff7c1e8,,,,Alternate,,,,33-38,King William Street,,,,,,,,,,,,
bf02cb7e-73ff-4de8-b9ae-6ecc854d1837,bf02cb7e-73ff-4de8-b9ae-6ecc854d1837,,,,Alternate,,,,17,St Andrews Road,,,,,,,,,,,,
bf26e267-cf88-4ac6-9e6c-41f61ac8116f,bf26e267-cf88-4ac6-9e6c-41f61ac8116f,,,,Alternate,,,,11,Bartlett Court,,,,,,,,,,,,
bf619a82-4fa3-4ae3-a400-16866319ce01,bf619a82-4fa3-4ae3-a400-16866319ce01,,,,Alternate,,,,2-10,Baylis Road,,,,,,,,,,,,
c0ecb5ae-ea48-404c-aa68-eda52ddfef4f,c0ecb5ae-ea48-404c-aa68-eda52ddfef4f,,,,Alternate,,,,20,Park Street,,,,,,,,,,,,
c22a3949-2763-4da4-96f7-0ec0c1d24bdb,c22a3949-2763-4da4-96f7-0ec0c1d24bdb,,,,Alternate,,,,,Collingwood Street,,,,,,,,,,,,
c4857b04-644d-4e5a-af40-6c8fe467209a,c4857b04-644d-4e5a-af40-6c8fe467209a,,,,Alternate,,,,,Laurence Pountney Lane,,,,,,,,,,,,
c4da3881-70dd-40c7-a132-9e5c78de3092,c4da3881-70dd-40c7-a132-9e5c78de3092,,,,Alternate,,,,3-3A,New Inn Broadway,,,,,,,,,,,,
c8d16bd0-9248-458f-bfde-3ce2cf407d24,c8d16bd0-9248-458f-bfde-3ce2cf407d24,,,,Alternate,,,,,Watling Street,,,,,,,,,,,,
cd516b77-68e6-4766-8894-829da02a0e40,cd516b77-68e6-4766-8894-829da02a0e40,,,,Alternate,,,,21,Lime Street,,,,,,,,,,,,
ce3e0c45-027c-48f7-863e-5161ef5d3114,ce3e0c45-027c-48f7-863e-5161ef5d3114,,,,Alternate,,,,3-3A,New Inn Broadway,,,,,,,,,,,,
d181e03e-5573-4cc5-9256-ba342ddba416,d181e03e-5573-4cc5-9256-ba342ddba416,Tower Hamlets,Borough,Current,,,,,,,,,,,,,,,,,,
d32aa10b-318b-400d-acde-f336cfd46b6b,d32aa10b-318b-400d-acde-f336cfd46b6b,,,,Alternate,,,,1-9,Ludgate Hill,,,,,,,,,,,,
da8938fe-0dff-459f-9b9b-76e22122777e,da8938fe-0dff-459f-9b9b-76e22122777e,,,,Alternate,,,,"3, 9",Diadem Court,,,,,,,,,,,,
dd317cc2-72c3-47e5-a134-69dfe4ab7f45,dd317cc2-72c3-47e5-a134-69dfe4ab7f45,,,,Alternate,,,,7,Appletree Yard,,,,,,,,,,,,
dd6a802c-7923-4a0c-b354-2bd5d25ef877,dd6a802c-7923-4a0c-b354-2bd5d25ef877,,,,Alternate,,,,23,Moorgate,,,,,,,,,,,,
dfc6f599-910d-4cb2-9c48-d9010f67adb3,dfc6f599-910d-4cb2-9c48-d9010f67adb3,Harrow,Borough,Current,,,,,,,,,,,,,,,,,,
e03cf3de-34ba-4eec-8655-914f68da9967,e03cf3de-34ba-4eec-8655-914f68da9967,,,,Alternate,,,,,Great Guildford Street,,,,,,,,,,,,
e0410084-96d8-4cb1-8708-668dbc3cbbc6,e0410084-96d8-4cb1-8708-668dbc3cbbc6,,,,Alternate,,,,20,Buckle Street,,,,,,,,,,,,
e1b8c07f-e421-419c-908b-426fa36f20ea,e1b8c07f-e421-419c-908b-426fa36f20ea,,,,Alternate,,,,31-35,Fenchurch Street,,,,,,,,,,,,
e1b9364e-0294-4dd6-9b1d-17982faf1191,e1b9364e-0294-4dd6-9b1d-17982faf1191,,,,Alternate,,,,,Weaver's Lane,,,,,,,,,,,,
e22ae127-b5a8-415a-bb0a-0dad29be67b3,e22ae127-b5a8-415a-bb0a-0dad29be67b3,,,,Alternate,,,,2-10,Curzon Place,,,,,,,,,,,,
e27984da-ad12-4fa7-8e25-73f3f054bbe6,e27984da-ad12-4fa7-8e25-73f3f054bbe6,,,,Alternate,,,,,Milford Lane,,,,,,,,,,,,
e279be9a-3f86-43ed-8f41-894de502a687,e279be9a-3f86-43ed-8f41-894de502a687,,,,Alternate,,,,8-10,Telegraph Street,,,,,,,,,,,,
e48427d5-6dc0-4ab0-9bca-af8654d621c0,e48427d5-6dc0-4ab0-9bca-af8654d621c0,,,,Alternate,,,,"12, 14",Burleigh Street,,,,,,,,,,,,
e4a1490b-ec48-48d6-9073-7d2f221be573,e4a1490b-ec48-48d6-9073-7d2f221be573,,,,Alternate,,,,,Rose Alley,,,,,,,,,,,,
e4ac1329-97f0-4219-8e3c-aba65bab58bb,e4ac1329-97f0-4219-8e3c-aba65bab58bb,,,,Alternate,,,,,Nelson Road,,,,,,,,,,,,
e538fb03-d9f0-4735-9ada-d06ffef536d5,e538fb03-d9f0-4735-9ada-d06ffef536d5,,,,Alternate,,,,,Bermondsey Street,,,,,,,,,,,,
e5541539-3599-4755-86ae-f1aecd6c0ea6,e5541539-3599-4755-86ae-f1aecd6c0ea6,,,,Alternate,,,,160-164,Gray's Inn Road,,,,,,,,,,,,
e56e3bcf-e244-4edd-bc09-d7ecc655ff9a,e56e3bcf-e244-4edd-bc09-d7ecc655ff9a,Harrow,Borough,Current,,,,,,,,,,,,,,,,,,
e660832a-24d5-47c7-be6b-16d9ca92bf0f,e660832a-24d5-47c7-be6b-16d9ca92bf0f,,,,Alternate,,,,,High Street,,,,,,,,,,,,
e6787cd8-f86c-44f7-b5d8-386f276f2e19,e6787cd8-f86c-44f7-b5d8-386f276f2e19,,,,Alternate,,,,46,Fish Hill Street,,,,,,,,,,,,
e9266273-9b14-4b69-88c2-436e78158325,e9266273-9b14-4b69-88c2-436e78158325,Harrow,Borough,Current,,,,,,,,,,,,,,,,,,
ec80273c-6736-44e2-8053-027c7876b2e4,ec80273c-6736-44e2-8053-027c7876b2e4,,,,Alternate,,,,8-10,Telegraph Street,,,,,,,,,,,,
ed5ff285-e29b-4650-a07b-48b28169d61e,ed5ff285-e29b-4650-a07b-48b28169d61e,,,,Alternate,,,,29,Smithfield Street,,,,,,,,,,,,
f0ac8e94-cbd2-41bf-b333-4f9a9f61d07a,f0ac8e94-cbd2-41bf-b333-4f9a9f61d07a,,,,Alternate,,,,13,Sherbourne Lane,,,,,,,,,,,,
f10007b0-7be7-47ac-b16e-a2d7bb02c278,f10007b0-7be7-47ac-b16e-a2d7bb02c278,Newham,Borough,Current,,,,,,,,,,,,,,,,,,
f13b20f4-1168-48d8-bcf2-f672581b4e38,f13b20f4-1168-48d8-bcf2-f672581b4e38,,,,Alternate,,,,54-55,Farringdon Street,,,,,,,,,,,,
f2d3c68a-896d-41d3-a38c-93d033aea68b,f2d3c68a-896d-41d3-a38c-93d033aea68b,,,,Alternate,,,,19-28,Bury Court,,,,,,,,,,,,
f4f6c50a-1b44-4313-a208-16a6c0d350d1,f4f6c50a-1b44-4313-a208-16a6c0d350d1,Harrow,Borough,Current,,,,,,,,,,,,,,,,,,
f6e5d154-ad12-413a-8f36-034e46629846,f6e5d154-ad12-413a-8f36-034e46629846,,,,Alternate,,,,6-8a,Spray Street,,,,,,,,,,,,
f91ad918-34c8-4fec-9f90-bc83f37ffafa,f91ad918-34c8-4fec-9f90-bc83f37ffafa,,,,Alternate,,,,,Commercial Street,,,,,,,,,,,,
facda435-1352-4c93-a581-062fdc3bcf78,facda435-1352-4c93-a581-062fdc3bcf78,,,,Alternate,,,,,Charterhouse Street,,,,,,,,,,,,
fbc62539-432b-4cc7-9148-0eb29aa845a4,fbc62539-432b-4cc7-9148-0eb29aa845a4,,,,Alternate,,,,29-37,Fleet Lane,,,,,,,,,,,,
fc1599a5-adbc-4f85-bcaf-4a2e3af3148b,fc1599a5-adbc-4f85-bcaf-4a2e3af3148b,,,,Alternate,,,,23-39,Eastcheap,,,,,,,,,,,,
fd023a5b-9e8c-4061-8d4e-94fc4f97cf64,fd023a5b-9e8c-4061-8d4e-94fc4f97cf64,,,,Alternate,,,,,Millbank,,,,,,,,,,,,
ffe447d3-ef55-4820-819f-2336e3a572b7,ffe447d3-ef55-4820-819f-2336e3a572b7,,,,Alternate,,,,,St Thomas Street,,,,,,,,,,,,
