ResourceID,ResourceID2,AdminArea,AdminAreaType,Currency,Address Status,Building Name,Building Number SubStreet,SubStreet,Building Number,Street,Locality,Town,Postcode,EventUID,RecordType,Name Type,Name,DateFrom,DateTo,Description Type,Description,Notes
001e3d64-1761-4579-bd84-ab19ff1362e7,001e3d64-1761-4579-bd84-ab19ff1362e7,,,,Alternate,Edgware Town FC,,,,,,,,,,,,,,,,
002338d4-f488-47f2-b996-58d1638a0f4c,002338d4-f488-47f2-b996-58d1638a0f4c,,,,Alternate,,,,36,Clerkenwell Road,,,,,,,,,,,,
0028a821-c105-4c7e-8677-e8e4c65d36ae,0028a821-c105-4c7e-8677-e8e4c65d36ae,,,,Alternate,,,,,Great Dover Street,,,,,,,,,,,,
00645b85-0aaf-4442-89d0-2bc9a792e5a3,00645b85-0aaf-4442-89d0-2bc9a792e5a3,Essex,County,Former,,,,,,,,,,,,,,,,,,
008aadbf-3838-4e7d-bb01-a54b72ebf1ae,008aadbf-3838-4e7d-bb01-a54b72ebf1ae,,,,Alternate,,,,1,Noble Street,,,,,,,,,,,,
009fa40f-b824-4a5b-a4d0-72aeacd304e5,009fa40f-b824-4a5b-a4d0-72aeacd304e5,Surrey,County,Former,,,,,,,,,,,,,,,,,,
019d8703-72e0-4b2e-b3cf-0a2bd524556c,019d8703-72e0-4b2e-b3cf-0a2bd524556c,,,,Alternate,,,,140-143,Fetter Lane,,,,,,,,,,,,
01fae5ac-0ecf-4f9c-83fc-1a39aee66f9a,01fae5ac-0ecf-4f9c-83fc-1a39aee66f9a,Surrey,County,Former,,,,,,,,,,,,,,,,,,
0226fabe-5fce-464c-a91b-218634b039b2,0226fabe-5fce-464c-a91b-218634b039b2,Middlesex,County,Former,,,,,,,,,,,,,,,,,,
025312f6-88d3-4d31-8bc7-eeb07ca84a30,025312f6-88d3-4d31-8bc7-eeb07ca84a30,Surrey,County,Former,,,,,,,,,,,,,,,,,,
02ce9f04-88d4-41b1-9558-44bb2b9aab62,02ce9f04-88d4-41b1-9558-44bb2b9aab62,Tower Hamlets,Borough,Current,,,,,,,,,,,,,,,,,,
02f027f3-040c-4118-8506-d9dd1194e11a,02f027f3-040c-4118-8506-d9dd1194e11a,Surrey,County,Former,,,,,,,,,,,,,,,,,,
031533f5-a432-45bd-a6e9-cc772ad96fde,031533f5-a432-45bd-a6e9-cc772ad96fde,,,,Alternate,,,,2-14,Seward Street,,,,,,,,,,,,
0377119a-6144-45cc-a757-503c5839ad04,0377119a-6144-45cc-a757-503c5839ad04,,,,Alternate,,,,,Robsart Street,,,,,,,,,,,,
03856a73-d683-43b9-b785-4f0b1e2479e0,03856a73-d683-43b9-b785-4f0b1e2479e0,,,,Alternate,,,,12,Nicholl Square,,,,,,,,,,,,
03fec946-d646-4f0f-b924-b6d0e5fd6c46,03fec946-d646-4f0f-b924-b6d0e5fd6c46,Harrow,Borough,Current,,,,,,,,,,,,,,,,,,
042f1a6b-2309-435d-98c0-784b641c4bd4,042f1a6b-2309-435d-98c0-784b641c4bd4,,,,Alternate,,,,14-16,North Tenter Street,,,,,,,,,,,,
0430070f-0dec-47f4-a287-1418bc09417c,0430070f-0dec-47f4-a287-1418bc09417c,,,,Alternate,,,,21,King William Walk,,,,,,,,,,,,
046855ab-370e-4a62-9a20-6e24578fecd9,046855ab-370e-4a62-9a20-6e24578fecd9,,,,Alternate,,,,,Cannon Street,,,EC4,,,,,,,,,
0470d7db-2d51-4890-80e2-103ef0d79e5d,0470d7db-2d51-4890-80e2-103ef0d79e5d,,,,Alternate,,,,123-125,Houndsditch,,,EC3,,,,,,,,,
04884044-78de-45a1-b307-d2a8c31a4cee,04884044-78de-45a1-b307-d2a8c31a4cee,,,,Alternate,,,,27-31,Hollymeoak Road,,,,,,,,,,,,
04aaad80-eceb-4da3-ab0b-4a1c428fa035,04aaad80-eceb-4da3-ab0b-4a1c428fa035,,,,Alternate,,,,29-31,Monument Street,,,,,,,,,,,,
04c95d06-b81d-4d92-8083-66f66032fda2,04c95d06-b81d-4d92-8083-66f66032fda2,,,,Alternate,,,,,Katherine Street,,,CR0,,,,,,,,,
05475d63-2100-485e-9573-9fc0939d4c95,05475d63-2100-485e-9573-9fc0939d4c95,Middlesex,County,Former,,,,,,,,,,,,,,,,,,
05bc1aa9-e38b-408c-a6a1-dd6acd465132,05bc1aa9-e38b-408c-a6a1-dd6acd465132,,,,Alternate,,,,,Elephant & Castle,,,,,,,,,,,,
05f09401-d0f9-432b-b08c-10559bfdca51,05f09401-d0f9-432b-b08c-10559bfdca51,,,,Alternate,,,,3-5,Dukes Mews,,,,,,,,,,,,
05f966c2-3f86-45d1-a630-47f78f94ef78,05f966c2-3f86-45d1-a630-47f78f94ef78,,,,Alternate,,,,24-31,Mitre Street,,,,,,,,,,,,
06682396-980a-452c-b2fa-86effe52cd80,06682396-980a-452c-b2fa-86effe52cd80,,,,Alternate,,,,,Robsart Road,,,,,,,,,,,,
0690a118-52a6-4f63-a39a-fd717bb174a3,0690a118-52a6-4f63-a39a-fd717bb174a3,,,,Alternate,,,,68-75,Aldermanbury,,,,,,,,,,,,
06d914a0-ca3c-4c7c-8517-e675d122fe70,06d914a0-ca3c-4c7c-8517-e675d122fe70,Surrey,County,Former,,,,,,,,,,,,,,,,,,
06eb7a47-baf7-4c79-aeab-2ffabe2502ea,06eb7a47-baf7-4c79-aeab-2ffabe2502ea,Surrey,County,Former,,,,,,,,,,,,,,,,,,
06ed9d14-7948-4d5d-82a6-3de9a68bf1da,06ed9d14-7948-4d5d-82a6-3de9a68bf1da,Middlesex,County,Former,,,,,,,,,,,,,,,,,,
071fb5fd-8923-42e5-9860-f78d6949874f,071fb5fd-8923-42e5-9860-f78d6949874f,Surrey,County,Former,,,,,,,,,,,,,,,,,,
07206218-2ef0-4535-95c6-38731ca21c36,07206218-2ef0-4535-95c6-38731ca21c36,,,,Alternate,,,,10,King Edward Street,,,,,,,,,,,,
07681905-25c3-4432-b9cb-4222a355f5d5,07681905-25c3-4432-b9cb-4222a355f5d5,,,,Alternate,,,,7,Meymott Street,,,,,,,,,,,,
077db082-a8d2-41ee-abdf-0dd124aef2c0,077db082-a8d2-41ee-abdf-0dd124aef2c0,,,,Alternate,,,,7-9,Babmaes Street,,,SW1Y,,,,,,,,,
07994b83-57e0-4e1b-92f7-4d194a017a2a,07994b83-57e0-4e1b-92f7-4d194a017a2a,Surrey,County,Former,,,,,,,,,,,,,,,,,,
07bf76af-488e-475d-b883-f5732f7dbb85,07bf76af-488e-475d-b883-f5732f7dbb85,,,,Alternate,,,,14,St John's Lane,,,,,,,,,,,,
08209574-db8a-4edc-bce8-e60d36f2e99b,08209574-db8a-4edc-bce8-e60d36f2e99b,,,,Alternate,,,,2,Rose Alley,,,,,,,,,,,,
08a8a6cc-59b1-4b1c-9156-7dfe112cec34,08a8a6cc-59b1-4b1c-9156-7dfe112cec34,,,,Alternate,,,,101-106,Rotherhithe Street,,,,,,,,,,,,
08a9392d-912f-40af-ad6b-a5911342106a,08a9392d-912f-40af-ad6b-a5911342106a,Essex,County,Former,,,,,,,,,,,,,,,,,,
08db61b5-cb51-4a02-b8b0-d9c1fcd18bb0,08db61b5-cb51-4a02-b8b0-d9c1fcd18bb0,,,,Alternate,,,,2-10,Magdalen Street,,,,,,,,,,,,
08ec0a41-1522-4f28-9e60-aaa92d22dad4,08ec0a41-1522-4f28-9e60-aaa92d22dad4,,,,Alternate,,,,,Stoney Street,,,,,,,,,,,,
0908648f-0960-40be-92fc-071ac26e6021,0908648f-0960-40be-92fc-071ac26e6021,,,,Alternate,,,,1,Duke's Mews,,,,,,,,,,,,
094956aa-022c-4a23-a738-5a77ee98917d,094956aa-022c-4a23-a738-5a77ee98917d,,,,Alternate,,,,5-11a,Folgate Street,,,,,,,,,,,,
094be105-623f-4dcd-92c4-c847f2a6ed1e,094be105-623f-4dcd-92c4-c847f2a6ed1e,,,,Alternate,,,,39-40,Lombard Street,,,,,,,,,,,,
096457df-f503-4184-9959-6ca0c1b12e35,096457df-f503-4184-9959-6ca0c1b12e35,Croydon,Borough,Current,,,,,,,,,,,,,,,,,,
099950c2-e894-404c-adab-0e2b9f2ab994,099950c2-e894-404c-adab-0e2b9f2ab994,,,,Alternate,,,,1-6,Lime Street,,,,,,,,,,,,
0a0a00d0-5a39-4f64-8db9-58ceb7fa7360,0a0a00d0-5a39-4f64-8db9-58ceb7fa7360,,,,Alternate,,,,,Tower Bridge Road,,,,,,,,,,,,
0a2b1f10-ace1-40aa-be62-3f38f66f25e7,0a2b1f10-ace1-40aa-be62-3f38f66f25e7,Southwark,Borough,Current,,,,,,,,,,,,,,,,,,
0a430f17-7d0e-49f3-9217-876ed6cb1bb2,0a430f17-7d0e-49f3-9217-876ed6cb1bb2,,,,Alternate,,,,4-5,Peter Street,,,,,,,,,,,,
0a50830c-19a2-415e-9bb5-61bbfc312642,0a50830c-19a2-415e-9bb5-61bbfc312642,Essex,County,Former,,,,,,,,,,,,,,,,,,
0aa016a0-b1e0-46bd-a580-385467ec532a,0aa016a0-b1e0-46bd-a580-385467ec532a,,,,Alternate,,,,,McKerrell Road,,,,,,,,,,,,
0aef673f-49d7-46ad-b394-2da68984365f,0aef673f-49d7-46ad-b394-2da68984365f,,,,Alternate,,,,4-26,Webber Street,,,,,,,,,,,,
0b48a01a-ac85-4e6a-abe7-a38001163934,0b48a01a-ac85-4e6a-abe7-a38001163934,Essex,County,Former,,,,,,,,,,,,,,,,,,
0b4e82ba-eac6-45d9-934f-884b13510640,0b4e82ba-eac6-45d9-934f-884b13510640,Essex,County,Former,,,,,,,,,,,,,,,,,,
0bbad684-4ec3-44f2-83b3-c4a4dccb640d,0bbad684-4ec3-44f2-83b3-c4a4dccb640d,Essex,County,Former,,,,,,,,,,,,,,,,,,
0bc29eeb-1bc0-4839-a3b4-cdedff4ee13e,0bc29eeb-1bc0-4839-a3b4-cdedff4ee13e,,,,Alternate,,,,1-4,Skinners Lane,,,,,,,,,,,,
0be5d3ab-c5b1-4a8e-ba43-20b342a212b0,0be5d3ab-c5b1-4a8e-ba43-20b342a212b0,,,,Alternate,Staple Hall,,,1-17,Devonshire Row,,,,,,,,,,,,
0c129979-7370-4134-99f5-c802e7395c9d,0c129979-7370-4134-99f5-c802e7395c9d,,,,Alternate,,,,18,London Street,,,,,,,,,,,,
0c38ac74-3f7f-4da0-ad9d-267d29c473f2,0c38ac74-3f7f-4da0-ad9d-267d29c473f2,,,,Alternate,,,,59-67,Gresham Street,,,,,,,,,,,,
0c3f6ce1-2451-481b-9978-4c11bdfba937,0c3f6ce1-2451-481b-9978-4c11bdfba937,,,,Alternate,,,,13-17,Burlington Place,,,,,,,,,,,,
0c9b9f9e-7753-45b1-ad38-8e3766b8a304,0c9b9f9e-7753-45b1-ad38-8e3766b8a304,Essex,County,Former,,,,,,,,,,,,,,,,,,
0ca8d971-af3e-4240-a79f-ab86a9dd173d,0ca8d971-af3e-4240-a79f-ab86a9dd173d,Essex,County,Former,,,,,,,,,,,,,,,,,,
0ccc30d6-3d89-42da-985b-300fcb6cfccf,0ccc30d6-3d89-42da-985b-300fcb6cfccf,Middlesex,County,Former,,,,,,,,,,,,,,,,,,
0cce39af-e5fc-47c0-9525-2b16e2856afb,0cce39af-e5fc-47c0-9525-2b16e2856afb,,,,Alternate,,,,18-48,Newington Causeway,,,,,,,,,,,,
0d4c4915-37aa-4e47-91e4-7a6f2293371a,0d4c4915-37aa-4e47-91e4-7a6f2293371a,,,,Alternate,,,,39-53,Cannon Street,,,,,,,,,,,,
0d620a00-91cd-4097-9404-d671a2aa3d42,0d620a00-91cd-4097-9404-d671a2aa3d42,,,,Alternate,,,,43,Fetter Lane,,,,,,,,,,,,
0d9e8af7-3dd9-4e24-8129-bdc6fe6a1c3f,0d9e8af7-3dd9-4e24-8129-bdc6fe6a1c3f,,,,Alternate,,,,23-26,New Row,,,WC2N,,,,,,,,,
0df38e2e-7875-4c13-be72-cd8ea0effb2f,0df38e2e-7875-4c13-be72-cd8ea0effb2f,,,,Alternate,,,,28-35,Newport Court,,,,,,,,,,,,
0e5c109c-3887-40f6-a5ae-32ee3bf347aa,0e5c109c-3887-40f6-a5ae-32ee3bf347aa,,,,Alternate,,,,15-17,Crosswall,,,,,,,,,,,,
0eeccea7-6ebd-454d-a25c-c6d10ac4379a,0eeccea7-6ebd-454d-a25c-c6d10ac4379a,Surrey,County,Former,,,,,,,,,,,,,,,,,,
0f09d01d-b04d-4a3b-9988-f9ce18602fd3,0f09d01d-b04d-4a3b-9988-f9ce18602fd3,,,,Alternate,,,,,Grove Park Road,,,,,,,,,,,,
0f3d96c6-9bac-4091-b667-b7f3bccc4cde,0f3d96c6-9bac-4091-b667-b7f3bccc4cde,Surrey,County,Former,,,,,,,,,,,,,,,,,,
0f4b9b43-0950-4d8e-a13e-d8aadc83559e,0f4b9b43-0950-4d8e-a13e-d8aadc83559e,,,,Alternate,,,,7-9,Babmaes Street,,,SW1Y,,,,,,,,,
0fbd54f0-3864-488e-b17b-7a9309cf98ac,0fbd54f0-3864-488e-b17b-7a9309cf98ac,Middlesex,County,Former,,,,,,,,,,,,,,,,,,
0fbdfa8d-069c-45b6-a177-3dca93241d9f,0fbdfa8d-069c-45b6-a177-3dca93241d9f,Middlesex,County,Former,,,,,,,,,,,,,,,,,,
0fd20042-af1f-4868-978e-58ba5dd23f09,0fd20042-af1f-4868-978e-58ba5dd23f09,,,,Alternate,,,,3-31,Stoney Lane,,,,,,,,,,,,
0fdb9744-4424-4a8d-ae25-bd873f60fb04,0fdb9744-4424-4a8d-ae25-bd873f60fb04,,,,Alternate,,,,,Queen Isabella Way,,,,,,,,,,,,
0ffd5981-2e52-46f5-a67e-4d27c4b3713e,0ffd5981-2e52-46f5-a67e-4d27c4b3713e,Southwark,Borough,Current,,,,,,,,,,,,,,,,,,
10061352-c041-4372-b769-e75c857e60f2,10061352-c041-4372-b769-e75c857e60f2,,,,Alternate,,,,1,Carter Court,,,,,,,,,,,,
100a38a7-36e1-41b5-8966-5ad8b0fba650,100a38a7-36e1-41b5-8966-5ad8b0fba650,,,,Alternate,Portland House,,,,Basinghall Street,,,EC2,,,,,,,,,
10753ec7-8def-404c-a58f-a8a7a95fba64,10753ec7-8def-404c-a58f-a8a7a95fba64,Lewisham,Borough,Current,,,,,,,,,,,,,,,,,,
10760647-cdae-4542-8bf9-7a2aa1727fe3,10760647-cdae-4542-8bf9-7a2aa1727fe3,Surrey,County,Former,,,,,,,,,,,,,,,,,,
10d7550e-691a-4162-a11d-e1bf9d27b103,10d7550e-691a-4162-a11d-e1bf9d27b103,,,,Alternate,,,,2-12,Wooster Gardens,,,,,,,,,,,,
10ee005a-c154-42d7-a931-13f066ce6b7f,10ee005a-c154-42d7-a931-13f066ce6b7f,,,,Alternate,,,,8-15,Aylesbury Street,,,,,,,,,,,,
110f72f4-63ef-4a67-a14e-7f9fda73f94e,110f72f4-63ef-4a67-a14e-7f9fda73f94e,Surrey,County,Former,,,,,,,,,,,,,,,,,,
11501929-ee9e-478b-bd26-296d2f5a5081,11501929-ee9e-478b-bd26-296d2f5a5081,Essex,County,Former,,,,,,,,,,,,,,,,,,
11785209-aeea-4d60-a126-dfde6540ad78,11785209-aeea-4d60-a126-dfde6540ad78,,,,Alternate,,,,,Wellesley Road,,,,,,,,,,,,
1185f9a0-06e0-4a31-8cb1-1f50be1ba3da,1185f9a0-06e0-4a31-8cb1-1f50be1ba3da,Middlesex,County,Former,,,,,,,,,,,,,,,,,,
11e8b686-283e-4fcf-aa16-ed749628147c,11e8b686-283e-4fcf-aa16-ed749628147c,Surrey,County,Former,,,,,,,,,,,,,,,,,,
1209d9e6-8f47-4562-a427-51c7dca153a3,1209d9e6-8f47-4562-a427-51c7dca153a3,,,,Alternate,,,,,Beech Street,,,,,,,,,,,,
1225d655-a8f8-48e5-b588-030d6030cf98,1225d655-a8f8-48e5-b588-030d6030cf98,,,,Alternate,,,,67-71,Watling Street,,,,,,,,,,,,
127feaa6-d5f1-4744-8830-3b8b81ff49b7,127feaa6-d5f1-4744-8830-3b8b81ff49b7,,,,Alternate,,,,34-35,Cruched Friars,,,,,,,,,,,,
12bb5e3d-3e63-44a1-b735-4037356a89ef,12bb5e3d-3e63-44a1-b735-4037356a89ef,Middlesex,County,Former,,,,,,,,,,,,,,,,,,
12cb49c2-108c-4f2c-bdde-315af260e623,12cb49c2-108c-4f2c-bdde-315af260e623,Middlesex,County,Former,,,,,,,,,,,,,,,,,,
12d86f9e-face-4564-9d20-4baf112fc635,12d86f9e-face-4564-9d20-4baf112fc635,,,,Alternate,,,,59,Birkshire Road,,,,,,,,,,,,
1325ccdd-e377-42ca-b48e-8f3982b83463,1325ccdd-e377-42ca-b48e-8f3982b83463,,,,Alternate,,,,22-29,Hosier Lane,,,,,,,,,,,,
132dc6d9-4898-4325-98d0-d374b7421fff,132dc6d9-4898-4325-98d0-d374b7421fff,,,,Alternate,,,,,Pickfords Lane,,,SE1 9DN,,,,,,,,,
13732d29-6ed2-47f7-b3b9-c464d4fb74da,13732d29-6ed2-47f7-b3b9-c464d4fb74da,Tower Hamlets,Borough,Current,,,,,,,,,,,,,,,,,,
1382f90d-f7cc-4471-8d25-c13adde186bc,1382f90d-f7cc-4471-8d25-c13adde186bc,Essex,County,Former,,,,,,,,,,,,,,,,,,
1383f7e1-7452-44cf-925a-05fe29865ddf,1383f7e1-7452-44cf-925a-05fe29865ddf,Tower Hamlets,Borough,Current,,,,,,,,,,,,,,,,,,
140f9116-e996-4a36-b8a7-ce6c33689760,140f9116-e996-4a36-b8a7-ce6c33689760,,,,Alternate,,,,,Tennis Street,,,,,,,,,,,,
145f4645-c976-465a-abd4-270e470350a2,145f4645-c976-465a-abd4-270e470350a2,,,,Alternate,,,,8-9,Lawrence Lane,,,,,,,,,,,,
15066cf7-983a-4119-bc98-19de09d840fe,15066cf7-983a-4119-bc98-19de09d840fe,,,,Alternate,,,,,Leathermarket Street,,,,,,,,,,,,
157c390e-eb07-41e0-854a-3408dba1465f,157c390e-eb07-41e0-854a-3408dba1465f,,,,Alternate,,,,54-58,Commercial Road,,,,,,,,,,,,
15ac92a8-6a27-4a3c-ba16-dbf27211db03,15ac92a8-6a27-4a3c-ba16-dbf27211db03,,,,Alternate,,,,130-130a,Northwold Road,,,,,,,,,,,,
15bf13d3-7356-413b-a5a0-a2ec5d38f77e,15bf13d3-7356-413b-a5a0-a2ec5d38f77e,Surrey,County,Former,,,,,,,,,,,,,,,,,,
15e7fb2f-e10f-4858-83c8-6ae8adfcb216,15e7fb2f-e10f-4858-83c8-6ae8adfcb216,Essex,County,Former,,,,,,,,,,,,,,,,,,
1639d7a8-4831-4276-8e2b-0ebe432727de,1639d7a8-4831-4276-8e2b-0ebe432727de,,,,Alternate,Uplands Primary School,,,,Oxford Road,,,DA14,,,,,,,,,
166afd7f-e4a3-4ae0-8d58-ca7e02e1ceda,166afd7f-e4a3-4ae0-8d58-ca7e02e1ceda,,,,Alternate,,,,106-136,Bishopsgate,,,,,,,,,,,,
176c07a7-2a03-45b1-8c3e-49f017d559ae,176c07a7-2a03-45b1-8c3e-49f017d559ae,Harrow,Borough,Current,,,,,,,,,,,,,,,,,,
17d13103-cafa-4337-a000-700b9aaa98c1,17d13103-cafa-4337-a000-700b9aaa98c1,,,,Alternate,,,,6,Vine Street,,,,,,,,,,,,
17eb4521-2b22-48cd-9bea-25923481ddd6,17eb4521-2b22-48cd-9bea-25923481ddd6,,,,Alternate,,,,93-95,Gresham Street,,,,,,,,,,,,
184f84f0-e7b2-409e-9d8b-10c5fdc302dc,184f84f0-e7b2-409e-9d8b-10c5fdc302dc,,,,Alternate,,,,30-38,Hosier Lane,,,,,,,,,,,,
185562d4-7d4c-450b-9126-b1c5efefb468,185562d4-7d4c-450b-9126-b1c5efefb468,Essex,County,Former,,,,,,,,,,,,,,,,,,
18aeef47-0371-4b3a-aa09-5a9547b94855,18aeef47-0371-4b3a-aa09-5a9547b94855,,,,Alternate,,,,,Epworth Street,,,,,,,,,,,,
18b38f63-38e5-4ad2-9dfc-5d1240b82fa9,18b38f63-38e5-4ad2-9dfc-5d1240b82fa9,,,,Alternate,,,,,Turnpin Lane,,,,,,,,,,,,
18c88105-ae1d-4481-8931-7b7c1f356032,18c88105-ae1d-4481-8931-7b7c1f356032,,,,Alternate,,,,123,Old Broad Street,,,,,,,,,,,,
18dd9636-fc34-4ee4-9cdb-633cfd7c0dc0,18dd9636-fc34-4ee4-9cdb-633cfd7c0dc0,,,,Alternate,,,,1-7,Crosswall,,,,,,,,,,,,
1945dc09-fc51-40a7-a227-e12b5a894bdb,1945dc09-fc51-40a7-a227-e12b5a894bdb,,,,Alternate,,,,119-124,Saffron Hill,,,,,,,,,,,,
198b3d74-8a0e-4909-9568-c62e10b3f76d,198b3d74-8a0e-4909-9568-c62e10b3f76d,,,,Alternate,,,,7,Apple Tree Yard,,,,,,,,,,,,
198f702d-6427-4eaa-8b42-e38d29ad20a9,198f702d-6427-4eaa-8b42-e38d29ad20a9,Middlesex,County,Former,,,,,,,,,,,,,,,,,,
199fefee-674c-4795-b15d-e3d96957490d,199fefee-674c-4795-b15d-e3d96957490d,Surrey,County,Former,,,,,,,,,,,,,,,,,,
19e43dd4-cff7-47b6-9f43-19c91318cbf4,19e43dd4-cff7-47b6-9f43-19c91318cbf4,Islington,Borough,Current,,,,,,,,,,,,,,,,,,
1a6df5f9-4a88-4372-a351-1ed55c832ec7,1a6df5f9-4a88-4372-a351-1ed55c832ec7,,,,Alternate,,,,329-339,Putney Bridge Road,,,,,,,,,,,,
1ac1c0b0-7978-45ac-ac81-143132cb0b08,1ac1c0b0-7978-45ac-ac81-143132cb0b08,Essex,County,Former,,,,,,,,,,,,,,,,,,
1aebfdc5-d14a-47a0-b78b-7f61e0023063,1aebfdc5-d14a-47a0-b78b-7f61e0023063,,,,Alternate,,,,19-28,St Mary Axe,,,,,,,,,,,,
1b4d0a03-53d8-48fa-8744-6e4132c225e0,1b4d0a03-53d8-48fa-8744-6e4132c225e0,,,,Alternate,,,,36-39,Queen Street,,,,,,,,,,,,
1b688af6-ab5b-4ce9-97c1-5256384ac1c0,1b688af6-ab5b-4ce9-97c1-5256384ac1c0,,,,Alternate,,,,,St Margaret's Lane,,,,,,,,,,,,
1be7c0ff-d403-472b-b1d0-fa97ef1bdd00,1be7c0ff-d403-472b-b1d0-fa97ef1bdd00,,,,Alternate,,,,1-3,Elder Street,,,,,,,,,,,,
1bfe3e61-1097-4052-913a-546e172ef3e3,1bfe3e61-1097-4052-913a-546e172ef3e3,,,,Alternate,,,,,Furzeham Road,,,,,,,,,,,,
1c1fb1d4-703d-4ae3-be75-edcd4f979a05,1c1fb1d4-703d-4ae3-be75-edcd4f979a05,,,,Alternate,,,,54-62,Grey Eagle Street,,,,,,,,,,,,
1c52da94-5b99-486c-b4d7-dfee9e595413,1c52da94-5b99-486c-b4d7-dfee9e595413,Essex,County,Former,,,,,,,,,,,,,,,,,,
1c6841f9-fd6a-4f4d-8ea1-0fafc5743828,1c6841f9-fd6a-4f4d-8ea1-0fafc5743828,,,,Alternate,,,,1-6,Old Bailey,,,,,,,,,,,,
1cd48a35-8155-4513-8899-15251031bb89,1cd48a35-8155-4513-8899-15251031bb89,,,,Alternate,,,,16-18,Rood Lane,,,,,,,,,,,,
1cdfc25f-c82b-4920-bca9-3f95a52f28ec,1cdfc25f-c82b-4920-bca9-3f95a52f28ec,Middlesex,County,Former,,,,,,,,,,,,,,,,,,
1d1079da-bbf5-48f3-abfe-6ed9b0db49ad,1d1079da-bbf5-48f3-abfe-6ed9b0db49ad,Surrey,County,Former,,,,,,,,,,,,,,,,,,
1d3517bd-f787-43b6-ba9b-a41d423359a7,1d3517bd-f787-43b6-ba9b-a41d423359a7,,,,Alternate,,,,93-95,Gresham Street,,,,,,,,,,,,
1d36d9b7-1a88-4650-9bbe-531c4404eae5,1d36d9b7-1a88-4650-9bbe-531c4404eae5,,,,Alternate,,,,,Goswell Road,,,,,,,,,,,,
1db96e60-fc87-44ba-9722-25b1405d5ab3,1db96e60-fc87-44ba-9722-25b1405d5ab3,,,,Alternate,,,,16,Garrick Street,,,,,,,,,,,,
1ddb2dba-7336-4650-9427-f8efd5dfa24d,1ddb2dba-7336-4650-9427-f8efd5dfa24d,Surrey,County,Former,,,,,,,,,,,,,,,,,,
1e3c0c6b-1910-47c4-bc64-fe62a1bfc068,1e3c0c6b-1910-47c4-bc64-fe62a1bfc068,,,,Alternate,,,,,St Benet's Place,,,,,,,,,,,,
1e712cf0-53c0-4d42-8752-a643aa78999a,1e712cf0-53c0-4d42-8752-a643aa78999a,,,,Alternate,,,,8,Shelton Street,,,,,,,,,,,,
1e8bae09-00f3-4a93-bf51-5da957902101,1e8bae09-00f3-4a93-bf51-5da957902101,,,,Alternate,,,,20-23,Suffolk Street,,,SW1Y,,,,,,,,,
1e969ad5-6618-4e02-aa81-f63f21084666,1e969ad5-6618-4e02-aa81-f63f21084666,,,,Alternate,,,,1-4,Copthall Close,,,,,,,,,,,,
1eb1f250-ba3b-46b9-bd0c-37e60ca13de1,1eb1f250-ba3b-46b9-bd0c-37e60ca13de1,,,,Alternate,,,,1,Russell Street,,,,,,,,,,,,
1ecb7360-a81b-46c5-89fb-89cb3cdb7e32,1ecb7360-a81b-46c5-89fb-89cb3cdb7e32,,,,Alternate,,,,156-158/160-164,Gray's Inn Road,,,WC1X,,,,,,,,,
1f0216a3-7932-4379-ba15-62c742487841,1f0216a3-7932-4379-ba15-62c742487841,Essex,County,Former,,,,,,,,,,,,,,,,,,
1f3f0548-cce9-42f9-b8bf-f1539a11d589,1f3f0548-cce9-42f9-b8bf-f1539a11d589,,,,Alternate,,,,38,Brushfield Street,,,,,,,,,,,,
206a97af-6ce0-4816-aea5-4befbcf5fe66,206a97af-6ce0-4816-aea5-4befbcf5fe66,,,,Alternate,,,,1-6,Imperial Parade,,,,,,,,,,,,
2093ef4e-d647-4d9e-bd85-ec8d3867a481,2093ef4e-d647-4d9e-bd85-ec8d3867a481,,,,Alternate,,,,2-6,Church Road,,,,,,,,,,,,
20d5c581-028f-4959-a33b-1552ac7f7ef2,20d5c581-028f-4959-a33b-1552ac7f7ef2,,,,Alternate,,,,35-37,Bedford Street,,,,,,,,,,,,
21c50abb-265d-4d0b-9335-3f6f623bd46a,21c50abb-265d-4d0b-9335-3f6f623bd46a,,,,Alternate,,,,,Muswell Hill Road,,,,,,,,,,,,
21fefe4d-8f44-41d4-97a5-36e489549410,21fefe4d-8f44-41d4-97a5-36e489549410,,,,Alternate,,,,51-54,Long Acre,,,,,,,,,,,,
220c1433-bd64-4d26-a966-cc8edec668db,220c1433-bd64-4d26-a966-cc8edec668db,Harrow,Borough,Current,,,,,,,,,,,,,,,,,,
2212cd6d-01ef-4532-a79c-6be8cda7c39b,2212cd6d-01ef-4532-a79c-6be8cda7c39b,,,,Alternate,,,,26-28,London Road,,,,,,,,,,,,
2218ecdf-3473-4f20-960d-34bae1d958e6,2218ecdf-3473-4f20-960d-34bae1d958e6,,,,Alternate,,,,68-72,Queen Victoria Street,,,,,,,,,,,,
2219b34b-c925-42fb-af8e-4905689f546c,2219b34b-c925-42fb-af8e-4905689f546c,Essex,County,Former,,,,,,,,,,,,,,,,,,
221f2044-b55e-4e3a-8a53-3e81192b193d,221f2044-b55e-4e3a-8a53-3e81192b193d,,,,Alternate,,,,19,Leman Street,,,,,,,,,,,,
22249481-fa74-4752-abf8-a59bd5477d16,22249481-fa74-4752-abf8-a59bd5477d16,,,,Alternate,,,,87-98,Mansell Street,,,,,,,,,,,,
22265fe3-4562-42ea-ae5c-0c6800c77f8a,22265fe3-4562-42ea-ae5c-0c6800c77f8a,,,,Alternate,,,,,Bankside,,,,,,,,,,,,
226ab0df-5776-4aa3-b863-16e4c7e96458,226ab0df-5776-4aa3-b863-16e4c7e96458,Middlesex,County,Former,,,,,,,,,,,,,,,,,,
227a124f-12ac-4372-aa82-3cffbc97a66d,227a124f-12ac-4372-aa82-3cffbc97a66d,,,,Alternate,,,,106-136,Bishopsgate,,,,,,,,,,,,
229e9de7-ede8-4bb5-9758-ddaacae74e02,229e9de7-ede8-4bb5-9758-ddaacae74e02,,,,Alternate,,,,2b,Landseer Road,,,,,,,,,,,,
22a43359-83b2-4997-a571-3a088d67532f,22a43359-83b2-4997-a571-3a088d67532f,,,,Alternate,,,,64,Turnmill Street,,,,,,,,,,,,
22b3f0c9-c013-4ca3-9f38-ec7504553ee5,22b3f0c9-c013-4ca3-9f38-ec7504553ee5,,,,Alternate,,,,15,Salter Street,,,,,,,,,,,,
23188605-b511-40cf-925e-c1e3f0ed8bf6,23188605-b511-40cf-925e-c1e3f0ed8bf6,,,,Alternate,,,,"47, 49-50",Poland Street,,,,,,,,,,,,
231e1ca9-f9b3-4d72-b9cc-f778e66a2393,231e1ca9-f9b3-4d72-b9cc-f778e66a2393,,,,Alternate,,,,25-26,Old Jewry,,,,,,,,,,,,
232303cc-e7df-477e-8c90-e7e6ac43d454,232303cc-e7df-477e-8c90-e7e6ac43d454,,,,Alternate,,,,16-17,Plough Street,,,,,,,,,,,,
233423ba-7b5d-42f2-8ec9-6dd96573f8ad,233423ba-7b5d-42f2-8ec9-6dd96573f8ad,Kent,County,Former,,,,,,,,,,,,,,,,,,
233b05a4-ec60-4235-8de1-d1813c391f77,233b05a4-ec60-4235-8de1-d1813c391f77,,,,Alternate,,,,2-4,Colchester Street,,,,,,,,,,,,
234e4bcb-5024-419d-8482-276b6f69a710,234e4bcb-5024-419d-8482-276b6f69a710,,,,Alternate,,,,355-361,Oxford Street,,,,,,,,,,,,
23757577-01f0-43ec-83f4-dc23c5dcf18d,23757577-01f0-43ec-83f4-dc23c5dcf18d,Kent,County,Former,,,,,,,,,,,,,,,,,,
238b6a40-59c1-49e1-9e00-55e69fe16aeb,238b6a40-59c1-49e1-9e00-55e69fe16aeb,Essex,County,Former,,,,,,,,,,,,,,,,,,
2393db78-3588-4f03-9ed1-0cef8ba25058,2393db78-3588-4f03-9ed1-0cef8ba25058,,,,Alternate,,,,10,Rood Lane,,,,,,,,,,,,
23d07641-f406-43bf-9913-5146fd23633b,23d07641-f406-43bf-9913-5146fd23633b,Surrey,County,Former,,,,,,,,,,,,,,,,,,
23e00300-cd5e-4027-a790-2f92a1ab7496,23e00300-cd5e-4027-a790-2f92a1ab7496,,,,Alternate,,,,106-126,Bishopsgate,,,,,,,,,,,,
243149fe-a9d7-483a-aa81-b2690efee07a,243149fe-a9d7-483a-aa81-b2690efee07a,,,,Alternate,,,,,Orange Street,,,,,,,,,,,,
24994cea-5f5f-4a26-b16b-0efe9b2c9e76,24994cea-5f5f-4a26-b16b-0efe9b2c9e76,,,,Alternate,,,,222,Purley Way,,,,,,,,,,,,
24d9f137-b7f8-460a-bf41-ba896aa63eb8,24d9f137-b7f8-460a-bf41-ba896aa63eb8,,,,Alternate,,,,12,Norwich Street,,,,,,,,,,,,
24ec91e2-aca9-4fb8-9d57-3a48e5d5c138,24ec91e2-aca9-4fb8-9d57-3a48e5d5c138,,,,Alternate,,,,2-4,Colchester Street,,,,,,,,,,,,
24ed9d9b-2f1b-4d7e-b68c-2ae53c9028b7,24ed9d9b-2f1b-4d7e-b68c-2ae53c9028b7,Middlesex,County,Former,,,,,,,,,,,,,,,,,,
25128e5a-be05-4c14-87d0-5cd305d2d653,25128e5a-be05-4c14-87d0-5cd305d2d653,,,,Alternate,,,,2-3,Powis Place,,,,,,,,,,,,
25a3e1e0-126f-4a65-b4c7-7d49437f8346,25a3e1e0-126f-4a65-b4c7-7d49437f8346,,,,Alternate,,,,,Vaughan Way,,,,,,,,,,,,
25bf823d-e642-4bf3-962b-870710b3b34f,25bf823d-e642-4bf3-962b-870710b3b34f,,,,Alternate,St Barnabas Vicarage,,,111,Homerton High Street,,,,,,,,,,,,
25da4130-fed2-4806-abce-e9b85873deec,25da4130-fed2-4806-abce-e9b85873deec,,,,Alternate,,,,,Pilgrimage Street,,,,,,,,,,,,
268cbfed-39b1-4400-b03c-06c5de7ad2ff,268cbfed-39b1-4400-b03c-06c5de7ad2ff,,,,Alternate,,,,,Peckham High Street,,,,,,,,,,,,
26948ef0-eb19-4299-99ff-d103a183f927,26948ef0-eb19-4299-99ff-d103a183f927,,,,Alternate,,,,38,Brushfield Street,,,,,,,,,,,,
274cffbc-7070-42fb-9a70-4c4ac3779739,274cffbc-7070-42fb-9a70-4c4ac3779739,,,,Alternate,,,,1-9,Alscot Road,,,,,,,,,,,,
280a200e-f0ca-48d1-a287-faf997a93e30,280a200e-f0ca-48d1-a287-faf997a93e30,,,,Alternate,,,,,White Lion Hill,,,,,,,,,,,,
2827dae5-6108-4de8-a331-c627ab5a3572,2827dae5-6108-4de8-a331-c627ab5a3572,,,,Alternate,,,,20,Leonard Street,,,,,,,,,,,,
28596e30-3816-44a7-bf9a-d19fb8a94dc1,28596e30-3816-44a7-bf9a-d19fb8a94dc1,,,,Alternate,,,,42,Half Moon Street,,,,,,,,,,,,
285c8143-45f1-40d3-92ff-8917a686e118,285c8143-45f1-40d3-92ff-8917a686e118,Middlesex,County,Former,,,,,,,,,,,,,,,,,,
288bbb99-d881-48a2-a2d7-5b37a4903170,288bbb99-d881-48a2-a2d7-5b37a4903170,,,,Alternate,,,,,Manor Road,,,,,,,,,,,,
2890c81e-c8ef-4319-a5cc-b45867d9ed70,2890c81e-c8ef-4319-a5cc-b45867d9ed70,,,,Alternate,,,,32-40,Mitre Street,,,,,,,,,,,,
28d0c14e-1876-4982-acc4-2b1277aa8a65,28d0c14e-1876-4982-acc4-2b1277aa8a65,,,,Alternate,,,,,Crispin Street,,,,,,,,,,,,
28e415a0-2615-477a-a95c-aa68f5a189da,28e415a0-2615-477a-a95c-aa68f5a189da,Essex,County,Former,,,,,,,,,,,,,,,,,,
28ea4e17-3179-45a9-9210-b4d88492902f,28ea4e17-3179-45a9-9210-b4d88492902f,,,,Alternate,Greycoat Hospital Lower School,,,,Graham Terrace,,,,,,,,,,,,
28f9a5ae-7014-4696-bf25-610d1461ba0d,28f9a5ae-7014-4696-bf25-610d1461ba0d,,,,Alternate,,,,,Monument Street,,,,,,,,,,,,
2908fcf2-566c-424a-a9b7-b7d22999d710,2908fcf2-566c-424a-a9b7-b7d22999d710,,,,Alternate,,,,6-8,Stoney Street,,,,,,,,,,,,
2925d6ae-6576-4e73-afcc-87025e7e45ce,2925d6ae-6576-4e73-afcc-87025e7e45ce,,,,Alternate,,,,117-133,High Street,,,,,,,,,,,,
292f382e-b1de-469c-89f7-4c3a026fa92a,292f382e-b1de-469c-89f7-4c3a026fa92a,,,,Alternate,,,,1-6,St Mary Axe,,,,,,,,,,,,
29822618-acb3-4900-9e2b-f0030c14c4db,29822618-acb3-4900-9e2b-f0030c14c4db,Surrey,County,Former,,,,,,,,,,,,,,,,,,
298d8d5c-a87d-40a4-bc3a-e93e867f9989,298d8d5c-a87d-40a4-bc3a-e93e867f9989,,,,Alternate,,,,19-41,Earlham Street,,,,,,,,,,,,
2a5aae16-3614-401a-a23a-e9ed314e0c52,2a5aae16-3614-401a-a23a-e9ed314e0c52,Middlesex,County,Former,,,,,,,,,,,,,,,,,,
2a609cb8-993d-4849-a136-c1a6b39e19cd,2a609cb8-993d-4849-a136-c1a6b39e19cd,Essex,County,Former,,,,,,,,,,,,,,,,,,
2a85a9f8-c34a-4a7e-89cf-37b4e49cc741,2a85a9f8-c34a-4a7e-89cf-37b4e49cc741,,,,Alternate,,,,3,Lambeth Palace Road,,,,,,,,,,,,
2ab15548-59e1-4880-b44f-0b261f448947,2ab15548-59e1-4880-b44f-0b261f448947,,,,Alternate,,,,29-30,Queen Street,,,,,,,,,,,,
2ac75910-3ca1-4530-8292-0e32a592c094,2ac75910-3ca1-4530-8292-0e32a592c094,,,,Alternate,,,,14-15,New Street,,,,,,,,,,,,
2add6da7-cdd5-43ac-ae1c-f8268cdde0b9,2add6da7-cdd5-43ac-ae1c-f8268cdde0b9,,,,Alternate,,,,20-23,Devonshire Place,,,,,,,,,,,,
2b2275b2-3038-45f2-ad8c-7bed628d7825,2b2275b2-3038-45f2-ad8c-7bed628d7825,,,,Alternate,,,,2-28,Thorne Street,,,,,,,,,,,,
2b49050a-46fe-4b7a-b0d8-05be4dbc8f6e,2b49050a-46fe-4b7a-b0d8-05be4dbc8f6e,,,,Alternate,,,,60,Ludgate Hill,,,,,,,,,,,,
2bde5635-c746-466e-865f-27fa03f0314a,2bde5635-c746-466e-865f-27fa03f0314a,,,,Alternate,,,,20-56,Copthall Avenue,,,,,,,,,,,,
2bf80dc3-5a0a-4a61-9716-743c0784fade,2bf80dc3-5a0a-4a61-9716-743c0784fade,,,,Alternate,,,,,Goods Way,,,,,,,,,,,,
2c9845f2-5bba-4525-b220-0ece9143a474,2c9845f2-5bba-4525-b220-0ece9143a474,,,,Alternate,,,,1-5,Queen Street,,,,,,,,,,,,
2d3d07e1-ebcc-4917-b301-480e6a4b3e1d,2d3d07e1-ebcc-4917-b301-480e6a4b3e1d,,,,Alternate,Nine Elms Farm,,,,Victoria Lane,,,,,,,,,,,,
2d8c1972-292d-418a-8d8a-bfba3f98f085,2d8c1972-292d-418a-8d8a-bfba3f98f085,,,,Alternate,,,,20-21,Tooks Court,,,,,,,,,,,,
2de9bde6-0886-4243-8b3e-ac3b9ac53170,2de9bde6-0886-4243-8b3e-ac3b9ac53170,,,,Alternate,,,,107-122,Leadenhall,,,,,,,,,,,,
2e08aabe-6687-4acb-b035-4c53242ad1c5,2e08aabe-6687-4acb-b035-4c53242ad1c5,,,,Alternate,,,,4,Cripplegate Buildings,,,,,,,,,,,,
2e225fe8-91c4-4f88-b6f8-44498972b83f,2e225fe8-91c4-4f88-b6f8-44498972b83f,Surrey,County,Former,,,,,,,,,,,,,,,,,,
2eaad15b-6a8a-4761-8e73-19aac5946b6a,2eaad15b-6a8a-4761-8e73-19aac5946b6a,,,,Alternate,,,,38,Brushfield Street,,,,,,,,,,,,
2ecd5b5a-bf5e-4e2f-9dfe-1d89162fb9c6,2ecd5b5a-bf5e-4e2f-9dfe-1d89162fb9c6,,,,Alternate,,,,31-33,Bush Lane,,,,,,,,,,,,
2ed20d05-607f-4da4-820c-fe0b4e0afa02,2ed20d05-607f-4da4-820c-fe0b4e0afa02,,,,Alternate,,,,62-63,Threadneedle Street,,,,,,,,,,,,
2ed8dd5f-4c1e-4e09-9aa3-8c8819677df3,2ed8dd5f-4c1e-4e09-9aa3-8c8819677df3,,,,Alternate,,,,13-17,Burlington Place,,,,,,,,,,,,
2ef07785-ae65-4775-9554-ad4a047db0f9,2ef07785-ae65-4775-9554-ad4a047db0f9,Hounslow,Borough,Current,,,,,,,,,,,,,,,,,,
2ef1f208-e195-43d2-92b7-470501735568,2ef1f208-e195-43d2-92b7-470501735568,,,,Alternate,,,,3-4,Eagle Place,,,,,,,,,,,,
2f1a026b-7980-4d87-8758-85362bec37da,2f1a026b-7980-4d87-8758-85362bec37da,,,,Alternate,,,,,Clink Street,,,,,,,,,,,,
2f4bc138-e48b-4eaf-bdf4-7839ad382c61,2f4bc138-e48b-4eaf-bdf4-7839ad382c61,Middlesex,County,Former,,,,,,,,,,,,,,,,,,
2f7bfdf5-3017-4549-a103-48f15fac3a92,2f7bfdf5-3017-4549-a103-48f15fac3a92,,,,Alternate,,,,45-49,London Wall,,,,,,,,,,,,
2fc74079-516d-4609-acfe-3a0b11484bf8,2fc74079-516d-4609-acfe-3a0b11484bf8,,,,Alternate,,,,127-131,Long Acre,,,,,,,,,,,,
2ff5612a-be85-4871-a249-c992ec5d45e3,2ff5612a-be85-4871-a249-c992ec5d45e3,Middlesex,County,Former,,,,,,,,,,,,,,,,,,
304e4be2-1b83-4616-8cd8-c021a0796607,304e4be2-1b83-4616-8cd8-c021a0796607,Surrey,County,Former,,,,,,,,,,,,,,,,,,
308c4345-ae5d-438c-b2a4-e95f4b92b00a,308c4345-ae5d-438c-b2a4-e95f4b92b00a,,,,Alternate,,,,1-7,Hanover Street,,,,,,,,,,,,
30b3d33f-69db-4ecb-bd66-0fc68f5c6591,30b3d33f-69db-4ecb-bd66-0fc68f5c6591,,,,Alternate,,,,,Felstead Road,,,,,,,,,,,,
30ef06b9-301e-4adc-9f67-9e51c31c0798,30ef06b9-301e-4adc-9f67-9e51c31c0798,Kent,County,Former,,,,,,,,,,,,,,,,,,
315a6c7e-19d4-45b9-be19-50d592000ced,315a6c7e-19d4-45b9-be19-50d592000ced,Kent,County,Former,,,,,,,,,,,,,,,,,,
318c54a9-bc37-4d65-8c2a-24748fd49642,318c54a9-bc37-4d65-8c2a-24748fd49642,,,,Alternate,,,,,Newick Road,,,,,,,,,,,,
32082ba5-966c-4f4e-b751-1a40ee75b6d3,32082ba5-966c-4f4e-b751-1a40ee75b6d3,,,,Alternate,,,,,Lennard Road,,,,,,,,,,,,
329813d8-2c12-4797-9c6c-60d6f53310fe,329813d8-2c12-4797-9c6c-60d6f53310fe,,,,Alternate,,,,2-4,Colchester Street,,,,,,,,,,,,
32b0df8b-3c3c-41b0-934c-5059e4728520,32b0df8b-3c3c-41b0-934c-5059e4728520,,,,Alternate,,,,22-24,Bruton Lane,,,,,,,,,,,,
32b12ac9-bcba-4501-84e7-8c828e5663e6,32b12ac9-bcba-4501-84e7-8c828e5663e6,Surrey,County,Former,,,,,,,,,,,,,,,,,,
32d5e948-450e-44ca-a83d-f2916d362378,32d5e948-450e-44ca-a83d-f2916d362378,,,,Alternate,,,,17-20,Cullum Street,,,,,,,,,,,,
3359b626-8455-4156-8f21-6afcd43aaccf,3359b626-8455-4156-8f21-6afcd43aaccf,,,,Alternate,,,,5,Broadgate,,,,,,,,,,,,
336ef30e-a7b4-4df8-95fd-4274f5c25431,336ef30e-a7b4-4df8-95fd-4274f5c25431,,,,Alternate,,,,12-16,Penton Street,,,,,,,,,,,,
3394d8cb-4328-4ce2-8d88-0e7b0f67cdb3,3394d8cb-4328-4ce2-8d88-0e7b0f67cdb3,,,,Alternate,,,,61-70,St Paul's Churchyard,,,,,,,,,,,,
33a28dcf-323e-4ccc-8225-c51740135dd2,33a28dcf-323e-4ccc-8225-c51740135dd2,,,,Alternate,,,,62-63,Threadneedle Street,,,,,,,,,,,,
33bd7c29-8da7-43c6-8820-7c4396f864f1,33bd7c29-8da7-43c6-8820-7c4396f864f1,,,,Alternate,,,,2-6,Leyden Street,,,,,,,,,,,,
345df5a3-a1a2-49a3-a836-61f007b0debb,345df5a3-a1a2-49a3-a836-61f007b0debb,,,,Alternate,,,,,Robsart Road,,,,,,,,,,,,
347df138-55be-4305-965a-aadc17da06c5,347df138-55be-4305-965a-aadc17da06c5,Kent,County,Former,,,,,,,,,,,,,,,,,,
34b9677e-2927-432c-9155-e151d29ff185,34b9677e-2927-432c-9155-e151d29ff185,,,,Alternate,,,,,Finsbury Pavement,,,,,,,,,,,,
34e1ec35-ca9e-431b-beea-3463568dcb71,34e1ec35-ca9e-431b-beea-3463568dcb71,Kent,County,Former,,,,,,,,,,,,,,,,,,
34e91eac-ac2c-4c36-bb95-8339cae871ae,34e91eac-ac2c-4c36-bb95-8339cae871ae,Havering,Borough,Current,,,,,,,,,,,,,,,,,,
34ec2cb5-0dea-439a-95eb-4b834a6a0a9d,34ec2cb5-0dea-439a-95eb-4b834a6a0a9d,Surrey,County,Former,,,,,,,,,,,,,,,,,,
353f2cb8-0b7e-4df9-aba0-ac49ce30b2e1,353f2cb8-0b7e-4df9-aba0-ac49ce30b2e1,,,,Alternate,,,,109,Pelton Road,,,,,,,,,,,,
359390ad-f392-4856-83ad-d2ec1fc063e3,359390ad-f392-4856-83ad-d2ec1fc063e3,Kent,County,Former,,,,,,,,,,,,,,,,,,
35be0904-f1b0-45f4-9638-45f2fa22e630,35be0904-f1b0-45f4-9638-45f2fa22e630,Surrey,County,Former,,,,,,,,,,,,,,,,,,
35e2f62d-f2af-41e5-a9c7-3907cd296cbf,35e2f62d-f2af-41e5-a9c7-3907cd296cbf,,,,Alternate,,,,10-16,Bevis Marks,,,,,,,,,,,,
35e5cc89-eb7f-4afd-b6e1-01fb9f060a51,35e5cc89-eb7f-4afd-b6e1-01fb9f060a51,,,,Alternate,,,,2-8,Newton Street,,,,,,,,,,,,
36158310-8e87-4dfe-ad98-8e60638391b3,36158310-8e87-4dfe-ad98-8e60638391b3,,,,Alternate,,,,18-31,Eldon Street,,,,,,,,,,,,
36204721-2220-490e-a412-e2d800c5e50d,36204721-2220-490e-a412-e2d800c5e50d,Middlesex,County,Former,,,,,,,,,,,,,,,,,,
36bd3327-2284-4717-b487-d45ccf2c58bb,36bd3327-2284-4717-b487-d45ccf2c58bb,,,,Alternate,,,,12-26,Hartfield Road,,,,,,,,,,,,
36dae660-f517-411f-baa1-68214262bdf4,36dae660-f517-411f-baa1-68214262bdf4,,,,Alternate,,,,,Water Lane,,,,,,,,,,,,
36eb83f8-d512-4c15-b382-c39cef18c313,36eb83f8-d512-4c15-b382-c39cef18c313,,,,Alternate,,,,25-26,Old Jewry,,,,,,,,,,,,
37a0d8bf-dac0-4908-91f3-e14dccef244d,37a0d8bf-dac0-4908-91f3-e14dccef244d,,,,Alternate,,,,3-15,New Inn Yard,,,,,,,,,,,,
37a4db36-19c7-4a0c-a0b8-4755048fdb44,37a4db36-19c7-4a0c-a0b8-4755048fdb44,,,,Alternate,,,,87-88,Farringdon Street,,,,,,,,,,,,
37a9e66b-779f-48b6-88fd-348f0ba14c91,37a9e66b-779f-48b6-88fd-348f0ba14c91,Kent,County,Former,,,,,,,,,,,,,,,,,,
37d21470-bc5c-4939-ad93-8119790be775,37d21470-bc5c-4939-ad93-8119790be775,,,,Alternate,,,,25,New Street Square,,,,,,,,,,,,
37fd864a-b9d5-4d48-9f15-a980de14f46e,37fd864a-b9d5-4d48-9f15-a980de14f46e,,,,Alternate,,,,10,King Edward Street,,,,,,,,,,,,
3802a13e-4d75-45c2-812e-a633f366c581,3802a13e-4d75-45c2-812e-a633f366c581,,,,Alternate,,,,307-311,Camberwell New Road,,,,,,,,,,,,
38acf12f-4168-4cea-881d-44b87f47e3eb,38acf12f-4168-4cea-881d-44b87f47e3eb,,,,Alternate,,,,106-126,Bishopsgate,,,,,,,,,,,,
38b55524-13f6-4171-afc0-175560d48b15,38b55524-13f6-4171-afc0-175560d48b15,Middlesex,County,Former,,,,,,,,,,,,,,,,,,
38c63a61-a1e6-4d48-bfaf-49bcb61e2ce6,38c63a61-a1e6-4d48-bfaf-49bcb61e2ce6,,,,Alternate,,,,16,Garrick Street,,,,,,,,,,,,
392fcda6-f229-4c12-8125-c7562e0d138a,392fcda6-f229-4c12-8125-c7562e0d138a,,,,Alternate,,,,,Church End,,,,,,,,,,,,
393af012-e814-48d3-9706-def94e7451b0,393af012-e814-48d3-9706-def94e7451b0,,,,Alternate,,,,1-5,Addle Hill,,,,,,,,,,,,
394c35de-84df-42d6-a09c-3d925e331259,394c35de-84df-42d6-a09c-3d925e331259,Surrey,County,Former,,,,,,,,,,,,,,,,,,
395d71d3-0f0a-4ffc-bfbc-0aa402cf3bb2,395d71d3-0f0a-4ffc-bfbc-0aa402cf3bb2,Havering,Borough,Current,,,,,,,,,,,,,,,,,,
39918c92-c100-40a7-963c-50528b3a0517,39918c92-c100-40a7-963c-50528b3a0517,,,,Alternate,,,,106-126,Bishopsgate Street,,,,,,,,,,,,
39d58814-2584-4039-9008-b7279d895f5a,39d58814-2584-4039-9008-b7279d895f5a,Surrey,County,Former,,,,,,,,,,,,,,,,,,
39d8afd5-14c2-468a-ba2e-01a84349d04d,39d8afd5-14c2-468a-ba2e-01a84349d04d,,,,Alternate,,,,46-50,Tufton Street,,,,,,,,,,,,
39fd8392-917a-47d8-865c-5a3bed3b81ff,39fd8392-917a-47d8-865c-5a3bed3b81ff,,,,Alternate,,,,12A,Hay's Mews,,,,,,,,,,,,
3a1ee562-43d8-4c25-9ce9-9d942e899e16,3a1ee562-43d8-4c25-9ce9-9d942e899e16,,,,Alternate,,,,31-37,Cannon Street,,,,,,,,,,,,
3a2c2713-8127-4e62-89f7-2b86ade91aa1,3a2c2713-8127-4e62-89f7-2b86ade91aa1,Kent,County,Former,,,,,,,,,,,,,,,,,,
3a425060-dcc9-48ea-9d12-e784221199aa,3a425060-dcc9-48ea-9d12-e784221199aa,,,,Alternate,,,,1-4,Fenchurch Street,,,,,,,,,,,,
3ac365d1-847e-44ed-89ec-9fcc9acc9118,3ac365d1-847e-44ed-89ec-9fcc9acc9118,,,,Alternate,,,,11-12,Hanover Square,,,,,,,,,,,,
3ac72b8c-a4c0-4eba-ab3f-5fa678347001,3ac72b8c-a4c0-4eba-ab3f-5fa678347001,,,,Alternate,,,,,Highbridge Road,,,,,,,,,,,,
3ad1e20f-fd49-414a-b4cd-86ce0b64fc3f,3ad1e20f-fd49-414a-b4cd-86ce0b64fc3f,,,,Alternate,,,,,Greenwich Church Street,,,,,,,,,,,,
3af8a7b7-9ccb-4da0-9c12-9e76c671b221,3af8a7b7-9ccb-4da0-9c12-9e76c671b221,Middlesex,County,Former,,,,,,,,,,,,,,,,,,
3afefd08-e7e5-4815-9ff1-79c7847bcb18,3afefd08-e7e5-4815-9ff1-79c7847bcb18,,,,Alternate,,,,1-6,Aldersgate Street,,,,,,,,,,,,
3b122061-dc96-4be7-8b48-06617a6c2f9c,3b122061-dc96-4be7-8b48-06617a6c2f9c,Kent,County,Former,,,,,,,,,,,,,,,,,,
3b37def4-9ddb-4b13-a545-1a196b0bb45d,3b37def4-9ddb-4b13-a545-1a196b0bb45d,Middlesex,County,Former,,,,,,,,,,,,,,,,,,
3bceff6a-e23a-4554-81ef-1961ca7fa3f0,3bceff6a-e23a-4554-81ef-1961ca7fa3f0,,,,Alternate,,,,1-7,Green Dragon Court,,,,,,,,,,,,
3bd9b1f0-3c78-403f-ac6b-51b44ff1f792,3bd9b1f0-3c78-403f-ac6b-51b44ff1f792,,,,Alternate,,,,,London Wall,,,,,,,,,,,,
3bf9ce28-54d0-4795-8434-95034dbf08ae,3bf9ce28-54d0-4795-8434-95034dbf08ae,,,,Alternate,,,,10,Holborn Viaduct,,,,,,,,,,,,
3bfefbac-1502-43d6-a6c9-b1c64d8d35d4,3bfefbac-1502-43d6-a6c9-b1c64d8d35d4,,,,Alternate,,,,"15-23, 25-29",Liverpool Road,,,,,,,,,,,,
3c32dca4-65bb-4fc8-a4d6-27e36fac71ef,3c32dca4-65bb-4fc8-a4d6-27e36fac71ef,Middlesex,County,Former,,,,,,,,,,,,,,,,,,
3c33c8fc-e34f-43b5-a792-306b3fe1cf8e,3c33c8fc-e34f-43b5-a792-306b3fe1cf8e,Tower Hamlets,Borough,Current,,,,,,,,,,,,,,,,,,
3c44a8c2-a9a6-44a7-a82d-a7cc9112afbd,3c44a8c2-a9a6-44a7-a82d-a7cc9112afbd,,,,Alternate,,,,107-115,Long Acre,,,,,,,,,,,,
3c4b95d8-a6bd-4e3b-99f9-b88f8beadc5c,3c4b95d8-a6bd-4e3b-99f9-b88f8beadc5c,,,,Alternate,,,,37,Jewry Street,,,,,,,,,,,,
3c766c18-5c91-4f3e-bee0-577ac01bf7b8,3c766c18-5c91-4f3e-bee0-577ac01bf7b8,Essex,County,Former,,,,,,,,,,,,,,,,,,
3ce30bf1-4fe4-4618-8056-b86f8f2d4cf0,3ce30bf1-4fe4-4618-8056-b86f8f2d4cf0,,,,Alternate,,,,,Haddon Road,,,,,,,,,,,,
3d0a168a-8eda-4474-85a1-d74145cd35a0,3d0a168a-8eda-4474-85a1-d74145cd35a0,,,,Alternate,,,,14-15,New Street,,,,,,,,,,,,
3d27583d-6776-471d-ab99-ee44030663fc,3d27583d-6776-471d-ab99-ee44030663fc,,,,Alternate,,,,5-12,New London Street,,,,,,,,,,,,
3d3e4858-82cd-4725-8989-34248be9d87b,3d3e4858-82cd-4725-8989-34248be9d87b,,,,Alternate,,,,,Bishopsgate,,,,,,,,,,,,
3d5979ac-f5e2-42ec-9e28-ddf3164fa978,3d5979ac-f5e2-42ec-9e28-ddf3164fa978,,,,Alternate,,,,"28-31, 35",Edridge Road,,,,,,,,,,,,
3dc22c4f-0c5e-4a37-85a6-d495b8b404b9,3dc22c4f-0c5e-4a37-85a6-d495b8b404b9,,,,Alternate,,,,26-34,Old Bailey,,,,,,,,,,,,
3dcae94e-e121-4842-a63b-d56a4fbb8e59,3dcae94e-e121-4842-a63b-d56a4fbb8e59,,,,Alternate,,,,7,Stoney Street,,,,,,,,,,,,
3df351fb-7aef-4a55-9b50-4b521b97fe49,3df351fb-7aef-4a55-9b50-4b521b97fe49,,,,Alternate,,,,4-10,Lower Marsh,,,,,,,,,,,,
3e0431fe-f002-46c1-9961-a278191b7a03,3e0431fe-f002-46c1-9961-a278191b7a03,,,,Alternate,,,,43,Farringdon Street,,,,,,,,,,,,
3e25d537-ad4d-420e-8908-02d0b9b301fd,3e25d537-ad4d-420e-8908-02d0b9b301fd,,,,Alternate,,,,25,Murphy Road,,,,,,,,,,,,
3e4bd557-0876-4a0e-a8b9-ac88bbc244f2,3e4bd557-0876-4a0e-a8b9-ac88bbc244f2,Middlesex,County,Former,,,,,,,,,,,,,,,,,,
3e6f296b-796c-45e6-a234-2f4d1737bcde,3e6f296b-796c-45e6-a234-2f4d1737bcde,Surrey,County,Former,,,,,,,,,,,,,,,,,,
3e9a5b35-309f-417b-a2d8-c146a4361100,3e9a5b35-309f-417b-a2d8-c146a4361100,,,,Alternate,,,,67-71,Watling Street,,,,,,,,,,,,
3eaed4b9-f952-4765-bba1-5973a6286b36,3eaed4b9-f952-4765-bba1-5973a6286b36,Surrey,County,Former,,,,,,,,,,,,,,,,,,
3f01143d-9e71-4cb8-b105-3ac93d021614,3f01143d-9e71-4cb8-b105-3ac93d021614,Surrey,County,Former,,,,,,,,,,,,,,,,,,
3f0551e0-c056-47c7-a8cc-4b82f25027d4,3f0551e0-c056-47c7-a8cc-4b82f25027d4,Essex,County,Former,,,,,,,,,,,,,,,,,,
3f0d837b-6c81-414c-b575-1546dd7f837a,3f0d837b-6c81-414c-b575-1546dd7f837a,Harrow,Borough,Current,,,,,,,,,,,,,,,,,,
3f1a3a2e-e3ed-4bff-bd58-850573658b6f,3f1a3a2e-e3ed-4bff-bd58-850573658b6f,Southwark,Borough,Current,,,,,,,,,,,,,,,,,,
3f416afa-eddf-4778-a82a-72dac2eeb77e,3f416afa-eddf-4778-a82a-72dac2eeb77e,,,,Alternate,,,,1,Fisher Street,,,,,,,,,,,,
3f617737-d63e-4be1-a226-96231e0805ea,3f617737-d63e-4be1-a226-96231e0805ea,Middlesex,County,Former,,,,,,,,,,,,,,,,,,
3f9e757b-7b64-48e7-9246-2cb72e364c4f,3f9e757b-7b64-48e7-9246-2cb72e364c4f,,,,Alternate,,,,1,Paul Street,,,,,,,,,,,,
3ffd7a47-8b19-488a-8d45-ed0ce7fc3aa1,3ffd7a47-8b19-488a-8d45-ed0ce7fc3aa1,Surrey,County,Former,,,,,,,,,,,,,,,,,,
402f5ac5-b10c-43b1-8d8b-42d8f20bdf32,402f5ac5-b10c-43b1-8d8b-42d8f20bdf32,,,,Alternate,,,,2-12,Newark Street,,,,,,,,,,,,
404c3097-f21c-4e8c-aad2-2deb433cb99b,404c3097-f21c-4e8c-aad2-2deb433cb99b,,,,Alternate,,,,2,St Alphage Garden,,,,,,,,,,,,
40a0dff0-278e-494d-b60d-8037cb5b74ba,40a0dff0-278e-494d-b60d-8037cb5b74ba,Surrey,County,Former,,,,,,,,,,,,,,,,,,
40b783fd-d758-46cd-a0d1-1fbd40f20b41,40b783fd-d758-46cd-a0d1-1fbd40f20b41,Middlesex,County,Former,,,,,,,,,,,,,,,,,,
40c0eefa-a191-47ea-aaef-5d440861afec,40c0eefa-a191-47ea-aaef-5d440861afec,Essex,County,Former,,,,,,,,,,,,,,,,,,
410a8d4a-346f-44f8-89f7-caf998343e2c,410a8d4a-346f-44f8-89f7-caf998343e2c,,,,Alternate,,,,70-75,Turnmill Street,,,,,,,,,,,,
412fd52a-73c9-44a9-bb27-21ac582008e6,412fd52a-73c9-44a9-bb27-21ac582008e6,,,,Alternate,,,,2-6,Catton Street,,,,,,,,,,,,
414defa0-9ad2-427b-a80b-2a5295966621,414defa0-9ad2-427b-a80b-2a5295966621,,,,Alternate,Kingfisher House,,Cowley Business Park,,High Street,,,,,,,,,,,,
41526c0f-23cf-46c9-9654-47f324e0dbe2,41526c0f-23cf-46c9-9654-47f324e0dbe2,Essex,County,Former,,,,,,,,,,,,,,,,,,
415addf0-2366-4bc4-9f1e-0227394be74b,415addf0-2366-4bc4-9f1e-0227394be74b,Middlesex,County,Former,,,,,,,,,,,,,,,,,,
415b12b2-0b61-4ae3-b40f-f982ebe30f0f,415b12b2-0b61-4ae3-b40f-f982ebe30f0f,,,,Alternate,,,,1-5,Addle Hill,,,,,,,,,,,,
4162e207-d750-4a8d-b528-0bda67898265,4162e207-d750-4a8d-b528-0bda67898265,,,,Alternate,,,,,Abbey Street,,,,,,,,,,,,
41c2c4dd-26b9-49c1-a457-6f1e5b01b67f,41c2c4dd-26b9-49c1-a457-6f1e5b01b67f,,,,Alternate,,,,2,Rose Alley,,,,,,,,,,,,
422d7eab-86e7-4ce4-a86a-17bdc91fa79d,422d7eab-86e7-4ce4-a86a-17bdc91fa79d,,,,Alternate,,,,24-26,Newbury Street,,,,,,,,,,,,
4286106b-5cad-4b8d-b0e9-5fea38b3b685,4286106b-5cad-4b8d-b0e9-5fea38b3b685,,,,Alternate,,,,,South Place,,,,,,,,,,,,
42fcee39-1d97-4b40-82f8-904993950b86,42fcee39-1d97-4b40-82f8-904993950b86,,,,Alternate,,,,17,St Andrews Road,,,,,,,,,,,,
43dc1d19-8ab3-4f16-918d-b0c6b43567e0,43dc1d19-8ab3-4f16-918d-b0c6b43567e0,,,,Alternate,,,,15-17,Trinity Lane,,,,,,,,,,,,
43f9c0e9-3a45-47b9-9404-e36224b044be,43f9c0e9-3a45-47b9-9404-e36224b044be,,,,Alternate,,,,,Greenwich Church Road,,,,,,,,,,,,
43fd8c33-5823-4b23-9a02-ccfd3f251b0f,43fd8c33-5823-4b23-9a02-ccfd3f251b0f,,,,Alternate,,,,8-9,Dowgate Hill,,,,,,,,,,,,
4496b32a-b6da-4414-a107-80c6bcb9a612,4496b32a-b6da-4414-a107-80c6bcb9a612,,,,Alternate,,,,5,Great Russell Street,,,,,,,,,,,,
44977e5a-4b68-4c32-907e-a3ef9dbc6ba2,44977e5a-4b68-4c32-907e-a3ef9dbc6ba2,,,,Alternate,,,,30-40,Brooke Street,,,,,,,,,,,,
44a84110-b5c9-45fd-9fc5-27faba23170b,44a84110-b5c9-45fd-9fc5-27faba23170b,Essex,County,Former,,,,,,,,,,,,,,,,,,
44fa71ab-0e3e-48d2-a51f-cfa967e156fe,44fa71ab-0e3e-48d2-a51f-cfa967e156fe,Essex,County,Former,,,,,,,,,,,,,,,,,,
4518fa79-ee88-4bed-aed8-5d5c4a59aa1c,4518fa79-ee88-4bed-aed8-5d5c4a59aa1c,,,,Alternate,,,,,Gloucester Court,,,,,,,,,,,,
4548458d-1060-45a4-b9a2-2a1b2a260830,4548458d-1060-45a4-b9a2-2a1b2a260830,,,,Alternate,,,,1-7,Hanover Street,,,,,,,,,,,,
45553037-0401-4cbd-bf51-5dd83b010edd,45553037-0401-4cbd-bf51-5dd83b010edd,Tower Hamlets,Borough,Current,,,,,,,,,,,,,,,,,,
4564e491-0a73-413c-ab34-d03d4e9ba835,4564e491-0a73-413c-ab34-d03d4e9ba835,Essex,County,Former,,,,,,,,,,,,,,,,,,
456d198b-969e-40ca-9c75-20f4d93ccc9f,456d198b-969e-40ca-9c75-20f4d93ccc9f,Middlesex,County,Former,,,,,,,,,,,,,,,,,,
45f2bc40-5ca1-4842-a63c-a26e811204fe,45f2bc40-5ca1-4842-a63c-a26e811204fe,,,,Alternate,,,,74,Wick Lane,,,,,,,,,,,,
45f451be-7fe9-4b76-a816-84b9730aaf69,45f451be-7fe9-4b76-a816-84b9730aaf69,Kent,County,Former,,,,,,,,,,,,,,,,,,
462a9fb9-cb95-4f7b-b2d7-3e2b648522fd,462a9fb9-cb95-4f7b-b2d7-3e2b648522fd,Surrey,County,Former,,,,,,,,,,,,,,,,,,
46513968-fdc9-4d2f-9ad9-3eef0a7af909,46513968-fdc9-4d2f-9ad9-3eef0a7af909,,,,Alternate,,,,175-177,Seymour Place,,,,,,,,,,,,
4664202f-4b67-401d-b31f-031ca2ea70d8,4664202f-4b67-401d-b31f-031ca2ea70d8,,,,Alternate,,,,53,New Broad Street,,,,,,,,,,,,
467cfdfa-ffa3-4055-b2a2-70680127608d,467cfdfa-ffa3-4055-b2a2-70680127608d,Surrey,County,Former,,,,,,,,,,,,,,,,,,
46ddeed8-a18d-427f-b1f0-d71fdeaaeb91,46ddeed8-a18d-427f-b1f0-d71fdeaaeb91,Essex,County,Former,,,,,,,,,,,,,,,,,,
46f3d7e1-1ab1-4633-afad-de32b8e4b746,46f3d7e1-1ab1-4633-afad-de32b8e4b746,,,,Alternate,,,,,Lombard Street,,,EC3,,,,,,,,,
46f4f589-9be2-4f1b-877a-9944ced4d85e,46f4f589-9be2-4f1b-877a-9944ced4d85e,,,,Alternate,,,,43,Farringdon Street,,,,,,,,,,,,
46faedd7-c74e-4f96-a847-72032a1f5594,46faedd7-c74e-4f96-a847-72032a1f5594,,,,Alternate,,,,61,St Mary Axe,,,,,,,,,,,,
4738dbc4-c5c6-438c-b6f0-5663a67aa0f6,4738dbc4-c5c6-438c-b6f0-5663a67aa0f6,,,,Alternate,,,,46-55,Cheapside,,,EC2,,,,,,,,,
4766f123-82f0-4f93-848a-836e23127723,4766f123-82f0-4f93-848a-836e23127723,,,,Alternate,,,,62,Riley Road,,,,,,,,,,,,
47d3cb49-ab9f-4ce6-ab58-985e0e725fcb,47d3cb49-ab9f-4ce6-ab58-985e0e725fcb,Surrey,County,Former,,,,,,,,,,,,,,,,,,
47fed09f-7dcf-4811-9f4e-0218789c919d,47fed09f-7dcf-4811-9f4e-0218789c919d,Hertfordshire,County,Former,,,,,,,,,,,,,,,,,,
4827b68f-9d83-4952-9a45-ebe1f546dd94,4827b68f-9d83-4952-9a45-ebe1f546dd94,,,,Alternate,,,,9-10,College Hill,,,,,,,,,,,,
482fb6c8-9dc5-4efa-96a1-050a3ec61ca9,482fb6c8-9dc5-4efa-96a1-050a3ec61ca9,Kent,County,Former,,,,,,,,,,,,,,,,,,
487a1574-615a-4078-9b7a-e93cf0e40ba5,487a1574-615a-4078-9b7a-e93cf0e40ba5,,,,Alternate,,,,22,St Andrew Street,,,,,,,,,,,,
48ec4dd0-b530-46b2-906a-d4d02ecc2b42,48ec4dd0-b530-46b2-906a-d4d02ecc2b42,Surrey,County,Former,,,,,,,,,,,,,,,,,,
49185f1e-3106-4e2c-adca-0287c5c447e8,49185f1e-3106-4e2c-adca-0287c5c447e8,,,,Alternate,,,,53-57,Carter Lane,,,,,,,,,,,,
491a19f3-d62e-4a6c-990e-0886ab79135b,491a19f3-d62e-4a6c-990e-0886ab79135b,,,,Alternate,,,,,Brockley Hill,,,,,,,,,,,,
49671acc-0a99-4f26-9f13-6ed9d0a4d29f,49671acc-0a99-4f26-9f13-6ed9d0a4d29f,Surrey,County,Former,,,,,,,,,,,,,,,,,,
49766868-9a7b-4f95-b4ee-75c3b928496d,49766868-9a7b-4f95-b4ee-75c3b928496d,,,,Alternate,,,,1A,Bedale Street,,,,,,,,,,,,
49e6f9ae-fff4-4ee2-9966-346df9fcc998,49e6f9ae-fff4-4ee2-9966-346df9fcc998,,,,Alternate,,,,,King William Walk,,,,,,,,,,,,
4a9206cd-e864-458f-81a8-4ea86f3e0a6f,4a9206cd-e864-458f-81a8-4ea86f3e0a6f,,,,Alternate,,,,40-44,Maddox Street,,,,,,,,,,,,
4aca253c-b00a-4c48-a415-6773b55192b1,4aca253c-b00a-4c48-a415-6773b55192b1,Kent,County,Former,,,,,,,,,,,,,,,,,,
4adc06fe-dcf8-4ba1-a1fb-91de6f915487,4adc06fe-dcf8-4ba1-a1fb-91de6f915487,Middlesex,County,Former,,,,,,,,,,,,,,,,,,
4af042b7-3384-42d1-912e-a779fc3034c4,4af042b7-3384-42d1-912e-a779fc3034c4,Hackney,Borough,Current,,,,,,,,,,,,,,,,,,
4cb60f8b-ce35-4643-aa82-adcf50b6cbf3,4cb60f8b-ce35-4643-aa82-adcf50b6cbf3,,,,Alternate,,,,25,Southampton Buildings,,,,,,,,,,,,
4d2adf74-3e95-4a06-8ef4-74cf4953c9fb,4d2adf74-3e95-4a06-8ef4-74cf4953c9fb,Essex,County,Former,,,,,,,,,,,,,,,,,,
4da43376-16a7-4665-a54c-bf787fadd57e,4da43376-16a7-4665-a54c-bf787fadd57e,,,,Alternate,,,,38,Little Britain,,,,,,,,,,,,
4dc53ca7-d207-47ba-91e6-c17cfc54c273,4dc53ca7-d207-47ba-91e6-c17cfc54c273,,,,Alternate,,,,2,Suffolk Lane,,,,,,,,,,,,
4ddc0f0c-f40e-469a-96ef-cd3dc6dc6247,4ddc0f0c-f40e-469a-96ef-cd3dc6dc6247,,,,Alternate,,,,33-36,Clerkenwell Green,,,,,,,,,,,,
4e3a783a-017f-4534-9462-54d213fb932f,4e3a783a-017f-4534-9462-54d213fb932f,Hammersmith and Fulham,Borough,Current,,,,,,,,,,,,,,,,,,
4e3e8cad-2683-4397-a2e0-7d27d44c7416,4e3e8cad-2683-4397-a2e0-7d27d44c7416,,,,Alternate,,,,4,Playhouse Yard,,,,,,,,,,,,
4e62a345-c654-413d-875a-0c1a7411513a,4e62a345-c654-413d-875a-0c1a7411513a,,,,Alternate,,,,,Okemore Gardens,,,,,,,,,,,,
4e6fe4a6-90dd-4a91-9ab6-869b32dfc13f,4e6fe4a6-90dd-4a91-9ab6-869b32dfc13f,,,,Alternate,Cleansing Depot,,,,Dufour's Place,,,W1F 7SJ,,,,,,,,,
4e9b9f7f-936f-4355-ab99-38d4a56bf553,4e9b9f7f-936f-4355-ab99-38d4a56bf553,Essex,County,Former,,,,,,,,,,,,,,,,,,
4ecd1697-1bb1-410f-8244-7d46a3e67326,4ecd1697-1bb1-410f-8244-7d46a3e67326,Kent,County,Former,,,,,,,,,,,,,,,,,,
4f3538b0-0fda-431c-b38d-e1f2c51e562e,4f3538b0-0fda-431c-b38d-e1f2c51e562e,Middlesex,County,Former,,,,,,,,,,,,,,,,,,
4f41f645-935b-47b2-9a2c-107725540061,4f41f645-935b-47b2-9a2c-107725540061,,,,Alternate,,,,11-21,Charterhouse Street,,,,,,,,,,,,
4f4d9a4b-ae02-4633-aa60-8a4355ae02b5,4f4d9a4b-ae02-4633-aa60-8a4355ae02b5,,,,Alternate,,,,"3, 13, 15-17",Caledonian Road,,,,,,,,,,,,
4fde2d02-edbf-4072-877f-c16d1734db96,4fde2d02-edbf-4072-877f-c16d1734db96,,,,Alternate,,,,,West End Road,,,,,,,,,,,,
4ff6c14d-8ab8-49a8-9580-349d22b4ddb2,4ff6c14d-8ab8-49a8-9580-349d22b4ddb2,City of Westminster,Borough,Current,,,,,,,,,,,,,,,,,,
5009cade-f3fb-4b7d-9956-6a844aa24756,5009cade-f3fb-4b7d-9956-6a844aa24756,Essex,County,Former,,,,,,,,,,,,,,,,,,
5011260f-6dc1-46d4-b77f-c92c18b2cede,5011260f-6dc1-46d4-b77f-c92c18b2cede,Harrow,Borough,Current,,,,,,,,,,,,,,,,,,
5099456c-faed-466d-9376-31049507122b,5099456c-faed-466d-9376-31049507122b,Surrey,County,Former,,,,,,,,,,,,,,,,,,
50c2da9d-94d8-4d58-9cc2-cac85f199997,50c2da9d-94d8-4d58-9cc2-cac85f199997,,,,Alternate,,,,144,Charing Cross Road,,,,,,,,,,,,
50cfe0ef-edd6-482f-af2b-f3fe2cd5aa7b,50cfe0ef-edd6-482f-af2b-f3fe2cd5aa7b,,,,Alternate,,,,9,St Helen Place,,,,,,,,,,,,
50d93853-f7e0-4df4-8ebd-23ee71b26ad9,50d93853-f7e0-4df4-8ebd-23ee71b26ad9,,,,Alternate,,,,13-14,Ironmonger Lane,,,,,,,,,,,,
50eec916-de85-4179-ba33-8b9eb9359f46,50eec916-de85-4179-ba33-8b9eb9359f46,,,,Alternate,,,,50-62,Ludgate Hill,,,,,,,,,,,,
5185e222-34ca-4a0e-8c3d-58efeb9dba30,5185e222-34ca-4a0e-8c3d-58efeb9dba30,,,,Alternate,,,,35,Coombe Road,,,,,,,,,,,,
51867683-a22a-4fee-a0a6-1739cc5a86fc,51867683-a22a-4fee-a0a6-1739cc5a86fc,Surrey,County,Former,,,,,,,,,,,,,,,,,,
51cde22e-c2c7-49ed-b66c-7a86ecb96cb3,51cde22e-c2c7-49ed-b66c-7a86ecb96cb3,Tower Hamlets,Borough,Current,,,,,,,,,,,,,,,,,,
51ecdc55-2ecc-4f4a-ba3a-5210be811542,51ecdc55-2ecc-4f4a-ba3a-5210be811542,,,,Alternate,,,,29-31,Monument Street,,,,,,,,,,,,
5221a974-78f1-4925-bbe1-9b3a467b9977,5221a974-78f1-4925-bbe1-9b3a467b9977,,,,Alternate,,,,47-51,Hermitage Wall,,,,,,,,,,,,
5239164a-08f2-4ac5-9ace-6ff70b59d5fb,5239164a-08f2-4ac5-9ace-6ff70b59d5fb,,,,Alternate,,,,205,Upper Thames Street,,,,,,,,,,,,
52949ddd-3ca0-4c37-aab6-7e26677f8109,52949ddd-3ca0-4c37-aab6-7e26677f8109,,,,Alternate,,,,21,Bowling Green Lane,,,,,,,,,,,,
52ed3a93-ac89-4f4f-8b93-803e25f04030,52ed3a93-ac89-4f4f-8b93-803e25f04030,Surrey,County,Former,,,,,,,,,,,,,,,,,,
53b6f604-9f69-423a-ad80-8dacdf5d8737,53b6f604-9f69-423a-ad80-8dacdf5d8737,,,,Alternate,,,,,Riddlesdown Road,,,CR8 1EW,,,,,,,,,
53bd4cbd-bd16-4bbf-9dcb-c8e2238cc08a,53bd4cbd-bd16-4bbf-9dcb-c8e2238cc08a,,,,Alternate,,,,1-6,Aldersgate Street,,,,,,,,,,,,
53d8b413-854b-48b3-92de-1790dde13044,53d8b413-854b-48b3-92de-1790dde13044,City of Westminster,Borough,Current,,,,,,,,,,,,,,,,,,
54065690-45b8-45bf-8de3-bc6cd0d09a14,54065690-45b8-45bf-8de3-bc6cd0d09a14,Middlesex,County,Former,,,,,,,,,,,,,,,,,,
54071518-4b0c-4390-8678-33a19d238075,54071518-4b0c-4390-8678-33a19d238075,,,,Alternate,,,,1,Crutched Friars,,,,,,,,,,,,
5518b35d-c7a6-40fe-ad5c-0dbcab17c563,5518b35d-c7a6-40fe-ad5c-0dbcab17c563,Surrey,County,Former,,,,,,,,,,,,,,,,,,
551d9010-dc51-4f1e-ab0f-80619dbc4afe,551d9010-dc51-4f1e-ab0f-80619dbc4afe,,,,Alternate,,,,22-30,King's Mews,,,,,,,,,,,,
5537765a-5ee0-47c6-9140-3806df65b7c0,5537765a-5ee0-47c6-9140-3806df65b7c0,Essex,County,Former,,,,,,,,,,,,,,,,,,
5562a52b-8d8e-49b1-9757-3f5e21dc77ad,5562a52b-8d8e-49b1-9757-3f5e21dc77ad,,,,Alternate,Clifton House,,,83-89,Uxbridge Road,,,,,,,,,,,,
55751532-624f-480d-81ff-06066f1f7f9e,55751532-624f-480d-81ff-06066f1f7f9e,City of Westminster,Borough,Current,,,,,,,,,,,,,,,,,,
5594ee07-13ac-44ce-b793-dfea7303c1b4,5594ee07-13ac-44ce-b793-dfea7303c1b4,,,,Alternate,,,,28-29,Mincing Lane,,,,,,,,,,,,
55b5e22c-5f9e-47ba-8cd4-b7677b9aa786,55b5e22c-5f9e-47ba-8cd4-b7677b9aa786,,,,Alternate,,,,,Goswell Road,,,,,,,,,,,,
55d655b0-963d-4f75-a073-be7d2f6b15a2,55d655b0-963d-4f75-a073-be7d2f6b15a2,Kent,County,Former,,,,,,,,,,,,,,,,,,
55e12d4f-f140-445a-8651-8ae36fed08c4,55e12d4f-f140-445a-8651-8ae36fed08c4,,,,Alternate,,,,43,Fetter Lane,,,,,,,,,,,,
55e19ee2-302a-400f-985b-7becf1d09933,55e19ee2-302a-400f-985b-7becf1d09933,,,,Alternate,,,,1-7,Alie Street,,,,,,,,,,,,
566d46b6-8279-4aaf-a7ad-939388422876,566d46b6-8279-4aaf-a7ad-939388422876,,,,Alternate,,,,67-71,Watling Street,,,,,,,,,,,,
5693b10d-e499-4e11-8948-15a62d7bfbc8,5693b10d-e499-4e11-8948-15a62d7bfbc8,,,,Alternate,,,,594-600,Streatham High Road,,,,,,,,,,,,
56dabd23-95bf-46d4-8ca1-0146bb688016,56dabd23-95bf-46d4-8ca1-0146bb688016,,,,Alternate,,,,,Atterbury Street,,,,,,,,,,,,
577ff43c-934b-4736-a892-3d2770973440,577ff43c-934b-4736-a892-3d2770973440,Essex,County,Former,,,,,,,,,,,,,,,,,,
578758ec-82a8-4168-af7d-5486caaff51f,578758ec-82a8-4168-af7d-5486caaff51f,Surrey,County,Former,,,,,,,,,,,,,,,,,,
57c2d599-b242-43bb-8179-1af31d522409,57c2d599-b242-43bb-8179-1af31d522409,,,,Alternate,,,,,Grosvenor Gardens Mews North,,,,,,,,,,,,
57c9f094-6fc9-441a-b813-9f65b083af2b,57c9f094-6fc9-441a-b813-9f65b083af2b,,,,Alternate,,,,21-23,Grafton Mews,,,,,,,,,,,,
58299139-cd75-4fb9-bd77-6b0e43e5ca9f,58299139-cd75-4fb9-bd77-6b0e43e5ca9f,,,,Alternate,,,,4-9,St Dunstan's Hill,,,,,,,,,,,,
58620daa-073c-43e3-ac00-48aef8e76f84,58620daa-073c-43e3-ac00-48aef8e76f84,,,,Alternate,Imperial House,,,,Lackington Street,,,,,,,,,,,,
587b7ff9-8141-4850-9709-d06d0dbce567,587b7ff9-8141-4850-9709-d06d0dbce567,Surrey,County,Former,,,,,,,,,,,,,,,,,,
5892119c-e871-45ef-be48-a09dca52b66e,5892119c-e871-45ef-be48-a09dca52b66e,,,,Alternate,,,,6,Knollys Close,,,,,,,,,,,,
58ce0043-8757-4a64-b380-f9e3efc6f754,58ce0043-8757-4a64-b380-f9e3efc6f754,,,,Alternate,,,,75-79,Coleman Street,,,,,,,,,,,,
58e04785-b54c-418e-a75a-fa2f5c1d00b6,58e04785-b54c-418e-a75a-fa2f5c1d00b6,Tower Hamlets,Borough,Current,,,,,,,,,,,,,,,,,,
592e13e3-856a-434a-b7ad-11fac39bea40,592e13e3-856a-434a-b7ad-11fac39bea40,,,,Alternate,,,,,Plumstead Road,,,,,,,,,,,,
59a03519-646b-4e05-9072-260e35f2b504,59a03519-646b-4e05-9072-260e35f2b504,Hackney,Borough,Current,,,,,,,,,,,,,,,,,,
59c6ab15-4e41-4ada-8ad1-51357e8c0fdf,59c6ab15-4e41-4ada-8ad1-51357e8c0fdf,,,,Alternate,,,,104,Priory Lane,,,,,,,,,,,,
59c88161-314e-464e-a96f-6d87c3931f12,59c88161-314e-464e-a96f-6d87c3931f12,Harrow,Borough,Current,,,,,,,,,,,,,,,,,,
59edbfcb-318b-4f6a-a633-d99cee0a9c67,59edbfcb-318b-4f6a-a633-d99cee0a9c67,,,,Alternate,,,,17-25,New Inn Yard,,,,,,,,,,,,
5a2483f7-f163-4e45-aeda-9eac13b1d6e5,5a2483f7-f163-4e45-aeda-9eac13b1d6e5,,,,Alternate,,,,8-14,Bishop's Court,,,,,,,,,,,,
5a2abddc-89f2-4fcd-b46e-76bab1ea10ad,5a2abddc-89f2-4fcd-b46e-76bab1ea10ad,,,,Alternate,,,,59,Mansell Street,,,,,,,,,,,,
5a568a64-8622-4a57-9c8d-156626dc1d75,5a568a64-8622-4a57-9c8d-156626dc1d75,,,,Alternate,,,,1,Poultry,,,EC4,,,,,,,,,
5a694a2e-3110-45d9-95c6-5ddae9fcacc3,5a694a2e-3110-45d9-95c6-5ddae9fcacc3,Middlesex,County,Former,,,,,,,,,,,,,,,,,,
5aa2084b-460f-41d4-aa94-f5436db304ce,5aa2084b-460f-41d4-aa94-f5436db304ce,,,,Alternate,,,,,St Margaret's Lane,,,,,,,,,,,,
5abca46c-2c69-4b2b-bbc0-ab58738182cf,5abca46c-2c69-4b2b-bbc0-ab58738182cf,Kent,County,Former,,,,,,,,,,,,,,,,,,
5b249278-fc89-4472-aebc-a996706e138e,5b249278-fc89-4472-aebc-a996706e138e,,,,Alternate,,,,26,Leadenhall Street,,,,,,,,,,,,
5b437c36-212a-4dc9-8121-c21cde9cf725,5b437c36-212a-4dc9-8121-c21cde9cf725,Middlesex,County,Former,,,,,,,,,,,,,,,,,,
5b66e261-17b9-496a-b1ba-ed95f0467ee9,5b66e261-17b9-496a-b1ba-ed95f0467ee9,Essex,County,Former,,,,,,,,,,,,,,,,,,
5bc0fe82-40c2-4e3c-aee6-1a75454186bd,5bc0fe82-40c2-4e3c-aee6-1a75454186bd,,,,Alternate,,,,1-6,Old Bailey,,,,,,,,,,,,
5bc70523-06a3-4379-a697-442c233f76f4,5bc70523-06a3-4379-a697-442c233f76f4,Essex,County,Former,,,,,,,,,,,,,,,,,,
5bf7b380-78ae-4aa7-bfc6-ca9a790ae7b0,5bf7b380-78ae-4aa7-bfc6-ca9a790ae7b0,,,,Alternate,,,,22-26,Cutler Street,,,,,,,,,,,,
5c0c5837-cc40-446c-abec-6898e6ea2803,5c0c5837-cc40-446c-abec-6898e6ea2803,,,,Alternate,,,,1-7,Great St Thomas Apostle,,,,,,,,,,,,
5c26b143-675a-4b4d-a2a2-cc0510ac197f,5c26b143-675a-4b4d-a2a2-cc0510ac197f,,,,Alternate,,,,1-7,Bedale Street,,,,,,,,,,,,
5c32db0e-af1e-4836-8635-16e1a07ceb04,5c32db0e-af1e-4836-8635-16e1a07ceb04,Surrey,County,Former,,,,,,,,,,,,,,,,,,
5c5af3f5-cf64-4138-9cf5-f8354dedacf4,5c5af3f5-cf64-4138-9cf5-f8354dedacf4,,,,Alternate,,,,27-31,Payne Road,,,,,,,,,,,,
5c630bce-1329-42e5-92c1-c98a96dc467e,5c630bce-1329-42e5-92c1-c98a96dc467e,,,,Alternate,,,,4-9,Wood Street,,,,,,,,,,,,
5ceabe4d-5760-4702-bb70-44eae2099193,5ceabe4d-5760-4702-bb70-44eae2099193,Kent,County,Former,,,,,,,,,,,,,,,,,,
5d008c81-7666-4806-bb46-6cb5439deb93,5d008c81-7666-4806-bb46-6cb5439deb93,Middlesex,County,Former,,,,,,,,,,,,,,,,,,
5d60d93f-59b3-44b9-8bb0-741f5cc4747e,5d60d93f-59b3-44b9-8bb0-741f5cc4747e,Middlesex,County,Former,,,,,,,,,,,,,,,,,,
5d6f77ac-bbb5-450e-9bca-d9ea5b69fb65,5d6f77ac-bbb5-450e-9bca-d9ea5b69fb65,,,,Alternate,,,,83-84,Queen Street,,,EC2,,,,,,,,,
5de3d681-6465-4fad-83ed-efbd07a0fab1,5de3d681-6465-4fad-83ed-efbd07a0fab1,Middlesex,County,Former,,,,,,,,,,,,,,,,,,
5e14b532-47d6-43c9-b54d-543c63c57787,5e14b532-47d6-43c9-b54d-543c63c57787,,,,Alternate,,,,123,Old Broad Street,,,,,,,,,,,,
5e2f8460-82e1-413e-b4e7-a9d30ef22bae,5e2f8460-82e1-413e-b4e7-a9d30ef22bae,,,,Alternate,,,,2-5,Morley Street,,,,,,,,,,,,
5e68e26d-6e60-4140-8875-2ff2dabc416b,5e68e26d-6e60-4140-8875-2ff2dabc416b,,,,Alternate,,,,9-11,Mercer Street,,,WC2H,,,,,,,,,
5e9b732c-8a58-4f71-a950-0aa2c3aa0b1c,5e9b732c-8a58-4f71-a950-0aa2c3aa0b1c,Surrey,County,Former,,,,,,,,,,,,,,,,,,
5ea86fca-8818-434d-bfb8-a565046f85af,5ea86fca-8818-434d-bfb8-a565046f85af,,,,Alternate,,,,8-36,Gillingham Street,,,,,,,,,,,,
5eb18404-9a39-415f-8ce4-fbd70c90cac2,5eb18404-9a39-415f-8ce4-fbd70c90cac2,Middlesex,County,Former,,,,,,,,,,,,,,,,,,
5ece3b45-ac22-42a1-a1a7-a36ba675e9f6,5ece3b45-ac22-42a1-a1a7-a36ba675e9f6,,,,Alternate,,,,123-131,London Road,,,,,,,,,,,,
5f335487-fc99-45e3-a7d3-6c1fb9ac4c17,5f335487-fc99-45e3-a7d3-6c1fb9ac4c17,,,,Alternate,,,,3-4,Kings Arms Yard,,,,,,,,,,,,
5f5f7dc6-3e0e-4039-acc6-6897e6c7f05b,5f5f7dc6-3e0e-4039-acc6-6897e6c7f05b,,,,Alternate,,,,4-12,Parkway,,,,,,,,,,,,
5fa4a335-fe4e-4faa-9a92-5f6359764679,5fa4a335-fe4e-4faa-9a92-5f6359764679,Middlesex,County,Former,,,,,,,,,,,,,,,,,,
5ff520ee-39bc-441a-bc7c-5e7266c57050,5ff520ee-39bc-441a-bc7c-5e7266c57050,,,,Alternate,,,,22-29,Hosier Lane,,,,,,,,,,,,
60028466-e90c-48d2-9a65-4952ce6ae844,60028466-e90c-48d2-9a65-4952ce6ae844,Middlesex,County,Former,,,,,,,,,,,,,,,,,,
6010794d-096d-42c8-871c-d87a944e0c54,6010794d-096d-42c8-871c-d87a944e0c54,Middlesex,County,Former,,,,,,,,,,,,,,,,,,
60147409-fa7e-44fc-ae02-097d2dfa4f95,60147409-fa7e-44fc-ae02-097d2dfa4f95,,,,Alternate,,,,118-122,Holland Street Buildings,,,,,,,,,,,,
60605646-fa74-423a-9b16-df3afde17fa8,60605646-fa74-423a-9b16-df3afde17fa8,,,,Alternate,,,,87,Black Prince Road,,,,,,,,,,,,
60de13be-efa3-409e-bcb4-7832655bd113,60de13be-efa3-409e-bcb4-7832655bd113,,,,Alternate,,,,1-11,Carteret Street,,,,,,,,,,,,
60e2fb88-bc14-4eb0-8ce0-7b7a0efed6a9,60e2fb88-bc14-4eb0-8ce0-7b7a0efed6a9,Newham,Borough,Current,,,,,,,,,,,,,,,,,,
60ec5a8e-7f10-47a8-bbab-68ae1b09750a,60ec5a8e-7f10-47a8-bbab-68ae1b09750a,,,,Alternate,,,,,Fulham High Street,,,SW6,,,,,,,,,
61137949-306c-4ead-8f27-419d57be047b,61137949-306c-4ead-8f27-419d57be047b,Middlesex,County,Former,,,,,,,,,,,,,,,,,,
612bf81f-e709-4373-a172-403bca971c6c,612bf81f-e709-4373-a172-403bca971c6c,,,,Alternate,Granite House,,,,Cannon Street,,,,,,,,,,,,
614e09da-73bd-49c2-993f-fe2fd8677c4d,614e09da-73bd-49c2-993f-fe2fd8677c4d,,,,Alternate,,,,87,Black Prince Road,,,,,,,,,,,,
619e7be1-4b47-4033-9d44-2202475a75ee,619e7be1-4b47-4033-9d44-2202475a75ee,,,,Alternate,,,,1-3/5-11,Cowleaze Road,,,,,,,,,,,,
61aec1c9-2972-4e81-89bf-6a23b12e5d9f,61aec1c9-2972-4e81-89bf-6a23b12e5d9f,Surrey,County,Former,,,,,,,,,,,,,,,,,,
61bbb4cd-ffc3-431c-b75c-88fe975621d7,61bbb4cd-ffc3-431c-b75c-88fe975621d7,,,,Alternate,,,,106-126,Bishopsgate,,,,,,,,,,,,
61d4bf2e-e065-41c8-9679-92c8ce902db0,61d4bf2e-e065-41c8-9679-92c8ce902db0,Surrey,County,Former,,,,,,,,,,,,,,,,,,
6214b935-67ed-48f3-ba40-5a77933fe24a,6214b935-67ed-48f3-ba40-5a77933fe24a,Newham,Borough,Current,,,,,,,,,,,,,,,,,,
6229f5e7-1ea8-49b4-8fdf-f2af10d71d96,6229f5e7-1ea8-49b4-8fdf-f2af10d71d96,,,,Alternate,,,,14,Cornhill,,,,,,,,,,,,
6230012b-3148-4ac6-985e-2a3181ba405f,6230012b-3148-4ac6-985e-2a3181ba405f,,,,Alternate,,,,71-77,Leadenhall Street,,,,,,,,,,,,
623c343e-389e-41ba-b965-05e8f2cf3001,623c343e-389e-41ba-b965-05e8f2cf3001,,,,Alternate,,,,9,Wapping Lane,,,,,,,,,,,,
6277786d-3a38-42e2-81bf-b4ef11750a59,6277786d-3a38-42e2-81bf-b4ef11750a59,Tower Hamlets,Borough,Current,,,,,,,,,,,,,,,,,,
62e76a3b-14e1-4a39-8363-d6dd158a6c6b,62e76a3b-14e1-4a39-8363-d6dd158a6c6b,,,,Alternate,,,,22-29,Hosier Lane,,,,,,,,,,,,
62fb0ff3-f8eb-4ddf-a697-f06378a2d9c3,62fb0ff3-f8eb-4ddf-a697-f06378a2d9c3,Islington,Borough,Current,,,,,,,,,,,,,,,,,,
630792d9-1943-4451-a33d-a361ac4917c1,630792d9-1943-4451-a33d-a361ac4917c1,,,,Alternate,,,,,Turnpin Lane,,,,,,,,,,,,
630f7fda-f1a8-42dd-9d35-ebf0e2a8e384,630f7fda-f1a8-42dd-9d35-ebf0e2a8e384,Surrey,County,Current,,,,,,,,,,,,,,,,,,
631e76fe-bdc2-413d-8729-3ea8ef15a287,631e76fe-bdc2-413d-8729-3ea8ef15a287,Surrey,County,Former,,,,,,,,,,,,,,,,,,
6344e27b-c555-43d6-b098-d0fbce8e3f16,6344e27b-c555-43d6-b098-d0fbce8e3f16,Surrey,County,Former,,,,,,,,,,,,,,,,,,
63702661-a368-4633-baf1-5b67fc5d03ae,63702661-a368-4633-baf1-5b67fc5d03ae,Middlesex,County,Former,,,,,,,,,,,,,,,,,,
6373c095-0328-475f-a572-782a413bb0c1,6373c095-0328-475f-a572-782a413bb0c1,,,,Alternate,,,,11-16,Telegraph Street,,,,,,,,,,,,
63be484d-6ba4-4e94-8119-aa91950821dc,63be484d-6ba4-4e94-8119-aa91950821dc,,,,Alternate,,,,1-3,Lawrence Lane,,,,,,,,,,,,
63cfb278-1633-4566-a5bb-33c191a6115e,63cfb278-1633-4566-a5bb-33c191a6115e,,,,Alternate,,,,69,Leadenhall Street,,,,,,,,,,,,
63f0d39a-3af0-4424-96b9-670f7d57b06e,63f0d39a-3af0-4424-96b9-670f7d57b06e,Surrey,County,Former,,,,,,,,,,,,,,,,,,
64336222-08b8-49dd-8550-48177478da5e,64336222-08b8-49dd-8550-48177478da5e,,,,Alternate,,,,11-16,Telegraph Street,,,,,,,,,,,,
64362434-69f7-40ff-844f-9f40c91fe3f1,64362434-69f7-40ff-844f-9f40c91fe3f1,,,,Alternate,,,,62,Lombard Street,,,,,,,,,,,,
64633ec7-8b0a-4314-a739-3447c8b5271a,64633ec7-8b0a-4314-a739-3447c8b5271a,,,,Alternate,,,,27-37,Regent Street,,,,,,,,,,,,
6469f6a2-76c5-4384-9442-0ec71eac1f04,6469f6a2-76c5-4384-9442-0ec71eac1f04,,,,Alternate,,,,138-140,Saffron Hill,,,,,,,,,,,,
64796309-8bda-4e5f-b879-f1dfe405b5a4,64796309-8bda-4e5f-b879-f1dfe405b5a4,,,,Alternate,,,,62-68,Borough Road,,,,,,,,,,,,
64a5a25c-274b-4fac-92af-19c7f778cae4,64a5a25c-274b-4fac-92af-19c7f778cae4,,,,Alternate,,,,1-17,Old Broad Street,,,,,,,,,,,,
64f7f52b-fe8d-4652-b575-46168b217ebb,64f7f52b-fe8d-4652-b575-46168b217ebb,,,,Alternate,,,,,High Street,,,,,,,,,,,,
65148e4b-18cf-484d-bf0d-8f8bb7059870,65148e4b-18cf-484d-bf0d-8f8bb7059870,,,,Alternate,,,,24-26,Buckle Street,,,,,,,,,,,,
655c7fe3-1c69-41ee-94de-7801050edc5c,655c7fe3-1c69-41ee-94de-7801050edc5c,,,,Alternate,,,,83-105,Clifton Street,,,,,,,,,,,,
658c23ba-bf33-4c80-8edd-23ff6dcd8ef8,658c23ba-bf33-4c80-8edd-23ff6dcd8ef8,,,,Alternate,,,,13-17,Moor Street,,,,,,,,,,,,
65c0021b-54b6-4a1c-a176-ba982a2e1a85,65c0021b-54b6-4a1c-a176-ba982a2e1a85,,,,Alternate,,,,,Stockley Road,,,,,,,,,,,,
65d2e09e-ccff-47f2-858b-330c07d78289,65d2e09e-ccff-47f2-858b-330c07d78289,,,,Alternate,,,,13-17,Moor Street,,,,,,,,,,,,
65f41129-a47b-4553-ae63-31bb32daaa2d,65f41129-a47b-4553-ae63-31bb32daaa2d,,,,Alternate,,,,,Trundleys Road,,,SE16,,,,,,,,,
667ada59-28cb-48bc-acb6-e55500b81d6e,667ada59-28cb-48bc-acb6-e55500b81d6e,,,,Alternate,,,,15,Salter Street,,,,,,,,,,,,
668f1c5b-d9cc-4f27-a97a-dce6a8563e4b,668f1c5b-d9cc-4f27-a97a-dce6a8563e4b,,,,Alternate,,,,1-11,Baron Street,,,,,,,,,,,,
66ccd230-fd15-4417-ae9d-2dd7d9b83050,66ccd230-fd15-4417-ae9d-2dd7d9b83050,,,,Alternate,,,,,Clink Street,,,,,,,,,,,,
66e8ea43-abc6-4aab-8c37-9bf8cc6b3b3a,66e8ea43-abc6-4aab-8c37-9bf8cc6b3b3a,Kent,County,Former,,,,,,,,,,,,,,,,,,
67116347-361d-40df-be3d-bd75d1ea9a37,67116347-361d-40df-be3d-bd75d1ea9a37,Essex,County,Former,,,,,,,,,,,,,,,,,,
67163eb9-96f8-483e-8f54-8a207462dfaf,67163eb9-96f8-483e-8f54-8a207462dfaf,Richmond upon Thames,Borough,Current,,,,,,,,,,,,,,,,,,
6719c6fb-7b69-4dcc-9a79-96af72d14a2c,6719c6fb-7b69-4dcc-9a79-96af72d14a2c,,,,Alternate,,,,22,St Andrew Street,,,,,,,,,,,,
67df04d3-a0c6-427e-bd42-d7c133403533,67df04d3-a0c6-427e-bd42-d7c133403533,Middlesex,County,Former,,,,,,,,,,,,,,,,,,
680e433b-110a-4a21-aa09-7b543a0d17fa,680e433b-110a-4a21-aa09-7b543a0d17fa,,,,Alternate,,,,18-31,Eldon Street,,,,,,,,,,,,
682fd870-8b3e-4a83-a02b-0baa45fd11c4,682fd870-8b3e-4a83-a02b-0baa45fd11c4,,,,Alternate,,,,,Norfolk Row,,,,,,,,,,,,
683a1147-fe9d-4a26-a1f9-2a07ca8ea68a,683a1147-fe9d-4a26-a1f9-2a07ca8ea68a,Surrey,County,Former,,,,,,,,,,,,,,,,,,
684743c5-824a-44f2-ac19-04c877678dbc,684743c5-824a-44f2-ac19-04c877678dbc,Surrey,County,Former,,,,,,,,,,,,,,,,,,
684b4031-7609-4866-8d50-f404b0e75619,684b4031-7609-4866-8d50-f404b0e75619,,,,Alternate,,,,41-42,Trinity Square,,,,,,,,,,,,
68923e10-c64e-4357-b5f8-26ca85587ab0,68923e10-c64e-4357-b5f8-26ca85587ab0,Hertfordshire,County,Former,,,,,,,,,,,,,,,,,,
68a3bfc2-e7f1-4576-adab-51001fb56d5d,68a3bfc2-e7f1-4576-adab-51001fb56d5d,,,,Alternate,Lee House,,,,Monkwell Square,,,,,,,,,,,,
68a5c28a-450c-4582-8a6a-076e53eed9a4,68a5c28a-450c-4582-8a6a-076e53eed9a4,Surrey,County,Former,,,,,,,,,,,,,,,,,,
69c8125e-a0ca-4c04-a070-63031c2b220c,69c8125e-a0ca-4c04-a070-63031c2b220c,,,,Alternate,,,,,Newark Street,,,,,,,,,,,,
6a0d09b5-6161-4d47-90f4-d9fb574be60d,6a0d09b5-6161-4d47-90f4-d9fb574be60d,,,,Alternate,,,,4,Vandy Street,,,,,,,,,,,,
6a13733c-5721-4c64-9ffe-98acaca68f25,6a13733c-5721-4c64-9ffe-98acaca68f25,,,,Alternate,,,,,North Street,,,,,,,,,,,,
6a1b8c37-02ab-45df-a0cb-83932e03678a,6a1b8c37-02ab-45df-a0cb-83932e03678a,,,,Alternate,,,,63-64,Old Broad Street,,,EC2M 1JB,,,,,,,,,
6a50d089-f931-4a1a-91cc-ebcfa6914be4,6a50d089-f931-4a1a-91cc-ebcfa6914be4,Middlesex,County,Former,,,,,,,,,,,,,,,,,,
6a5ca310-17b0-4838-9cb2-2a4a58adb787,6a5ca310-17b0-4838-9cb2-2a4a58adb787,,,,Alternate,,,,5-21,Kew Road,,,,,,,,,,,,
6ab12116-07d2-45c3-a1a5-0c07521034a3,6ab12116-07d2-45c3-a1a5-0c07521034a3,,,,Alternate,,,,62-63,Royal Mint Street,,,,,,,,,,,,
6ab9e103-2e7e-4af8-bcae-6aef4ccf54f8,6ab9e103-2e7e-4af8-bcae-6aef4ccf54f8,,,,Alternate,Cleansing Depot,,,,Dufour's Place,,,W1F 7SJ,,,,,,,,,
6af58763-dc41-4385-9192-b580efe36e1e,6af58763-dc41-4385-9192-b580efe36e1e,Middlesex,County,Former,,,,,,,,,,,,,,,,,,
6b319b44-3196-4366-9521-dc405dc8d378,6b319b44-3196-4366-9521-dc405dc8d378,Harrow,Borough,Current,,,,,,,,,,,,,,,,,,
6bdbe2c8-b61b-4634-9f39-f3d4f169e0ab,6bdbe2c8-b61b-4634-9f39-f3d4f169e0ab,,,,Alternate,Walbrook House,,,97-101,Cannon Street,,,,,,,,,,,,
6be03d2e-786e-4bdf-9761-2e0e4254933e,6be03d2e-786e-4bdf-9761-2e0e4254933e,,,,Alternate,,,,34-36,Duke Street,,,,,,,,,,,,
6c3c2fc7-ce18-47aa-8cb1-3404c88da55e,6c3c2fc7-ce18-47aa-8cb1-3404c88da55e,Surrey,County,Former,,,,,,,,,,,,,,,,,,
6c7a5817-027f-482a-851b-4e82cdecddb9,6c7a5817-027f-482a-851b-4e82cdecddb9,,,,Alternate,,,,,York Way,,,,,,,,,,,,
6c816aa2-c122-41c7-bea4-32c51a4f3e73,6c816aa2-c122-41c7-bea4-32c51a4f3e73,,,,Alternate,,,,1,Skinners Lane,,,,,,,,,,,,
6c96675e-0286-469c-848d-b24a2c613a08,6c96675e-0286-469c-848d-b24a2c613a08,,,,Alternate,,,,5-6,Carey Lane,,,,,,,,,,,,
6cb75ada-ac6f-4f33-8016-cedc052b66f9,6cb75ada-ac6f-4f33-8016-cedc052b66f9,,,,Alternate,Greycoat Hospital Lower School,,,,Graham Terrace,,,,,,,,,,,,
6cc483ae-44d5-4651-b934-a04f7c001dae,6cc483ae-44d5-4651-b934-a04f7c001dae,,,,Alternate,,,,,Creek Road,,,SE8,,,,,,,,,
6cf8d368-c540-4a56-a158-2e5af2410d85,6cf8d368-c540-4a56-a158-2e5af2410d85,,,,Alternate,,,,3-4,Albemarle Street,,,,,,,,,,,,
6d29e87c-0dc8-4112-8e27-969922387770,6d29e87c-0dc8-4112-8e27-969922387770,,,,Alternate,,,,5-25,Western Road,,,,,,,,,,,,
6d6d7650-71dc-42f3-a5e5-3f57cfbbcb5f,6d6d7650-71dc-42f3-a5e5-3f57cfbbcb5f,Islington,Borough,Current,,,,,,,,,,,,,,,,,,
6db3626c-37ec-4898-b2aa-ae017c7d3c1c,6db3626c-37ec-4898-b2aa-ae017c7d3c1c,,,,Alternate,,,,,Bride Lane,,,,,,,,,,,,
6dcf2962-bc34-4679-9f7a-5f48baad0467,6dcf2962-bc34-4679-9f7a-5f48baad0467,Surrey,County,Former,,,,,,,,,,,,,,,,,,
6de616ec-6c44-4f90-8f1d-4c28134f79d4,6de616ec-6c44-4f90-8f1d-4c28134f79d4,Newham,Borough,Current,,,,,,,,,,,,,,,,,,
6dee6b84-19fd-4174-ba30-c811faf5aea6,6dee6b84-19fd-4174-ba30-c811faf5aea6,,,,Alternate,,,,43,Fetter Lane,,,,,,,,,,,,
6ee858b0-eeba-4921-9360-e849134a71db,6ee858b0-eeba-4921-9360-e849134a71db,,,,Alternate,,,,,Coombe Road,,,,,,,,,,,,
6f32f21d-dd00-40e0-8852-be2dbc067eef,6f32f21d-dd00-40e0-8852-be2dbc067eef,,,,Alternate,,,,10-32,Miles Street,,,,,,,,,,,,
6f358efa-e8d4-43bc-855d-53196915dced,6f358efa-e8d4-43bc-855d-53196915dced,,,,Alternate,,,,202,Lambeth Road,,,,,,,,,,,,
6fa9b3cf-4a78-4d7d-84e9-71195fa484d5,6fa9b3cf-4a78-4d7d-84e9-71195fa484d5,,,,Alternate,,,,2-3,Crosby Square,,,,,,,,,,,,
6fef0145-db3e-4e41-9646-21ac30675465,6fef0145-db3e-4e41-9646-21ac30675465,,,,Alternate,Becket House,,,36-37,Cheapside,,,,,,,,,,,,
7029d510-6552-4446-acbe-24c051e96def,7029d510-6552-4446-acbe-24c051e96def,Surrey,County,Former,,,,,,,,,,,,,,,,,,
70367ca0-bff2-4edd-8fd2-2f0eaf786e54,70367ca0-bff2-4edd-8fd2-2f0eaf786e54,,,,Alternate,,,,1-6,Bury Court,,,,,,,,,,,,
704a4757-5db1-423d-bab3-74e9149124ef,704a4757-5db1-423d-bab3-74e9149124ef,Kent,County,Former,,,,,,,,,,,,,,,,,,
70de8395-1a6f-4cb5-9162-b819eee2d07a,70de8395-1a6f-4cb5-9162-b819eee2d07a,,,,Alternate,,,,101-117,Finsbury Pavement,,,,,,,,,,,,
713290c9-1ab7-4518-ac17-676551c1b328,713290c9-1ab7-4518-ac17-676551c1b328,,,,Alternate,,,,20-23,Lawrence Lane,,,,,,,,,,,,
71534c26-0bac-4a0e-a85c-98d6590ee56b,71534c26-0bac-4a0e-a85c-98d6590ee56b,,,,Alternate,,,,,King William Walk,,,,,,,,,,,,
71675cd8-106e-4804-8a4c-13ca738c94cc,71675cd8-106e-4804-8a4c-13ca738c94cc,,,,Alternate,,,,4-6,South Lambeth Place,,,,,,,,,,,,
71c79831-f636-42fe-a7b9-626ab5cb920d,71c79831-f636-42fe-a7b9-626ab5cb920d,,,,Alternate,,,,12,Sutton Row,,,,,,,,,,,,
71f6f483-337f-4251-88d5-fe785244feaf,71f6f483-337f-4251-88d5-fe785244feaf,,,,Alternate,,,,159-161,Tower Bridge Road,,,,,,,,,,,,
71fd96a9-f423-447c-a1fe-7b730ebbac4d,71fd96a9-f423-447c-a1fe-7b730ebbac4d,Essex,County,Former,,,,,,,,,,,,,,,,,,
720a5596-0a73-4443-a45c-3da4d3a88523,720a5596-0a73-4443-a45c-3da4d3a88523,Bexley,Borough,Current,,,,,,,,,,,,,,,,,,
722e1aeb-0cfb-44f6-a1fd-9d4aa9453079,722e1aeb-0cfb-44f6-a1fd-9d4aa9453079,,,,Alternate,,,,5a,Great Chapel Street,,,,,,,,,,,,
72444c8f-178e-4874-a3fd-a86ef4a3da41,72444c8f-178e-4874-a3fd-a86ef4a3da41,Surrey,County,Former,,,,,,,,,,,,,,,,,,
7305c2d4-1d05-46e2-8535-59177ccedd33,7305c2d4-1d05-46e2-8535-59177ccedd33,,,,Alternate,,,,16-20,Monument Street,,,,,,,,,,,,
73221ddb-bcf9-47e4-824d-f18dadb83b8c,73221ddb-bcf9-47e4-824d-f18dadb83b8c,,,,Alternate,,,,,Freezeland Way,,,,,,,,,,,,
738f7f27-eb32-4bf3-afc0-0f5557d46a7a,738f7f27-eb32-4bf3-afc0-0f5557d46a7a,,,,Alternate,,,,,Fish Street Hill,,,,,,,,,,,,
73d1597a-2678-445e-94cf-c474b8bbf72f,73d1597a-2678-445e-94cf-c474b8bbf72f,Surrey,County,Former,,,,,,,,,,,,,,,,,,
73d3643b-1ae5-4fa4-bcbd-919642630017,73d3643b-1ae5-4fa4-bcbd-919642630017,,,,Alternate,,,,4-31,Tower Place,,,,,,,,,,,,
73d69df5-d574-4f3a-8a37-86cc45deaeaf,73d69df5-d574-4f3a-8a37-86cc45deaeaf,,,,Alternate,,,,,Borough High Street,,,,,,,,,,,,
73db98fc-313c-4d21-8127-23e18716e283,73db98fc-313c-4d21-8127-23e18716e283,Middlesex,County,Former,,,,,,,,,,,,,,,,,,
73dbb8e3-d04f-45f7-b199-d89722fb1ec7,73dbb8e3-d04f-45f7-b199-d89722fb1ec7,Kent,County,Former,,,,,,,,,,,,,,,,,,
740bf46c-423d-4926-9cb7-976a46349e51,740bf46c-423d-4926-9cb7-976a46349e51,,,,Alternate,,,,94,Great Portland Street,,,,,,,,,,,,
742e3d17-43b8-4659-8427-294a22835283,742e3d17-43b8-4659-8427-294a22835283,,,,Alternate,Clements House,,,14-18,Gresham Street,,,,,,,,,,,,
746a9d37-b94f-4658-bf27-bac4936a4965,746a9d37-b94f-4658-bf27-bac4936a4965,Hillingdon,Borough,Current,,,,,,,,,,,,,,,,,,
746c0422-4900-473c-96ae-d9a46ffb1565,746c0422-4900-473c-96ae-d9a46ffb1565,,,,Alternate,,,,30,Threadneedle Street,,,,,,,,,,,,
74852c61-7f94-44e3-a348-3d172412ae82,74852c61-7f94-44e3-a348-3d172412ae82,,,,Alternate,,,,29-31,Park Street,,,,,,,,,,,,
74ae5674-3806-42e3-ac14-a2b83852f9e0,74ae5674-3806-42e3-ac14-a2b83852f9e0,Hertfordshire,County,Former,,,,,,,,,,,,,,,,,,
7593a3db-d769-4627-a699-7127c0a6c017,7593a3db-d769-4627-a699-7127c0a6c017,Newham,Borough,Current,,,,,,,,,,,,,,,,,,
75b42e81-b9eb-46c0-9683-9d2a50f592cf,75b42e81-b9eb-46c0-9683-9d2a50f592cf,,,,Alternate,,,,4,Crosby Square,,,,,,,,,,,,
75f1e698-e6aa-4c3f-896c-05f0e20ad9f9,75f1e698-e6aa-4c3f-896c-05f0e20ad9f9,,,,Alternate,,,,14,Homesdale Road,,,,,,,,,,,,
75fa46ee-d257-4eae-a71c-3c34ac08af50,75fa46ee-d257-4eae-a71c-3c34ac08af50,,,,Alternate,,,,7,Apple Tree Yard,,,,,,,,,,,,
7605a7df-0a3f-43db-8dcf-e9e5917e05f7,7605a7df-0a3f-43db-8dcf-e9e5917e05f7,,,,Alternate,,,,2-3,Cursitor Street,,,,,,,,,,,,
762cfaab-4ecf-4382-8c36-b7ab936a8593,762cfaab-4ecf-4382-8c36-b7ab936a8593,,,,Alternate,,,,17-18,Tooks Court,,,,,,,,,,,,
763efc5f-8816-4e5b-b102-ef183c6dbad0,763efc5f-8816-4e5b-b102-ef183c6dbad0,,,,Alternate,,,,,Sandy Lane,,,,,,,,,,,,
7651f0e8-cd0b-42e8-ad19-cdffb6f313fa,7651f0e8-cd0b-42e8-ad19-cdffb6f313fa,,,,Alternate,,,,18-20,Tapster Street,,,,,,,,,,,,
7668781e-a6ac-428d-9b28-7090e7afbb9a,7668781e-a6ac-428d-9b28-7090e7afbb9a,Kent,County,Former,,,,,,,,,,,,,,,,,,
76a143fa-cdbd-4b1f-a64b-eb777faf7d38,76a143fa-cdbd-4b1f-a64b-eb777faf7d38,,,,Alternate,,,,3-9,Castle Street,,,,,,,,,,,,
76a9ed8d-c382-453a-a15b-e47d35ccb456,76a9ed8d-c382-453a-a15b-e47d35ccb456,,,,Alternate,,,,15-17,Gracechurch Street,,,,,,,,,,,,
76f21d55-fd64-4436-93f9-99ef0922b27e,76f21d55-fd64-4436-93f9-99ef0922b27e,,,,Alternate,,,,14-16,North Tenter Street,,,,,,,,,,,,
7745e94e-6ddd-401b-a444-94d77ac0df58,7745e94e-6ddd-401b-a444-94d77ac0df58,City of Westminster,Borough,Current,,,,,,,,,,,,,,,,,,
77466665-cc2b-4011-8936-785c94f222d7,77466665-cc2b-4011-8936-785c94f222d7,Middlesex,County,Former,,,,,,,,,,,,,,,,,,
7768da8b-6ea9-4fa8-8306-a19563c4908d,7768da8b-6ea9-4fa8-8306-a19563c4908d,,,,Alternate,,,,18-23,Curzon Street,,,,,,,,,,,,
77839927-7a16-4bc9-b7d7-711b76eade65,77839927-7a16-4bc9-b7d7-711b76eade65,,,,Alternate,,,,48-51,Floral Street,,,,,,,,,,,,
77880ed1-01d1-44c9-8f52-bf31c13086c2,77880ed1-01d1-44c9-8f52-bf31c13086c2,,,,Alternate,,,,1-4,Giltspur Street,,,,,,,,,,,,
77c333da-9197-4af7-920d-b14b5103b84d,77c333da-9197-4af7-920d-b14b5103b84d,,,,Alternate,,,,17-18,Floral Street,,,,,,,,,,,,
77da6b0a-750d-4843-b163-2d682e2ae388,77da6b0a-750d-4843-b163-2d682e2ae388,,,,Alternate,,,,1-18,Old Broad Street,,,,,,,,,,,,
77dbd49f-f1ff-4652-8ce3-21efd8dde86d,77dbd49f-f1ff-4652-8ce3-21efd8dde86d,Lewisham,Borough,Current,,,,,,,,,,,,,,,,,,
77dd331d-f35b-4da4-8c8b-99321558019f,77dd331d-f35b-4da4-8c8b-99321558019f,,,,Alternate,,,,98,Fenchurch Street,,,,,,,,,,,,
784b4d40-3a3a-4d1a-8245-72e8f8feb3c3,784b4d40-3a3a-4d1a-8245-72e8f8feb3c3,Surrey,County,Former,,,,,,,,,,,,,,,,,,
785252ee-1c39-4e07-8f44-dce1edf547b6,785252ee-1c39-4e07-8f44-dce1edf547b6,,,,Alternate,,,,42,Maiden Lane,,,,,,,,,,,,
7854d2a2-59aa-43ea-b8a7-3897a3ad045d,7854d2a2-59aa-43ea-b8a7-3897a3ad045d,,,,Alternate,,,,65,Bayham Place,,,,,,,,,,,,
786da26c-a322-415e-8643-a4e4f16d96e8,786da26c-a322-415e-8643-a4e4f16d96e8,Harrow,Borough,Current,,,,,,,,,,,,,,,,,,
7898c265-5dc3-4b07-a69c-0ab37476c167,7898c265-5dc3-4b07-a69c-0ab37476c167,,,,Alternate,Greycoat Lower School,,,,Graham Terrace,,,,,,,,,,,,
789a2e70-e15a-4380-b20c-709bce375742,789a2e70-e15a-4380-b20c-709bce375742,Essex,County,Former,,,,,,,,,,,,,,,,,,
78ea86f6-b293-4a54-8b61-13965533174b,78ea86f6-b293-4a54-8b61-13965533174b,Harrow,Borough,Current,,,,,,,,,,,,,,,,,,
79013722-0ef2-48a7-899e-7356c7131512,79013722-0ef2-48a7-899e-7356c7131512,,,,Alternate,,,,,Goswell Road,,,,,,,,,,,,
79140771-4da4-449a-9b42-b18e4e2ccff2,79140771-4da4-449a-9b42-b18e4e2ccff2,Surrey,County,Former,,,,,,,,,,,,,,,,,,
79522720-e7a8-4bf9-82c3-b961a6991ca7,79522720-e7a8-4bf9-82c3-b961a6991ca7,,,,Alternate,,,,,The Fairway,,,,,,,,,,,,
796b932f-4cbf-4a48-a116-2ad798a37be4,796b932f-4cbf-4a48-a116-2ad798a37be4,,,,Alternate,,,,16A,Bevis Marks,,,,,,,,,,,,
7978b009-c816-4ebc-8d4b-1096b86312ac,7978b009-c816-4ebc-8d4b-1096b86312ac,,,,Alternate,,,,,Moreton Street,,,,,,,,,,,,
799d564b-3b65-4252-92db-04e6ae81bd3c,799d564b-3b65-4252-92db-04e6ae81bd3c,,,,Alternate,,,,1-18,Old Broad Street,,,,,,,,,,,,
79d89b03-7c7f-4106-b654-da3331c36e01,79d89b03-7c7f-4106-b654-da3331c36e01,,,,Alternate,,,,,Thrale Street,,,,,,,,,,,,
79ed200b-4263-49e4-8c8d-6a92a9ae6b0e,79ed200b-4263-49e4-8c8d-6a92a9ae6b0e,,,,Alternate,,,,4-9,Wood Street,,,,,,,,,,,,
79f642a1-900d-4f36-9079-8792253cbfb4,79f642a1-900d-4f36-9079-8792253cbfb4,,,,Alternate,,,,1-3,Pilgrim Street,,,,,,,,,,,,
7a1977c7-eed1-44b7-87c2-25fed3977e78,7a1977c7-eed1-44b7-87c2-25fed3977e78,Surrey,County,Former,,,,,,,,,,,,,,,,,,
7a524da5-5655-4740-89e5-e8d8b764226a,7a524da5-5655-4740-89e5-e8d8b764226a,Middlesex,County,Former,,,,,,,,,,,,,,,,,,
7aed72f2-1b22-4a39-b72d-22cd29bd6512,7aed72f2-1b22-4a39-b72d-22cd29bd6512,,,,Alternate,,,,1-6,Aldersgate Street,,,,,,,,,,,,
7bb04e7d-4d99-4e11-b1c4-f4e2816146f6,7bb04e7d-4d99-4e11-b1c4-f4e2816146f6,,,,Alternate,,,,,John Harrison Way,,,,,,,,,,,,
7bdcf479-00e7-418f-8f2a-d9245aab7e25,7bdcf479-00e7-418f-8f2a-d9245aab7e25,,,,Alternate,,,,5,Clerkenwell Close,,,,,,,,,,,,
7bf5b62f-b2a6-4f49-a6ec-d2b6d6859915,7bf5b62f-b2a6-4f49-a6ec-d2b6d6859915,Harrow,Borough,Current,,,,,,,,,,,,,,,,,,
7c4cc185-e78d-41ee-80fc-57e3b98f33e2,7c4cc185-e78d-41ee-80fc-57e3b98f33e2,Surrey,County,Former,,,,,,,,,,,,,,,,,,
7c66a116-8b8b-4e36-8640-494790f440c4,7c66a116-8b8b-4e36-8640-494790f440c4,,,,Alternate,,,,,Grange Grove,,,,,,,,,,,,
7cd45867-dff1-4f6d-9c4b-fbf6913aa50c,7cd45867-dff1-4f6d-9c4b-fbf6913aa50c,,,,Alternate,,,,,Park Street,,,,,,,,,,,,
7cf8e13a-9b78-48f4-a986-463815fb5bec,7cf8e13a-9b78-48f4-a986-463815fb5bec,,,,Alternate,,,,5,Great Russell Street,,,,,,,,,,,,
7dc7d86e-edbd-458a-a537-7b6a34874f80,7dc7d86e-edbd-458a-a537-7b6a34874f80,,,,Alternate,,,,"27-28, 31-32",King Street,,,,,,,,,,,,
7dce548a-a4cc-46a0-9623-2b89a7494958,7dce548a-a4cc-46a0-9623-2b89a7494958,,,,Alternate,,,,20-23,Lawrence Lane,,,,,,,,,,,,
7dcfa54e-2628-40a4-8bfe-9f8b4690c418,7dcfa54e-2628-40a4-8bfe-9f8b4690c418,Hertfordshire,County,Former,,,,,,,,,,,,,,,,,,
7dd2a25c-826a-4d52-9660-f7f1b5b72d98,7dd2a25c-826a-4d52-9660-f7f1b5b72d98,,,,Alternate,,,,222,Purley Way,,,,,,,,,,,,
7e38072e-baf1-4a71-a5d5-0a6590b09eae,7e38072e-baf1-4a71-a5d5-0a6590b09eae,,,,Alternate,,,,1-2,Pudding Lane,,,,,,,,,,,,
7f781a96-1ca5-4f6a-bb68-79063e6bc210,7f781a96-1ca5-4f6a-bb68-79063e6bc210,,,,Alternate,,,,23,Queen Street,,,,,,,,,,,,
804651a4-db41-47aa-96da-ef10d9c8098b,804651a4-db41-47aa-96da-ef10d9c8098b,,,,Alternate,,,,43,Cowcross Street,,,,,,,,,,,,
809cf3c3-4278-4881-a5fa-b59a34107b8d,809cf3c3-4278-4881-a5fa-b59a34107b8d,,,,Alternate,,,,14-15,Philpot Lane,,,,,,,,,,,,
81026b45-0114-416b-a97a-2d072b145f5f,81026b45-0114-416b-a97a-2d072b145f5f,,,,Alternate,,,,4-7,Hart Street,,,,,,,,,,,,
813b974a-1e1f-4037-b7f4-a3408f6f4b43,813b974a-1e1f-4037-b7f4-a3408f6f4b43,Tower Hamlets,Borough,Current,,,,,,,,,,,,,,,,,,
827be92a-89df-4238-bf40-89fdcbb4cdb1,827be92a-89df-4238-bf40-89fdcbb4cdb1,,,,Alternate,Clements House,,,14-18,Gresham Street,,,,,,,,,,,,
82ac6b05-d7c0-4b82-ba26-61b00e1f87ce,82ac6b05-d7c0-4b82-ba26-61b00e1f87ce,,,,Alternate,St Ethelburga Church,,,,Bishopsgate,,,,,,,,,,,,
82cb210d-0078-4003-be0a-958f9becaf12,82cb210d-0078-4003-be0a-958f9becaf12,,,,Alternate,,,,98,Fenchurch Street,,,,,,,,,,,,
82d729bf-b25b-45a3-af1f-911b2434d704,82d729bf-b25b-45a3-af1f-911b2434d704,Middlesex,County,Former,,,,,,,,,,,,,,,,,,
82ee6fe8-e5d0-4062-9185-1aa75cca98ef,82ee6fe8-e5d0-4062-9185-1aa75cca98ef,,,,Alternate,,,,1,Duke's Mews,,,,,,,,,,,,
8322c0b1-4d86-4833-9e9e-fc4fc3f2e998,8322c0b1-4d86-4833-9e9e-fc4fc3f2e998,Essex,County,Former,,,,,,,,,,,,,,,,,,
8327b11c-df3e-4be3-9b4f-d1168ff43ea7,8327b11c-df3e-4be3-9b4f-d1168ff43ea7,,,,Alternate,,,,13,Took's Court,,,,,,,,,,,,
83b88b0b-a86b-499c-805f-97da7185a89d,83b88b0b-a86b-499c-805f-97da7185a89d,Middlesex,County,Former,,,,,,,,,,,,,,,,,,
8407d5d5-16fc-4e15-a40d-30530607fa26,8407d5d5-16fc-4e15-a40d-30530607fa26,City of Westminster,Borough,Current,,,,,,,,,,,,,,,,,,
8429ebea-8c69-4d25-bd30-ad8b053cf050,8429ebea-8c69-4d25-bd30-ad8b053cf050,,,,Alternate,,,,9,South Street,,,,,,,,,,,,
84abb64a-23ad-4d39-a313-6f9db8cca16f,84abb64a-23ad-4d39-a313-6f9db8cca16f,,,,Alternate,,,,2-10,Magdalen Street,,,,,,,,,,,,
84c41475-1f9e-42b0-88e4-e1eb5b21b8c2,84c41475-1f9e-42b0-88e4-e1eb5b21b8c2,Middlesex,County,Former,,,,,,,,,,,,,,,,,,
84f8af5c-1c40-4118-9b8e-c1395a4192fa,84f8af5c-1c40-4118-9b8e-c1395a4192fa,Kent,County,Former,,,,,,,,,,,,,,,,,,
859a1534-28aa-4d29-b253-3b8887489e2d,859a1534-28aa-4d29-b253-3b8887489e2d,Kent,County,Former,,,,,,,,,,,,,,,,,,
85a87772-84d7-42fe-b47b-aeca9941311b,85a87772-84d7-42fe-b47b-aeca9941311b,Essex,County,Current,,,,,,,,,,,,,,,,,,
85aca9be-b6a0-4b32-a52d-fb8b09d87966,85aca9be-b6a0-4b32-a52d-fb8b09d87966,,,,Alternate,,,,3,Abchurch Yard,,,,,,,,,,,,
85f51436-e729-4e8b-bfcb-91e2e4e81115,85f51436-e729-4e8b-bfcb-91e2e4e81115,,,,Alternate,,,,9-10,College Hill,,,,,,,,,,,,
8601628c-46dd-4205-a96e-c51ea5818f58,8601628c-46dd-4205-a96e-c51ea5818f58,,,,Alternate,,,,11-12,West Smithfield,,,,,,,,,,,,
86750ba6-45bc-463f-8fa9-34e692b30146,86750ba6-45bc-463f-8fa9-34e692b30146,Essex,County,Former,,,,,,,,,,,,,,,,,,
86767ab5-dfcd-4962-ba1d-cc3c37af767d,86767ab5-dfcd-4962-ba1d-cc3c37af767d,Kent,County,Former,,,,,,,,,,,,,,,,,,
868c003d-820c-44b2-9231-75ba0c37aeb0,868c003d-820c-44b2-9231-75ba0c37aeb0,,,,Alternate,,,,90-100,Staining Lane,,,EC2V,,,,,,,,,
869425d9-61a4-4de5-91f2-c409ed4435a8,869425d9-61a4-4de5-91f2-c409ed4435a8,,,,Alternate,,,,52-58,Maddox Street,,,,,,,,,,,,
86b04577-9e4f-4762-b43e-cc1c715fd8df,86b04577-9e4f-4762-b43e-cc1c715fd8df,Harrow,Borough,Current,,,,,,,,,,,,,,,,,,
86bb7f7c-1a19-4de1-a6dd-b07803576773,86bb7f7c-1a19-4de1-a6dd-b07803576773,Surrey,County,Former,,,,,,,,,,,,,,,,,,
86cb4759-5349-4a65-8761-523a35db6229,86cb4759-5349-4a65-8761-523a35db6229,,,,Alternate,,,,5,Langley Street,,,,,,,,,,,,
8715dd8b-769a-4be3-8267-889709c7db81,8715dd8b-769a-4be3-8267-889709c7db81,,,,Alternate,,,,47/49-50,Poland Street,,,,,,,,,,,,
875e2dba-0aff-4dbf-9a3a-a3c5f5824bc4,875e2dba-0aff-4dbf-9a3a-a3c5f5824bc4,Essex,County,Former,,,,,,,,,,,,,,,,,,
879a4a2f-4553-4242-88fa-8457beec3e1d,879a4a2f-4553-4242-88fa-8457beec3e1d,Essex,County,Former,,,,,,,,,,,,,,,,,,
87c91af0-fce2-428d-b913-a49242eff2bf,87c91af0-fce2-428d-b913-a49242eff2bf,,,,Alternate,,,,,Green Bank,,,,,,,,,,,,
87cf44c6-aa26-4309-948c-0d0b0c41b276,87cf44c6-aa26-4309-948c-0d0b0c41b276,,,,Alternate,,,,99,Leman Street,,,,,,,,,,,,
8836731a-fda2-4633-87d1-2cf3c8ab0186,8836731a-fda2-4633-87d1-2cf3c8ab0186,,,,Alternate,,,,25,New Street Square,,,,,,,,,,,,
8859527b-1b2b-4b29-bbbe-59ce9264b279,8859527b-1b2b-4b29-bbbe-59ce9264b279,,,,Alternate,,,,,Plumtree Court,,,,,,,,,,,,
886af2af-d585-400a-8be7-288728d135c3,886af2af-d585-400a-8be7-288728d135c3,,,,Alternate,,,,61-65,Manor Road,,,,,,,,,,,,
886fcbb6-2a15-4fe4-a910-c412ea079357,886fcbb6-2a15-4fe4-a910-c412ea079357,,,,Alternate,,,,2-12,Thornton Road,,,,,,,,,,,,
893bef61-6013-4b3d-bb76-78fd82f59cd9,893bef61-6013-4b3d-bb76-78fd82f59cd9,Essex,County,Former,,,,,,,,,,,,,,,,,,
8944d051-da7c-4192-a90e-a3d6a2a546b4,8944d051-da7c-4192-a90e-a3d6a2a546b4,,,,Alternate,,,,102-103,Tamworth Road,,,,,,,,,,,,
898f66dc-0da0-4ea8-931d-fa5a1e877394,898f66dc-0da0-4ea8-931d-fa5a1e877394,,,,Alternate,Ludgate House,,,,Blackfriars Road,,,SE1 9UY,,,,,,,,,
89a02bb5-9089-4d56-b8be-7b4e0fe9abcf,89a02bb5-9089-4d56-b8be-7b4e0fe9abcf,,,,Alternate,,,,19,Leman Street,,,,,,,,,,,,
89b494b1-8dd5-4503-840a-b74b798b2f43,89b494b1-8dd5-4503-840a-b74b798b2f43,Croydon,Borough,Current,,,,,,,,,,,,,,,,,,
89da4e94-51df-49ae-af15-0d90ac872459,89da4e94-51df-49ae-af15-0d90ac872459,,,,Alternate,,,,9-19,Tabernacle Street,,,,,,,,,,,,
89faabf6-437a-4b50-ad13-4dd43b9911e1,89faabf6-437a-4b50-ad13-4dd43b9911e1,Lewisham,Borough,Current,,,,,,,,,,,,,,,,,,
8ac627f5-0181-497e-b246-4a28a89985d5,8ac627f5-0181-497e-b246-4a28a89985d5,,,,Alternate,,,,109,Pelton Street,,,,,,,,,,,,
8b07b5cc-2028-4b3d-ba60-6f9ff11b04e2,8b07b5cc-2028-4b3d-ba60-6f9ff11b04e2,,,,Alternate,,,,12,Sutton Row,,,,,,,,,,,,
8b211faf-3b50-4897-acd3-eea66d49a92c,8b211faf-3b50-4897-acd3-eea66d49a92c,,,,Alternate,,,,1-3,Fleet Lane,,,,,,,,,,,,
8be7bb12-f342-4e28-8aca-aa0595387c82,8be7bb12-f342-4e28-8aca-aa0595387c82,,,,Alternate,,,,1A,Arbutus Street,,,,,,,,,,,,
8bf20c9b-154e-44bd-94e8-3deea01d9282,8bf20c9b-154e-44bd-94e8-3deea01d9282,,,,Alternate,,,,7,Meymott Street,,,,,,,,,,,,
8c14c7d7-bb39-4d30-93ff-d84ffcd9ab14,8c14c7d7-bb39-4d30-93ff-d84ffcd9ab14,,,,Alternate,,,,1-3,Ludgate Square,,,,,,,,,,,,
8c38ebcc-ca37-413f-b897-e13c762bd54c,8c38ebcc-ca37-413f-b897-e13c762bd54c,Middlesex,County,Former,,,,,,,,,,,,,,,,,,
8c8acde6-0e95-4519-b296-dc00bc192907,8c8acde6-0e95-4519-b296-dc00bc192907,,,,Alternate,,,,44-52,High Street,,,,,,,,,,,,
8cda461b-73c5-499b-8023-36cd3dc2dd05,8cda461b-73c5-499b-8023-36cd3dc2dd05,,,,Alternate,Clements House,,,14-18,Gresham Street,,,,,,,,,,,,
8cf40ac3-c3f6-4070-9e56-6129224d1e30,8cf40ac3-c3f6-4070-9e56-6129224d1e30,Surrey,County,Former,,,,,,,,,,,,,,,,,,
8d97fd7a-9690-4965-a574-02949d32b6bf,8d97fd7a-9690-4965-a574-02949d32b6bf,Surrey,County,Former,,,,,,,,,,,,,,,,,,
8ddaa67d-948b-434f-8305-1ac8a8dda3df,8ddaa67d-948b-434f-8305-1ac8a8dda3df,,,,Alternate,,,,9-10,Blackheath Road,,,,,,,,,,,,
8e0e4c75-2a00-4ec6-85f5-988e20670fc4,8e0e4c75-2a00-4ec6-85f5-988e20670fc4,Middlesex,County,Former,,,,,,,,,,,,,,,,,,
8e34ef5f-0ec4-41b3-acf7-8c0d096a904c,8e34ef5f-0ec4-41b3-acf7-8c0d096a904c,Surrey,County,Former,,,,,,,,,,,,,,,,,,
8e575569-80b7-4117-bd78-550eeaf7acee,8e575569-80b7-4117-bd78-550eeaf7acee,Essex,County,Former,,,,,,,,,,,,,,,,,,
8e7e96cf-9714-4360-8762-c0d17d262bce,8e7e96cf-9714-4360-8762-c0d17d262bce,Surrey,County,Former,,,,,,,,,,,,,,,,,,
8e8dd496-293e-420b-9d88-f26bd6a7d40d,8e8dd496-293e-420b-9d88-f26bd6a7d40d,,,,Alternate,,,,5-6,Russia Row,,,,,,,,,,,,
8eb3d586-ac1b-430f-bf80-8686333504f2,8eb3d586-ac1b-430f-bf80-8686333504f2,,,,Alternate,,,,1-2,Copthall Buildings,,,,,,,,,,,,
8ee1c9aa-459f-4309-9107-1a0c7c97434a,8ee1c9aa-459f-4309-9107-1a0c7c97434a,,,,Alternate,,,,77-79,Carter Lane,,,,,,,,,,,,
8ef2afad-ab34-433d-8e9e-61e3363693a3,8ef2afad-ab34-433d-8e9e-61e3363693a3,,,,Alternate,,,,1,Kingsway,,,,,,,,,,,,
8f27c9da-9be6-4464-bc67-09a6aa7cd912,8f27c9da-9be6-4464-bc67-09a6aa7cd912,,,,Alternate,,,,,High Street,,,,,,,,,,,,
8fe4a984-efdf-455e-955e-3f891721b4b6,8fe4a984-efdf-455e-955e-3f891721b4b6,,,,Alternate,,,,1,Carter Court,,,,,,,,,,,,
906aaf9f-1512-4d1f-8f9b-5304f66b07de,906aaf9f-1512-4d1f-8f9b-5304f66b07de,,,,Alternate,,,,1-2,Coach and Horses Yard,,,,,,,,,,,,
90873788-0e2a-4985-8186-97c8bdc4b76b,90873788-0e2a-4985-8186-97c8bdc4b76b,,,,Alternate,,,,1-17,Devonshire Row,,,,,,,,,,,,
908a25ee-c9fc-4cf7-b529-cb2cdd7f93ec,908a25ee-c9fc-4cf7-b529-cb2cdd7f93ec,Surrey,County,Former,,,,,,,,,,,,,,,,,,
90bd8576-ee6e-4b46-9b6f-ebd2e1b43dec,90bd8576-ee6e-4b46-9b6f-ebd2e1b43dec,Essex,County,Former,,,,,,,,,,,,,,,,,,
90fb8d75-fae4-469f-ac0a-b9be4b1b351d,90fb8d75-fae4-469f-ac0a-b9be4b1b351d,,,,Alternate,,,,11-12,Foster Lane,,,,,,,,,,,,
91011d58-c97b-433f-909d-d54d66c6e909,91011d58-c97b-433f-909d-d54d66c6e909,,,,Alternate,,,,,Little Somerset Street,,,,,,,,,,,,
910436f4-acc0-47c8-9797-a4f07b5b2104,910436f4-acc0-47c8-9797-a4f07b5b2104,Surrey,County,Former,,,,,,,,,,,,,,,,,,
913b65bf-bb05-4133-b2ab-e21a0bd2a63b,913b65bf-bb05-4133-b2ab-e21a0bd2a63b,Middlesex,County,Former,,,,,,,,,,,,,,,,,,
915e8624-0338-4e38-afe8-fb578ef84c61,915e8624-0338-4e38-afe8-fb578ef84c61,,,,Alternate,,,,36-37,Jewry Street,,,,,,,,,,,,
917a56e5-3229-4f14-99eb-4863196f92e4,917a56e5-3229-4f14-99eb-4863196f92e4,,,,Alternate,,,,7-9,Morocco Street,,,,,,,,,,,,
9183e9b0-9373-4883-95d8-ffea856b2f46,9183e9b0-9373-4883-95d8-ffea856b2f46,,,,Alternate,,,,,Vaughan Way,,,,,,,,,,,,
918869e7-02f4-444d-9141-cc527de2e383,918869e7-02f4-444d-9141-cc527de2e383,,,,Alternate,,,,60,Threadneedle Street,,,,,,,,,,,,
91af2c27-f768-4f6f-8a88-974ff4d737fe,91af2c27-f768-4f6f-8a88-974ff4d737fe,,,,Alternate,,,,,West End Road,,,,,,,,,,,,
91b7e0aa-3baa-4082-8c1a-b431ebeb9295,91b7e0aa-3baa-4082-8c1a-b431ebeb9295,,,,Alternate,Bishopsgate House,,,106-126,Bishopsgate,,,,,,,,,,,,
91fbc646-07fd-4151-805e-6a4ce343de3c,91fbc646-07fd-4151-805e-6a4ce343de3c,Middlesex,County,Former,,,,,,,,,,,,,,,,,,
922338b7-162c-492d-90ff-e79fd25dbaa7,922338b7-162c-492d-90ff-e79fd25dbaa7,,,,Alternate,,,,1-18,Old Broad Street,,,,,,,,,,,,
92555f98-bffa-4460-a504-bb2cd3faf517,92555f98-bffa-4460-a504-bb2cd3faf517,Surrey,County,Former,,,,,,,,,,,,,,,,,,
92680a8e-6cae-41a7-8486-38aebd10e150,92680a8e-6cae-41a7-8486-38aebd10e150,,,,Alternate,,,,18-31,Eldon Street,,,,,,,,,,,,
92790265-991e-451f-a1cb-19c6419b6379,92790265-991e-451f-a1cb-19c6419b6379,Surrey,County,Former,,,,,,,,,,,,,,,,,,
929ee218-2dca-4bb9-9d05-d951d1a0e983,929ee218-2dca-4bb9-9d05-d951d1a0e983,Essex,County,Former,,,,,,,,,,,,,,,,,,
92a4192f-0cae-45eb-8d48-fd72cc08d6c9,92a4192f-0cae-45eb-8d48-fd72cc08d6c9,,,,Alternate,,,,123-131,London Road,,,,,,,,,,,,
92e3446b-4b7a-463f-8be8-a20928ef0049,92e3446b-4b7a-463f-8be8-a20928ef0049,,,,Alternate,,,,5-12,New London Street,,,,,,,,,,,,
92f6794a-4c02-4fa0-a79b-4d24d993616d,92f6794a-4c02-4fa0-a79b-4d24d993616d,,,,Alternate,,,,,Priory Drive,,,,,,,,,,,,
934678e3-0f11-4afc-896c-ab2a850c56ba,934678e3-0f11-4afc-896c-ab2a850c56ba,,,,Alternate,,,,,Dalston Road,,,E8,,,,,,,,,
93995e0f-1f77-4b7b-a727-83572ed987f1,93995e0f-1f77-4b7b-a727-83572ed987f1,,,,Alternate,,,,85,Great Tower Street,,,,,,,,,,,,
940c60f5-9449-41b0-8f3c-7bd919dcf1fd,940c60f5-9449-41b0-8f3c-7bd919dcf1fd,Essex,County,Former,,,,,,,,,,,,,,,,,,
94728ed4-51eb-405d-b8e0-a8fed2ad44ae,94728ed4-51eb-405d-b8e0-a8fed2ad44ae,Essex,County,Former,,,,,,,,,,,,,,,,,,
94dd798d-0916-4397-a949-101c5cd77929,94dd798d-0916-4397-a949-101c5cd77929,,,,Alternate,,,,15,St Botolph Street,,,,,,,,,,,,
956b2acf-8d4e-4037-8ff1-9b0aced04ff4,956b2acf-8d4e-4037-8ff1-9b0aced04ff4,,,,Alternate,,,,16-17,Plough Street,,,,,,,,,,,,
956f7e9d-2f03-48f6-a301-7be5cbcd04e6,956f7e9d-2f03-48f6-a301-7be5cbcd04e6,Surrey,County,Former,,,,,,,,,,,,,,,,,,
95ebd051-b109-4f4a-98f9-82750b5bc38f,95ebd051-b109-4f4a-98f9-82750b5bc38f,,,,Alternate,,,,6-8,Spring Gardens,,,,,,,,,,,,
9708f056-6ac9-478a-82ca-3e1d452ec7a4,9708f056-6ac9-478a-82ca-3e1d452ec7a4,,,,Alternate,,,,11-16,Telegraph Street,,,,,,,,,,,,
974a384a-3c5f-4721-93cf-c3bbe115a05f,974a384a-3c5f-4721-93cf-c3bbe115a05f,Southwark,Borough,Current,,,,,,,,,,,,,,,,,,
97a50e65-ca94-49de-ad7d-dcf85ae217f3,97a50e65-ca94-49de-ad7d-dcf85ae217f3,,,,Alternate,,,,38,Bishopsgate,,,,,,,,,,,,
97bd2128-52e4-48a8-937c-d800a9327685,97bd2128-52e4-48a8-937c-d800a9327685,,,,Alternate,,,,15-16,Cullum Street,,,,,,,,,,,,
97cba654-0856-477b-a653-775a8d8df27c,97cba654-0856-477b-a653-775a8d8df27c,,,,Alternate,,,,5-12,New London Street,,,,,,,,,,,,
97d73d7f-8092-4c00-91f2-24448d6e9841,97d73d7f-8092-4c00-91f2-24448d6e9841,Havering,Borough,Current,,,,,,,,,,,,,,,,,,
98005063-56d9-434b-9aa1-0dfd4233b4a2,98005063-56d9-434b-9aa1-0dfd4233b4a2,Islington,Borough,Current,,,,,,,,,,,,,,,,,,
982233f0-2c05-4f71-9ed0-daea457fcae0,982233f0-2c05-4f71-9ed0-daea457fcae0,Middlesex,County,Former,,,,,,,,,,,,,,,,,,
983970a7-d45f-4a83-8771-70519d7f745c,983970a7-d45f-4a83-8771-70519d7f745c,,,,Alternate,,,,,Bright Street,,,,,,,,,,,,
983cc0aa-8773-4ffc-a084-7b6b2b0e40eb,983cc0aa-8773-4ffc-a084-7b6b2b0e40eb,,,,Alternate,,,,23,Rood Lane,,,,,,,,,,,,
984fd3b0-472d-4ac8-98b5-8b3654985ca9,984fd3b0-472d-4ac8-98b5-8b3654985ca9,,,,Alternate,,,,,Crutched Friars,,,,,,,,,,,,
98617756-fab0-453e-b0f2-3726af0bdb58,98617756-fab0-453e-b0f2-3726af0bdb58,,,,Alternate,,,,31-47,Tabard Street,,,,,,,,,,,,
988a0d2b-2013-487d-854d-a27598be1073,988a0d2b-2013-487d-854d-a27598be1073,,,,Alternate,,,,38,Brushfield Street,,,,,,,,,,,,
98e01c21-ade7-4fd2-b46b-32d8cc05bba2,98e01c21-ade7-4fd2-b46b-32d8cc05bba2,Harrow,Borough,Current,,,,,,,,,,,,,,,,,,
9930a431-cef1-449a-ba5c-b1e2d9a5fc1e,9930a431-cef1-449a-ba5c-b1e2d9a5fc1e,,,,Alternate,,,,33-34,Hoxton Square,,,,,,,,,,,,
998ef138-4d80-4d30-8b32-e51503667e44,998ef138-4d80-4d30-8b32-e51503667e44,,,,Alternate,,,,12-16,White's Court,,,,,,,,,,,,
99984d49-1fa8-491d-88d3-d076d9b66321,99984d49-1fa8-491d-88d3-d076d9b66321,Surrey,County,Former,,,,,,,,,,,,,,,,,,
999bae9c-79ee-4002-8449-a84396667f67,999bae9c-79ee-4002-8449-a84396667f67,,,,Alternate,,,,41-54,Liverpool Street,,,,,,,,,,,,
99b67ee1-1808-4a40-82af-14f284801055,99b67ee1-1808-4a40-82af-14f284801055,,,,Alternate,,,,51-54,Long Acre,,,,,,,,,,,,
99f02d79-2510-4e0f-98ed-9c2da0fe3410,99f02d79-2510-4e0f-98ed-9c2da0fe3410,,,,Alternate,,,,37,Jewry Street,,,,,,,,,,,,
9a382693-5d5d-4ba7-9905-1c554873a1bd,9a382693-5d5d-4ba7-9905-1c554873a1bd,,,,Alternate,,,,2,Old Jamaica Road,,,,,,,,,,,,
9a9d04a6-23e6-44aa-9c44-98b681daf10c,9a9d04a6-23e6-44aa-9c44-98b681daf10c,,,,Alternate,,,,44-46,Gresham Street,,,,,,,,,,,,
9aa1047e-9f23-46cb-82e7-c8ec74b1653c,9aa1047e-9f23-46cb-82e7-c8ec74b1653c,,,,Alternate,,,,18-48,Newington Causeway,,,,,,,,,,,,
9b0032e0-6ee1-4e9d-8da9-8ac0f01b44f4,9b0032e0-6ee1-4e9d-8da9-8ac0f01b44f4,,,,Alternate,,,,,Castlehaven Road,,,,,,,,,,,,
9b1167bc-aa91-4a89-b854-4bd1fdfad78f,9b1167bc-aa91-4a89-b854-4bd1fdfad78f,,,,Alternate,,,,19,Scarbrook Road,,,,,,,,,,,,
9bc6f36f-9300-4a01-920b-ee0255ffdc62,9bc6f36f-9300-4a01-920b-ee0255ffdc62,,,,Alternate,,,,309-313,Kirkdale,,,,,,,,,,,,
9bd8cc2d-1791-474b-8b6a-370386873f9b,9bd8cc2d-1791-474b-8b6a-370386873f9b,Islington,Borough,Current,,,,,,,,,,,,,,,,,,
9be81cb2-2cdc-499a-a7e5-2d2e9b01b4c4,9be81cb2-2cdc-499a-a7e5-2d2e9b01b4c4,,,,Alternate,,,,16-24,Blomfield Street,,,,,,,,,,,,
9be854f5-d24f-4a75-aef6-03c671234afb,9be854f5-d24f-4a75-aef6-03c671234afb,Essex,County,Former,,,,,,,,,,,,,,,,,,
9c190f25-2dd7-40fb-ac83-46a847519827,9c190f25-2dd7-40fb-ac83-46a847519827,,,,Alternate,,,,22-29,Hosier Lane,,,,,,,,,,,,
9c59f800-0aa9-4b4d-9391-78b2b061c3e2,9c59f800-0aa9-4b4d-9391-78b2b061c3e2,Middlesex,County,Former,,,,,,,,,,,,,,,,,,
9cb9c4e0-1c97-4b6f-ac6e-3c557da4221c,9cb9c4e0-1c97-4b6f-ac6e-3c557da4221c,,,,Alternate,,,,7,Meymott Street,,,,,,,,,,,,
9cc8bb92-8028-4be0-978e-bc78ce6c79df,9cc8bb92-8028-4be0-978e-bc78ce6c79df,,,,Alternate,,,,99,Leaman Street,,,,,,,,,,,,
9d022bee-3886-41eb-ae0a-0026a4e64ce7,9d022bee-3886-41eb-ae0a-0026a4e64ce7,,,,Alternate,,,,54-58,Commercial Road,,,,,,,,,,,,
9d290dc8-0eee-4b2f-92c4-6be22260e0d0,9d290dc8-0eee-4b2f-92c4-6be22260e0d0,Surrey,County,Former,,,,,,,,,,,,,,,,,,
9d6a6c9a-e946-4814-b5c1-c67b21cbc473,9d6a6c9a-e946-4814-b5c1-c67b21cbc473,,,,Alternate,,,,11-12,Foster Lane,,,,,,,,,,,,
9d963f3c-358b-402f-80f3-6effbb881329,9d963f3c-358b-402f-80f3-6effbb881329,Southwark,Borough,Current,,,,,,,,,,,,,,,,,,
9dd84d1f-4282-492e-8308-5f4b519e61e0,9dd84d1f-4282-492e-8308-5f4b519e61e0,,,,Alternate,,,,39-40,Panton Street,,,,,,,,,,,,
9de11a8b-3156-4a6b-b5a8-2b8f557ab5e5,9de11a8b-3156-4a6b-b5a8-2b8f557ab5e5,,,,Alternate,,,,9,Ludgate Broadway,,,,,,,,,,,,
9e39933d-cee0-48c9-b99e-f0f33ca955d4,9e39933d-cee0-48c9-b99e-f0f33ca955d4,Middlesex,County,Former,,,,,,,,,,,,,,,,,,
9e80255b-d3be-4213-8974-1ba8be795a2a,9e80255b-d3be-4213-8974-1ba8be795a2a,,,,Alternate,,,,1-3,Goring Street,,,,,,,,,,,,
9e8f23f5-45ff-446d-a623-be62231a66ac,9e8f23f5-45ff-446d-a623-be62231a66ac,Middlesex,County,Former,,,,,,,,,,,,,,,,,,
9eb6a607-6f52-46d0-a71c-ac95a61bae3b,9eb6a607-6f52-46d0-a71c-ac95a61bae3b,Middlesex,County,Former,,,,,,,,,,,,,,,,,,
9eca0dcc-7d36-4e9c-800c-1b03416566b3,9eca0dcc-7d36-4e9c-800c-1b03416566b3,Surrey,County,Former,,,,,,,,,,,,,,,,,,
9f47b1c1-adb8-4c01-b6f3-98ca8e28dabf,9f47b1c1-adb8-4c01-b6f3-98ca8e28dabf,Waltham Forest,Borough,Current,,,,,,,,,,,,,,,,,,
9feb052a-fcb8-44b1-ad5f-666b18135097,9feb052a-fcb8-44b1-ad5f-666b18135097,,,,Alternate,,,,31-70,Tabard Street,,,,,,,,,,,,
9fef3d65-14c0-4e7e-83a8-92b59bab7298,9fef3d65-14c0-4e7e-83a8-92b59bab7298,,,,Alternate,,,,61-62,Watling Street,,,EC4N 1SR,,,,,,,,,
a03b62e7-a494-4b8e-9320-34e429436784,a03b62e7-a494-4b8e-9320-34e429436784,,,,Alternate,,,,,Green Bank,,,,,,,,,,,,
a05b94df-2522-452c-8089-0e4ebac66618,a05b94df-2522-452c-8089-0e4ebac66618,Essex,County,Former,,,,,,,,,,,,,,,,,,
a05f434e-2c09-4288-a3dd-573bef147f92,a05f434e-2c09-4288-a3dd-573bef147f92,,,,Alternate,,,,,Kingsland High Street,,,,,,,,,,,,
a0bb2b19-cdcc-4e5d-a58b-3fc065ecb479,a0bb2b19-cdcc-4e5d-a58b-3fc065ecb479,,,,Alternate,,,,,Goswell Road,,,,,,,,,,,,
a0c99f9f-9d3f-44db-ba76-ffcc3313ed9f,a0c99f9f-9d3f-44db-ba76-ffcc3313ed9f,Surrey,County,Former,,,,,,,,,,,,,,,,,,
a0fde0ea-1602-4b03-8427-18ccbf55c5af,a0fde0ea-1602-4b03-8427-18ccbf55c5af,Middlesex,County,Former,,,,,,,,,,,,,,,,,,
a103f569-105d-4453-902d-9f9f773f5d46,a103f569-105d-4453-902d-9f9f773f5d46,,,,Alternate,,,,1-7,Salisbury Court,,,,,,,,,,,,
a11e80a4-d777-49e9-ab4a-5af166d504e7,a11e80a4-d777-49e9-ab4a-5af166d504e7,Surrey,County,Former,,,,,,,,,,,,,,,,,,
a1ac5ee7-6e31-4332-b032-58913aa35fc9,a1ac5ee7-6e31-4332-b032-58913aa35fc9,,,,Alternate,,,,,Harlington Road,,,,,,,,,,,,
a1d430f5-a306-4d06-83af-c9a6ec33c95a,a1d430f5-a306-4d06-83af-c9a6ec33c95a,Kent,County,Former,,,,,,,,,,,,,,,,,,
a1ed75f6-be02-4c90-b2a8-f0e250273d54,a1ed75f6-be02-4c90-b2a8-f0e250273d54,,,,Alternate,,,,62-64,Queen Street,,,,,,,,,,,,
a205690d-fbef-43d3-8359-3c95e11dcb36,a205690d-fbef-43d3-8359-3c95e11dcb36,,,,Alternate,,,,,Eric Clarke Lane,,,,,,,,,,,,
a206e19f-3810-41be-8aec-a21ba4c2a4c0,a206e19f-3810-41be-8aec-a21ba4c2a4c0,,,,Alternate,,,,154-156,Upper Thames Street,,,,,,,,,,,,
a285fa0b-f1e3-452f-b68d-8d6cbb70e0af,a285fa0b-f1e3-452f-b68d-8d6cbb70e0af,,,,Alternate,,,,18-24,Garrick Street,,,,,,,,,,,,
a2d9e172-4a4d-4847-859d-1d644dfb6bef,a2d9e172-4a4d-4847-859d-1d644dfb6bef,,,,Alternate,,,,74,Union Street,,,SE1,,,,,,,,,
a31dc666-264b-493b-bb85-c83d1dd96507,a31dc666-264b-493b-bb85-c83d1dd96507,,,,Alternate,,,,,Cannon Street Road,,,,,,,,,,,,
a33bf1b4-cfe0-4c0b-9e73-ee0cc20fed76,a33bf1b4-cfe0-4c0b-9e73-ee0cc20fed76,,,,Alternate,,,,1-7,Alie Street,,,,,,,,,,,,
a36a950e-cea7-4c1e-978a-d4de7094b529,a36a950e-cea7-4c1e-978a-d4de7094b529,,,,Alternate,,,,23-34,Bouverie Street,,,,,,,,,,,,
a3851b65-120f-4451-a5b4-66b4dccf76b4,a3851b65-120f-4451-a5b4-66b4dccf76b4,,,,Alternate,,,,1A,Buckle Street,,,,,,,,,,,,
a3ca6acd-91f1-4c30-b938-c1c949ab72d9,a3ca6acd-91f1-4c30-b938-c1c949ab72d9,,,,Alternate,,,,,St Thomas Street,,,,,,,,,,,,
a3d585e3-7d8a-49e1-9ff5-81dcdaf57504,a3d585e3-7d8a-49e1-9ff5-81dcdaf57504,,,,Alternate,,,,,St Mary's Road,,,,,,,,,,,,
a42bdb96-a416-45ea-b8cc-376fe3638099,a42bdb96-a416-45ea-b8cc-376fe3638099,,,,Alternate,,,,,Bartholomew Street,,,,,,,,,,,,
a48cb22f-4f8c-4998-98fd-0cd5f9fac64a,a48cb22f-4f8c-4998-98fd-0cd5f9fac64a,Surrey,County,Former,,,,,,,,,,,,,,,,,,
a4e958b8-9d18-4735-ac0f-9ac5c9cf669c,a4e958b8-9d18-4735-ac0f-9ac5c9cf669c,Middlesex,County,Former,,,,,,,,,,,,,,,,,,
a4f9ff57-8961-4f16-bc4f-2c0abff83278,a4f9ff57-8961-4f16-bc4f-2c0abff83278,Surrey,County,Former,,,,,,,,,,,,,,,,,,
a52ff7e0-9fec-44ae-8f2f-b128e20af1fe,a52ff7e0-9fec-44ae-8f2f-b128e20af1fe,Middlesex,County,Former,,,,,,,,,,,,,,,,,,
a55c74fa-a718-4ea4-9d08-4684923e1383,a55c74fa-a718-4ea4-9d08-4684923e1383,,,,Alternate,,,,5-7,Carlisle Avenue,,,,,,,,,,,,
a55f6cdc-eb42-42a3-b1b1-973cf76a0d91,a55f6cdc-eb42-42a3-b1b1-973cf76a0d91,,,,Alternate,,,,9-12,King Street,,,,,,,,,,,,
a57490b2-9ca0-4780-80c1-a21081d1631b,a57490b2-9ca0-4780-80c1-a21081d1631b,,,,Alternate,,,,53-54,Clapham Common South Side,,,,,,,,,,,,
a59417ee-50af-4f95-8325-4fdadcef91fd,a59417ee-50af-4f95-8325-4fdadcef91fd,Middlesex,County,Former,,,,,,,,,,,,,,,,,,
a59b9330-c621-4ddb-934c-aab9e2d121d9,a59b9330-c621-4ddb-934c-aab9e2d121d9,,,,Alternate,,,,25,New Street Square,,,,,,,,,,,,
a622e48e-0792-45bd-838e-8c6fb6b79156,a622e48e-0792-45bd-838e-8c6fb6b79156,,,,Alternate,,,,21,Webber Street,,,SE1,,,,,,,,,
a6609dfe-4c19-4693-b93a-2e972f631dc8,a6609dfe-4c19-4693-b93a-2e972f631dc8,,,,Alternate,,,,119-124,Saffron Hill,,,,,,,,,,,,
a67b14b0-729f-4df3-ae9d-b078cc2ed2b0,a67b14b0-729f-4df3-ae9d-b078cc2ed2b0,Kent,County,Former,,,,,,,,,,,,,,,,,,
a6a56fc9-bbeb-4b41-92fe-fd3b3aa9412b,a6a56fc9-bbeb-4b41-92fe-fd3b3aa9412b,Hackney,Borough,Current,,,,,,,,,,,,,,,,,,
a6e4437f-668d-4612-b6a5-4c70a3cef707,a6e4437f-668d-4612-b6a5-4c70a3cef707,,,,Alternate,,,,6-9,Crown Street,,,,,,,,,,,,
a72e013f-a422-4fb0-b0a8-8aab979bef6a,a72e013f-a422-4fb0-b0a8-8aab979bef6a,,,,Alternate,,,,6-7,Lawrence Lane,,,,,,,,,,,,
a789f762-3d0a-4ff4-a59c-9c10e787013d,a789f762-3d0a-4ff4-a59c-9c10e787013d,Tower Hamlets,Borough,Current,,,,,,,,,,,,,,,,,,
a7bc830d-3055-4286-ac9b-fa8cc53eade7,a7bc830d-3055-4286-ac9b-fa8cc53eade7,,,,Alternate,Arnold House,,,,,,,,,,,,,,,,
a7e7a0d4-061a-4a65-9a3e-5eb228e6100e,a7e7a0d4-061a-4a65-9a3e-5eb228e6100e,,,,Alternate,,,,,Grosvenor Gardens Mews North,,,,,,,,,,,,
a7e99aa6-d280-4acb-ad3c-07b80524adb2,a7e99aa6-d280-4acb-ad3c-07b80524adb2,,,,Alternate,,,,422-456,Bath Road,,,,,,,,,,,,
a861cc2c-67e6-4808-a691-5491b718ebaf,a861cc2c-67e6-4808-a691-5491b718ebaf,,,,Alternate,,,,,Pepys Street,,,,,,,,,,,,
a8ae9d6a-9c35-448f-9435-fb60cf5267b0,a8ae9d6a-9c35-448f-9435-fb60cf5267b0,,,,Alternate,,,,51,Aldwych,,,,,,,,,,,,
a8b9fc35-92ac-4e8d-b67d-4a98d1b3a2da,a8b9fc35-92ac-4e8d-b67d-4a98d1b3a2da,,,,Alternate,,,,123-131,London Road,,,,,,,,,,,,
a8d42ed4-2c35-452d-8b18-c24f91b36c8c,a8d42ed4-2c35-452d-8b18-c24f91b36c8c,Middlesex,County,Former,,,,,,,,,,,,,,,,,,
a8d4f786-5b6e-46e8-887d-e9b6796edad1,a8d4f786-5b6e-46e8-887d-e9b6796edad1,Kent,County,Former,,,,,,,,,,,,,,,,,,
a8ec8639-160d-4ee0-8d2b-0e28255eb46b,a8ec8639-160d-4ee0-8d2b-0e28255eb46b,,,,Alternate,,,,34-36,Thames Street,,,,,,,,,,,,
a959f592-469e-4420-acbd-8c6685bed230,a959f592-469e-4420-acbd-8c6685bed230,,,,Alternate,,,,4,Great St Helen's,,,,,,,,,,,,
a95aa25c-9a02-44bf-a530-13589219fc9d,a95aa25c-9a02-44bf-a530-13589219fc9d,,,,Alternate,St Vedast House,,,161-162,St Martin's Le Grand,,,,,,,,,,,,
a97590f7-c52c-4798-8a1d-8c12dd4f909b,a97590f7-c52c-4798-8a1d-8c12dd4f909b,,,,Alternate,,,,202,Lambeth Road,,,,,,,,,,,,
a97a39e2-efb8-418a-8fa9-f198e75be93e,a97a39e2-efb8-418a-8fa9-f198e75be93e,,,,Alternate,,,,1-2,Pudding Lane,,,,,,,,,,,,
a9bad479-8a70-4af4-9c2d-ad753cc9b524,a9bad479-8a70-4af4-9c2d-ad753cc9b524,,,,Alternate,,,,,Hare Court,,,EC4,,,,,,,,,
aa28b996-db2a-41d9-8921-03245af8cd03,aa28b996-db2a-41d9-8921-03245af8cd03,Waltham Forest,Borough,Current,,,,,,,,,,,,,,,,,,
aa868bbd-6dce-4436-ae78-b89e1c3f1222,aa868bbd-6dce-4436-ae78-b89e1c3f1222,,,,Alternate,,,,147,Tooley Street,,,,,,,,,,,,
aa87c027-47f7-4374-8bdc-c1e3e8701eaa,aa87c027-47f7-4374-8bdc-c1e3e8701eaa,Harrow,Borough,Current,,,,,,,,,,,,,,,,,,
aa91e12f-f9e3-4167-9886-a3556195a7c5,aa91e12f-f9e3-4167-9886-a3556195a7c5,Essex,County,Former,,,,,,,,,,,,,,,,,,
aabd45eb-16b5-49d5-ae64-d9fdf22a1a08,aabd45eb-16b5-49d5-ae64-d9fdf22a1a08,,,,Alternate,,,,9-10,College Hill,,,,,,,,,,,,
aaec0cd8-2588-40eb-8500-5da42993bf6c,aaec0cd8-2588-40eb-8500-5da42993bf6c,,,,Alternate,,,,18-20,Tapster Street,,,,,,,,,,,,
ab0a3452-e9aa-4fd7-8bda-508a830b6aa6,ab0a3452-e9aa-4fd7-8bda-508a830b6aa6,Essex,County,Former,,,,,,,,,,,,,,,,,,
ab595f4a-9e33-4ccb-a87b-f05cc61c3819,ab595f4a-9e33-4ccb-a87b-f05cc61c3819,Newham,Borough,Current,,,,,,,,,,,,,,,,,,
ab873cf6-b7b4-4df6-a5a2-1eac81c0d6d2,ab873cf6-b7b4-4df6-a5a2-1eac81c0d6d2,,,,Alternate,,,,1-18,Old Broad Street,,,,,,,,,,,,
ab98496f-9442-48a7-b732-88a5b2163eff,ab98496f-9442-48a7-b732-88a5b2163eff,Middlesex,County,Former,,,,,,,,,,,,,,,,,,
abfcf591-b04b-4362-bbb2-e940e7d9d3e9,abfcf591-b04b-4362-bbb2-e940e7d9d3e9,Essex,County,Former,,,,,,,,,,,,,,,,,,
ac160c5d-9555-4c4a-802a-cdec3f1c0978,ac160c5d-9555-4c4a-802a-cdec3f1c0978,,,,Alternate,,,,47-67,Harper Road,,,,,,,,,,,,
ac30f89d-98aa-48ea-a112-7a698a141ce7,ac30f89d-98aa-48ea-a112-7a698a141ce7,Essex,County,Former,,,,,,,,,,,,,,,,,,
ac4bd60a-b5fd-452d-9b4f-c5ebd1bfa48d,ac4bd60a-b5fd-452d-9b4f-c5ebd1bfa48d,,,,Alternate,,,,2,Suffolk Lane,,,,,,,,,,,,
ac855eef-642f-4cbf-b13d-ccf00bab5eef,ac855eef-642f-4cbf-b13d-ccf00bab5eef,,,,Alternate,,,,34-35,Leadenhall Street,,,,,,,,,,,,
acc7d101-8564-4598-a50e-ba8a2b503976,acc7d101-8564-4598-a50e-ba8a2b503976,,,,Alternate,,,,,Blackwall Tunnel Southern Approach,,,SE10,,,,,,,,,
acd65ebd-99fd-4b3e-926e-6b36e771cedb,acd65ebd-99fd-4b3e-926e-6b36e771cedb,,,,Alternate,,,,,West End Road,,,,,,,,,,,,
ad12475d-5b3a-469d-89e2-f7a36993a9fe,ad12475d-5b3a-469d-89e2-f7a36993a9fe,Middlesex,County,Former,,,,,,,,,,,,,,,,,,
ad3b47bd-ae66-43df-b843-adada3fb216f,ad3b47bd-ae66-43df-b843-adada3fb216f,Essex,County,Former,,,,,,,,,,,,,,,,,,
ad6b69d0-3621-42b1-9df1-a11a594e0ef5,ad6b69d0-3621-42b1-9df1-a11a594e0ef5,,,,Alternate,,,,28-34,Windsor Street,,,,,,,,,,,,
ad71f5dd-474b-46a1-84d2-91fd33aa1471,ad71f5dd-474b-46a1-84d2-91fd33aa1471,,,,Alternate,Sydney Walton Hostel,,,,Roxeth Hill,,,HA2 0JN,,,,,,,,,
ad7ffb85-b172-4d69-81cd-952def6096af,ad7ffb85-b172-4d69-81cd-952def6096af,Lewisham,Borough,Current,,,,,,,,,,,,,,,,,,
aeae06aa-a2ae-4415-9195-3e0a5d90f0f4,aeae06aa-a2ae-4415-9195-3e0a5d90f0f4,,,,Alternate,,,,,Tooley Street,,,,,,,,,,,,
aeb2f620-aaa7-4eac-80ce-30c0e149d8d2,aeb2f620-aaa7-4eac-80ce-30c0e149d8d2,,,,Alternate,,,,82,Queen Street,,,,,,,,,,,,
aec9f8e4-058f-4ff7-9426-caf4bac21631,aec9f8e4-058f-4ff7-9426-caf4bac21631,Surrey,County,Former,,,,,,,,,,,,,,,,,,
aecf63c8-154a-4f9b-8919-30342188106e,aecf63c8-154a-4f9b-8919-30342188106e,,,,Alternate,,,,6-8,Spring Gardens,,,,,,,,,,,,
aef24cd8-0749-4857-85d9-d305822de8d5,aef24cd8-0749-4857-85d9-d305822de8d5,Middlesex,County,Former,,,,,,,,,,,,,,,,,,
aefeb96e-fc66-4f31-934e-1b546639e931,aefeb96e-fc66-4f31-934e-1b546639e931,Essex,County,Former,,,,,,,,,,,,,,,,,,
afa22c74-215e-4afd-8412-19547d1bdfb7,afa22c74-215e-4afd-8412-19547d1bdfb7,Surrey,County,Former,,,,,,,,,,,,,,,,,,
afb28185-4e94-484c-8534-b478a20ccec8,afb28185-4e94-484c-8534-b478a20ccec8,Middlesex,County,Former,,,,,,,,,,,,,,,,,,
afe121a5-2d42-49e8-88d9-27b1088aa2ce,afe121a5-2d42-49e8-88d9-27b1088aa2ce,,,,Alternate,,,,20-23,Devonshire Place,,,,,,,,,,,,
aff47252-361d-4cca-8c5d-3df35d024a4c,aff47252-361d-4cca-8c5d-3df35d024a4c,Surrey,County,Former,,,,,,,,,,,,,,,,,,
b02c6a11-65f5-4317-9fbd-33634b381f91,b02c6a11-65f5-4317-9fbd-33634b381f91,Surrey,County,Former,,,,,,,,,,,,,,,,,,
b0fb7a21-487c-457b-b91a-751b379eb671,b0fb7a21-487c-457b-b91a-751b379eb671,,,,Alternate,,,,37,Jewry Street,,,,,,,,,,,,
b16d8645-d61d-4176-aa53-15ba2d79d24a,b16d8645-d61d-4176-aa53-15ba2d79d24a,Surrey,County,Former,,,,,,,,,,,,,,,,,,
b20ad42a-aff9-43aa-9faa-3db624dd9dde,b20ad42a-aff9-43aa-9faa-3db624dd9dde,,,,Alternate,,,,19-25,Bury Street,,,,,,,,,,,,
b2107df9-6552-4219-bd93-92e477c06651,b2107df9-6552-4219-bd93-92e477c06651,,,,Alternate,,,,,Stag Lane,,,,,,,,,,,,
b2108262-c5d0-4618-9fbb-9902f490e74c,b2108262-c5d0-4618-9fbb-9902f490e74c,Harrow,Borough,Current,,,,,,,,,,,,,,,,,,
b21730a8-0b54-46c8-b28b-8b3180a47ade,b21730a8-0b54-46c8-b28b-8b3180a47ade,,,,Alternate,,,,14-16,North Tenter Street,,,,,,,,,,,,
b24c3a9a-3ace-494b-a9c0-ee355a284fc1,b24c3a9a-3ace-494b-a9c0-ee355a284fc1,,,,Alternate,,,,3-15,New Inn Yard,,,,,,,,,,,,
b2b349c3-d3bf-4d84-afda-5450d779bf98,b2b349c3-d3bf-4d84-afda-5450d779bf98,,,,Alternate,,,,1-3,Great James Street,,,,,,,,,,,,
b2dfbd9c-24b6-4912-86fa-e70e571476db,b2dfbd9c-24b6-4912-86fa-e70e571476db,,,,Alternate,Staple Hall,,,1-17,Devonshire Row,,,EC3,,,,,,,,,
b337bdd9-cf5b-4b21-9870-32bcf0fad6b8,b337bdd9-cf5b-4b21-9870-32bcf0fad6b8,,,,Alternate,,,,29-39,Goswell Road,,,,,,,,,,,,
b3763a5f-448c-437c-b524-a4989f2d618d,b3763a5f-448c-437c-b524-a4989f2d618d,Tower Hamlets,Borough,Current,,,,,,,,,,,,,,,,,,
b38ed9bf-a62d-4adf-a7e1-ea3e66acbe22,b38ed9bf-a62d-4adf-a7e1-ea3e66acbe22,,,,Alternate,,,,6,Palace Court,,,W2,,,,,,,,,
b3df9399-2b38-4787-8203-2b1ba36d910f,b3df9399-2b38-4787-8203-2b1ba36d910f,,,,Alternate,,,,2-24,Parker Street,,,,,,,,,,,,
b3e1fc54-2948-46cd-bc88-3bcd7a251e89,b3e1fc54-2948-46cd-bc88-3bcd7a251e89,Surrey,County,Former,,,,,,,,,,,,,,,,,,
b405d08b-931e-4a44-895b-128ecc2302da,b405d08b-931e-4a44-895b-128ecc2302da,,,,Alternate,,,,4,Budge Row,,,,,,,,,,,,
b44ebf07-c111-4b91-8f65-3976c745ca5c,b44ebf07-c111-4b91-8f65-3976c745ca5c,,,,Alternate,,,,,Cathedral Street,,,,,,,,,,,,
b456e1d1-ef2a-428e-a169-d6b29d9f8247,b456e1d1-ef2a-428e-a169-d6b29d9f8247,,,,Alternate,,,,5,Friar Street,,,,,,,,,,,,
b46bd445-2697-4637-bc06-abd74ea91ad5,b46bd445-2697-4637-bc06-abd74ea91ad5,,,,Alternate,,,,2-3,Welbeck Way,,,,,,,,,,,,
b4bf074a-49b7-4f99-88f7-ff7c6c1aa716,b4bf074a-49b7-4f99-88f7-ff7c6c1aa716,,,,Alternate,,,,59-64,Brick Lane,,,,,,,,,,,,
b5247429-d2c8-4be6-90ad-51bafb9a45bb,b5247429-d2c8-4be6-90ad-51bafb9a45bb,Southwark,Borough,Current,,,,,,,,,,,,,,,,,,
b528d42b-6d33-42b6-bf27-239c99d0aa72,b528d42b-6d33-42b6-bf27-239c99d0aa72,Havering,Borough,Current,,,,,,,,,,,,,,,,,,
b5c223e4-f859-450f-aa1f-26f8545f12e1,b5c223e4-f859-450f-aa1f-26f8545f12e1,,,,Alternate,,,,19-25,Bury Street,,,,,,,,,,,,
b66abe07-cba6-4715-936e-a3d639f84fef,b66abe07-cba6-4715-936e-a3d639f84fef,,,,Alternate,Princes House,,,93-95,Gresham Street,,,,,,,,,,,,
b6761345-ef7f-485c-a1a7-40d697b25655,b6761345-ef7f-485c-a1a7-40d697b25655,,,,Alternate,,,,69,Carter Lane,,,,,,,,,,,,
b682d044-f0af-42ca-a02c-16aeebc6663b,b682d044-f0af-42ca-a02c-16aeebc6663b,,,,Alternate,,,,8-19,St Mary at Hill,,,,,,,,,,,,
b692f8d5-b04f-4d76-be70-edcbd928c5dc,b692f8d5-b04f-4d76-be70-edcbd928c5dc,Surrey,County,Former,,,,,,,,,,,,,,,,,,
b6b1fe34-1adc-49af-aa8e-9505ddc32d79,b6b1fe34-1adc-49af-aa8e-9505ddc32d79,,,,Alternate,Wallace's Cottage,,,,New Park Road,,,,,,,,,,,,
b6c0bd62-9f61-47b3-aed9-513792c3829b,b6c0bd62-9f61-47b3-aed9-513792c3829b,,,,Alternate,,,,111-120,Whitechapel High Street,,,,,,,,,,,,
b716ecda-8d68-4ada-8f6a-e123391f8c53,b716ecda-8d68-4ada-8f6a-e123391f8c53,,,,Alternate,,,,121-127,Lower Thames Street,,,,,,,,,,,,
b71edff7-de02-4fd6-a2bd-901d9bdf5602,b71edff7-de02-4fd6-a2bd-901d9bdf5602,,,,Alternate,,,,61-65,Crutched Friars,,,,,,,,,,,,
b72001c1-624d-4ed9-a7cf-6d9f2363be2e,b72001c1-624d-4ed9-a7cf-6d9f2363be2e,Middlesex,County,Former,,,,,,,,,,,,,,,,,,
b72cf300-f0ac-4330-9673-059b0d6c7e6c,b72cf300-f0ac-4330-9673-059b0d6c7e6c,Islington,Borough,Current,,,,,,,,,,,,,,,,,,
b7758507-6223-4ced-abe8-8858cff3024d,b7758507-6223-4ced-abe8-8858cff3024d,,,,Alternate,,,,,Starch House Lane,,,,,,,,,,,,
b77dd507-5a47-4230-82ee-4e9f1699b42b,b77dd507-5a47-4230-82ee-4e9f1699b42b,Middlesex,County,Former,,,,,,,,,,,,,,,,,,
b78df601-9b19-49b1-8c5d-15d46988c60a,b78df601-9b19-49b1-8c5d-15d46988c60a,,,,Alternate,,,,4,Great Percy Street,,,,,,,,,,,,
b7b8c449-c372-4800-aed5-6e9a9ff685c1,b7b8c449-c372-4800-aed5-6e9a9ff685c1,,,,Alternate,,,,328,City Road,,,,,,,,,,,,
b818f5f0-91f5-4f31-a29d-ff72a5b067e9,b818f5f0-91f5-4f31-a29d-ff72a5b067e9,Surrey,County,Former,,,,,,,,,,,,,,,,,,
b8688375-9b0b-42d0-b0b7-d34a191ee0b1,b8688375-9b0b-42d0-b0b7-d34a191ee0b1,Surrey,County,Former,,,,,,,,,,,,,,,,,,
b8ea3059-bcc5-4052-a549-fa8f291f010e,b8ea3059-bcc5-4052-a549-fa8f291f010e,Sutton,Borough,Current,,,,,,,,,,,,,,,,,,
b912a39d-a5be-4e83-aeaf-8f47eac0d2e5,b912a39d-a5be-4e83-aeaf-8f47eac0d2e5,Surrey,County,Former,,,,,,,,,,,,,,,,,,
b914bf9a-8735-4f01-b9d5-f4235a1d8eb9,b914bf9a-8735-4f01-b9d5-f4235a1d8eb9,Essex,County,Former,,,,,,,,,,,,,,,,,,
b931a819-7350-4f5a-8f1f-523449085ab5,b931a819-7350-4f5a-8f1f-523449085ab5,City of Westminster,Borough,Current,,,,,,,,,,,,,,,,,,
b963799a-b095-4e07-8516-d5f2fa324706,b963799a-b095-4e07-8516-d5f2fa324706,Surrey,County,Former,,,,,,,,,,,,,,,,,,
b986c2b6-7f0d-4a5e-bd3e-54eac4a9138c,b986c2b6-7f0d-4a5e-bd3e-54eac4a9138c,,,,Alternate,,,,47,Wates Way,,,,,,,,,,,,
b9ac2d98-5d02-40f0-be76-2627b356169a,b9ac2d98-5d02-40f0-be76-2627b356169a,,,,Alternate,,,,,Radcliffe Road,,,,,,,,,,,,
b9c38767-1f6c-444a-85e9-07e8667726de,b9c38767-1f6c-444a-85e9-07e8667726de,,,,Alternate,,,,1-7,Green Dragon Court,,,,,,,,,,,,
b9ff20f3-4e0a-4194-9d34-3835e6b6a65d,b9ff20f3-4e0a-4194-9d34-3835e6b6a65d,Middlesex,County,Former,,,,,,,,,,,,,,,,,,
ba23011c-89f0-44c8-b119-db344a1f4339,ba23011c-89f0-44c8-b119-db344a1f4339,,,,Alternate,,,,22-26,Wood Street,,,,,,,,,,,,
ba2b9cb7-789b-41eb-a488-b438c7ef2d7f,ba2b9cb7-789b-41eb-a488-b438c7ef2d7f,,,,Alternate,,,,39-47,Curtain Road,,,,,,,,,,,,
ba71469f-4efa-4675-a002-c2955562b9e1,ba71469f-4efa-4675-a002-c2955562b9e1,,,,Alternate,,,,63-64,New Broad Street,,,,,,,,,,,,
ba919f30-aa74-4f87-9bd5-b3892779bdb4,ba919f30-aa74-4f87-9bd5-b3892779bdb4,,,,Alternate,,,,,Carter Lane,,,,,,,,,,,,
bad68608-de13-4064-859c-abf20e721417,bad68608-de13-4064-859c-abf20e721417,,,,Alternate,,,,,South Wharf Road,,,,,,,,,,,,
badb8db0-a4f4-460c-88f6-dd106001ef6a,badb8db0-a4f4-460c-88f6-dd106001ef6a,,,,Alternate,,,,1-2,Brook's Mews,,,,,,,,,,,,
bae372ef-90ec-4d24-9372-5bfd9d4b5b91,bae372ef-90ec-4d24-9372-5bfd9d4b5b91,,,,Alternate,,,,18,London Street,,,,,,,,,,,,
bbc55b4a-e655-4fcf-8ff3-f40f40e0400a,bbc55b4a-e655-4fcf-8ff3-f40f40e0400a,Essex,County,Former,,,,,,,,,,,,,,,,,,
bbe0121c-2b12-4fcc-b72f-88ebc2076705,bbe0121c-2b12-4fcc-b72f-88ebc2076705,,,,Alternate,,,,39-40,Panton Street,,,,,,,,,,,,
bc075b46-4479-4b5e-8e90-ea1caa035bbe,bc075b46-4479-4b5e-8e90-ea1caa035bbe,,,,Alternate,Bishopsgate House,,,106-126,Bishopsgate,,,,,,,,,,,,
bc27cbe5-8f15-4a15-95de-8c638ae5e5d6,bc27cbe5-8f15-4a15-95de-8c638ae5e5d6,,,,Alternate,,,,,The Parkway (A312),,,,,,,,,,,,
bc8a1563-436b-49a9-b157-0d108c23d514,bc8a1563-436b-49a9-b157-0d108c23d514,,,,Alternate,,,,91-100,Gracechurch Street,,,,,,,,,,,,
bccc7785-b9fb-4e1f-a609-ba5855533504,bccc7785-b9fb-4e1f-a609-ba5855533504,,,,Alternate,,,,1-4,Monument Street,,,,,,,,,,,,
bcd46dab-30b2-45e1-b399-b83d0ff7c1e8,bcd46dab-30b2-45e1-b399-b83d0ff7c1e8,,,,Alternate,,,,15-17,Arthur Street,,,,,,,,,,,,
bce7aafb-c855-4970-8bc3-3c5dc32c265a,bce7aafb-c855-4970-8bc3-3c5dc32c265a,,,,Alternate,,,,7-9,Pilgrim Street,,,,,,,,,,,,
bd822009-1d38-4089-b649-2cd641f295b5,bd822009-1d38-4089-b649-2cd641f295b5,,,,Alternate,,,,2,Sewell Street,,,,,,,,,,,,
bd92e8fc-3ad6-4786-8272-b0d7f6e97542,bd92e8fc-3ad6-4786-8272-b0d7f6e97542,,,,Alternate,St Martin of Tours Church,,,,Church Road,,,BR6 7SN,,,,,,,,,
bdb09b84-5f65-49f4-be36-8b8b23914235,bdb09b84-5f65-49f4-be36-8b8b23914235,,,,Alternate,,,,,Bermondsey Street,,,,,,,,,,,,
bdd7e5d8-cd90-4710-8e55-9f1e19cbbec5,bdd7e5d8-cd90-4710-8e55-9f1e19cbbec5,,,,Alternate,,,,16,Garrick Street,,,,,,,,,,,,
be168280-0327-4073-a3e4-3c9c13a9df62,be168280-0327-4073-a3e4-3c9c13a9df62,Surrey,County,Former,,,,,,,,,,,,,,,,,,
be246f51-ac15-423b-86b2-94bf2edbecf4,be246f51-ac15-423b-86b2-94bf2edbecf4,,,,Alternate,,,,8,Ludgate Broadway,,,,,,,,,,,,
be412336-c3dd-4a88-864c-3ac16c43ab10,be412336-c3dd-4a88-864c-3ac16c43ab10,,,,Alternate,,,,718-728,Old Kent Road,,,,,,,,,,,,
be551386-1f01-4dc3-b0b6-5ce8b1637fe7,be551386-1f01-4dc3-b0b6-5ce8b1637fe7,,,,Alternate,,,,1-3,Tottenham Green East,,,,,,,,,,,,
beaeceb9-d430-4b9c-b6f8-bc64443a7d8d,beaeceb9-d430-4b9c-b6f8-bc64443a7d8d,Southwark,Borough,Current,,,,,,,,,,,,,,,,,,
bee915ca-9b4d-4299-a363-91a4bc50bca5,bee915ca-9b4d-4299-a363-91a4bc50bca5,,,,Alternate,,,,44-48,Bow Lane,,,,,,,,,,,,
beec3af5-1304-4923-a80d-148b5ec3a20c,beec3af5-1304-4923-a80d-148b5ec3a20c,,,,Alternate,,,,,Winchester Walk,,,,,,,,,,,,
bf02cb7e-73ff-4de8-b9ae-6ecc854d1837,bf02cb7e-73ff-4de8-b9ae-6ecc854d1837,,,,Alternate,,,,11,Lower Coombe Street,,,,,,,,,,,,
bf26e267-cf88-4ac6-9e6c-41f61ac8116f,bf26e267-cf88-4ac6-9e6c-41f61ac8116f,,,,Alternate,,,,25,New Street Square,,,,,,,,,,,,
bf619a82-4fa3-4ae3-a400-16866319ce01,bf619a82-4fa3-4ae3-a400-16866319ce01,,,,Alternate,,,,2,Pear Place,,,,,,,,,,,,
bf9b679e-c355-4525-ba98-0b8d38e05e97,bf9b679e-c355-4525-ba98-0b8d38e05e97,Surrey,County,Former,,,,,,,,,,,,,,,,,,
bfd27908-1783-43ef-b1e3-379d0f3f5f1f,bfd27908-1783-43ef-b1e3-379d0f3f5f1f,,,,Alternate,,,,73-81,Goswell Road,,,,,,,,,,,,
bfd52d49-3303-412d-ab3f-33089da94460,bfd52d49-3303-412d-ab3f-33089da94460,,,,Alternate,,,,4-5,Peter Street,,,,,,,,,,,,
c027165c-3151-4c81-bad0-d845ec17daca,c027165c-3151-4c81-bad0-d845ec17daca,Essex,County,Former,,,,,,,,,,,,,,,,,,
c090b758-151e-4d16-afca-72fa57e03f8b,c090b758-151e-4d16-afca-72fa57e03f8b,,,,Alternate,,,,12-18,Artillery Lane,,,,,,,,,,,,
c0ecb5ae-ea48-404c-aa68-eda52ddfef4f,c0ecb5ae-ea48-404c-aa68-eda52ddfef4f,,,,Alternate,,,,21,Park Street,,,,,,,,,,,,
c103f9aa-1d17-4e19-86f7-39c0cec4ada9,c103f9aa-1d17-4e19-86f7-39c0cec4ada9,Tower Hamlets,Borough,Current,,,,,,,,,,,,,,,,,,
c13f98e2-940e-4733-bf33-8ad117bb8909,c13f98e2-940e-4733-bf33-8ad117bb8909,,,,Alternate,,,,1-4,Cock Hill,,,,,,,,,,,,
c1cc9ae3-80b4-4bf2-90ba-4a65047893fe,c1cc9ae3-80b4-4bf2-90ba-4a65047893fe,,,,Alternate,,,,19-41,Earlham Street,,,,,,,,,,,,
c22a3949-2763-4da4-96f7-0ec0c1d24bdb,c22a3949-2763-4da4-96f7-0ec0c1d24bdb,,,,Alternate,,,,,Cambridge Heath Road,,,,,,,,,,,,
c2b3967b-bc4e-4ab3-ac24-cbcebda743d0,c2b3967b-bc4e-4ab3-ac24-cbcebda743d0,Lewisham,Borough,Current,,,,,,,,,,,,,,,,,,
c2f5db49-22bb-4285-b7bc-e466ce31dcb7,c2f5db49-22bb-4285-b7bc-e466ce31dcb7,,,,Alternate,,,,,Long Lane,,,,,,,,,,,,
c30787bd-b6c0-4c75-9ba5-b09b32937580,c30787bd-b6c0-4c75-9ba5-b09b32937580,,,,Alternate,,,,21,King William Walk,,,,,,,,,,,,
c376c5e9-1081-4eb4-b8c0-c29b9d872b7e,c376c5e9-1081-4eb4-b8c0-c29b9d872b7e,Middlesex,County,Former,,,,,,,,,,,,,,,,,,
c38c75b7-4a29-4c46-bfd7-cbb7391ea768,c38c75b7-4a29-4c46-bfd7-cbb7391ea768,,,,Alternate,,,,5-11,Tudor Street,,,,,,,,,,,,
c3da0bfd-d8fe-4efc-a98b-bb32c1f2dcbc,c3da0bfd-d8fe-4efc-a98b-bb32c1f2dcbc,,,,Alternate,,,,,Trumpers Way,,,,,,,,,,,,
c424c9ca-6a27-4614-9947-3699c60f4ae9,c424c9ca-6a27-4614-9947-3699c60f4ae9,,,,Alternate,,,,1,Kingsway,,,,,,,,,,,,
c44ff7d4-2609-419c-a523-64c70997b3ef,c44ff7d4-2609-419c-a523-64c70997b3ef,,,,Alternate,,,,6-8,Spring Gardens,,,,,,,,,,,,
c4857b04-644d-4e5a-af40-6c8fe467209a,c4857b04-644d-4e5a-af40-6c8fe467209a,,,,Alternate,,,,,Upper Thames Street,,,,,,,,,,,,
c4bca3e8-7063-4838-8ca3-ce96e84d5ee3,c4bca3e8-7063-4838-8ca3-ce96e84d5ee3,Harrow,Borough,Current,,,,,,,,,,,,,,,,,,
c4da3881-70dd-40c7-a132-9e5c78de3092,c4da3881-70dd-40c7-a132-9e5c78de3092,,,,Alternate,,,,7-15,New Inn Yard,,,,,,,,,,,,
c4da5234-81ea-45da-a1f3-ea5ecd6f434c,c4da5234-81ea-45da-a1f3-ea5ecd6f434c,,,,Alternate,,,,59-64,Brick Lane,,,,,,,,,,,,
c5825fb8-db58-4aa5-9673-f3765f25d295,c5825fb8-db58-4aa5-9673-f3765f25d295,Surrey,County,Former,,,,,,,,,,,,,,,,,,
c5cb2934-ef28-49a0-9ace-d8111ea59843,c5cb2934-ef28-49a0-9ace-d8111ea59843,Surrey,County,Former,,,,,,,,,,,,,,,,,,
c611cabe-85f9-4301-a850-59f79366ac17,c611cabe-85f9-4301-a850-59f79366ac17,Waltham Forest,Borough,Current,,,,,,,,,,,,,,,,,,
c6492c78-031b-46f3-b89f-ceb9163940a8,c6492c78-031b-46f3-b89f-ceb9163940a8,,,,Alternate,,,,15-17,King Street,,,,,,,,,,,,
c6b762c9-feaa-4cdb-a5ec-966c2595171c,c6b762c9-feaa-4cdb-a5ec-966c2595171c,Surrey,County,Former,,,,,,,,,,,,,,,,,,
c720ccd1-d951-47c0-a1f6-9125df9850c1,c720ccd1-d951-47c0-a1f6-9125df9850c1,,,,Alternate,,,,1-3,Castle Court,,,,,,,,,,,,
c726bb0d-4120-4a87-a5c6-f49ed6fb2b21,c726bb0d-4120-4a87-a5c6-f49ed6fb2b21,,,,Alternate,,,,,Tooley Street,,,,,,,,,,,,
c7f7f931-666d-4ac5-ac8e-28a34b8cafa0,c7f7f931-666d-4ac5-ac8e-28a34b8cafa0,,,,Alternate,,,,11-12,Foster Lane,,,,,,,,,,,,
c8384b48-dbb7-44bb-b4bc-0fd655227b81,c8384b48-dbb7-44bb-b4bc-0fd655227b81,,,,Alternate,Cleansing Depot,,,,Dufour's Place,,,W1F 7SJ,,,,,,,,,
c8904ac8-e0b2-4497-b904-0d6a69c38188,c8904ac8-e0b2-4497-b904-0d6a69c38188,Richmond upon Thames,Borough,Current,,,,,,,,,,,,,,,,,,
c8af0602-8980-4d7b-9966-c7da2453721d,c8af0602-8980-4d7b-9966-c7da2453721d,,,,Alternate,,,,,Pensbury Street,,,,,,,,,,,,
c8c16ef3-1964-4bb8-90b6-3084a77f07ab,c8c16ef3-1964-4bb8-90b6-3084a77f07ab,Surrey,County,Former,,,,,,,,,,,,,,,,,,
c8cfeca3-b4e2-4a69-b535-6c532b697b2f,c8cfeca3-b4e2-4a69-b535-6c532b697b2f,,,,Alternate,,,,26-34,Betterton Street,,,,,,,,,,,,
c8d16bd0-9248-458f-bfde-3ce2cf407d24,c8d16bd0-9248-458f-bfde-3ce2cf407d24,,,,Alternate,,,,,Bread Street,,,,,,,,,,,,
c8f64638-ce6e-40aa-a189-3c7970e63bfa,c8f64638-ce6e-40aa-a189-3c7970e63bfa,,,,Alternate,,,,,Thrale Street,,,,,,,,,,,,
c95c443d-3e67-427a-b034-e5a091d5d2b3,c95c443d-3e67-427a-b034-e5a091d5d2b3,Middlesex,County,Former,,,,,,,,,,,,,,,,,,
c960da78-c266-4ff7-a93f-6cef0b330866,c960da78-c266-4ff7-a93f-6cef0b330866,,,,Alternate,,,,,Acre Lane,,,,,,,,,,,,
c980334a-0c72-49fa-a635-2d8f0d1a5a0c,c980334a-0c72-49fa-a635-2d8f0d1a5a0c,,,,Alternate,,,,,Radcliffe Road,,,,,,,,,,,,
c9a33aff-644b-444a-9c09-e9a498eeb9ce,c9a33aff-644b-444a-9c09-e9a498eeb9ce,,,,Alternate,,,,74,Union Street,,,,,,,,,,,,
c9b80ac4-b84e-4daa-ae4a-f406be8d81ec,c9b80ac4-b84e-4daa-ae4a-f406be8d81ec,,,,Alternate,,,,298-306,Bishopsgate,,,,,,,,,,,,
c9cb56ba-a3fa-43dc-851e-e74b9dbfec4f,c9cb56ba-a3fa-43dc-851e-e74b9dbfec4f,Surrey,County,Former,,,,,,,,,,,,,,,,,,
c9d5db82-782d-46f8-9b42-c937a0dc25de,c9d5db82-782d-46f8-9b42-c937a0dc25de,,,,Alternate,,,,8,Cloth Court,,,,,,,,,,,,
ca40be48-dae5-45ae-a33a-18e77fb48af0,ca40be48-dae5-45ae-a33a-18e77fb48af0,Middlesex,County,Former,,,,,,,,,,,,,,,,,,
ca9103e0-0925-4c49-af87-e8c942bf7b9c,ca9103e0-0925-4c49-af87-e8c942bf7b9c,Surrey,County,Former,,,,,,,,,,,,,,,,,,
caed5138-051b-4111-9f72-e506abdd920f,caed5138-051b-4111-9f72-e506abdd920f,,,,Alternate,,,,13,Took's Court,,,,,,,,,,,,
cb460ce3-e10a-4386-bf0b-e8022d4da50d,cb460ce3-e10a-4386-bf0b-e8022d4da50d,Surrey,County,Former,,,,,,,,,,,,,,,,,,
cbe02936-b55e-44ca-a7cc-6d395c0e32c4,cbe02936-b55e-44ca-a7cc-6d395c0e32c4,Surrey,County,Former,,,,,,,,,,,,,,,,,,
cbed3ac5-68e3-4bd6-9bf8-b7e8f719f787,cbed3ac5-68e3-4bd6-9bf8-b7e8f719f787,Essex,County,Former,,,,,,,,,,,,,,,,,,
cc6a3350-b438-4a99-96f1-d2924db61781,cc6a3350-b438-4a99-96f1-d2924db61781,Surrey,County,Former,,,,,,,,,,,,,,,,,,
cc8cb5a7-7a38-4621-bf4d-2ba57699c382,cc8cb5a7-7a38-4621-bf4d-2ba57699c382,Havering,Borough,Current,,,,,,,,,,,,,,,,,,
cca742ed-296a-4711-ac3e-cfc6d26fe9c7,cca742ed-296a-4711-ac3e-cfc6d26fe9c7,,,,Alternate,,,,33-36,Lombard Street,,,,,,,,,,,,
ccc4dfc4-c548-444e-a741-5e8d752bf504,ccc4dfc4-c548-444e-a741-5e8d752bf504,,,,Alternate,,,,,Hollingsworth Road,,,,,,,,,,,,
cd16e4d5-dfac-4453-9598-cb7768b7458a,cd16e4d5-dfac-4453-9598-cb7768b7458a,City of Westminster,Borough,Current,,,,,,,,,,,,,,,,,,
cd222785-5e53-4c9f-ab8b-93f66e0c73c5,cd222785-5e53-4c9f-ab8b-93f66e0c73c5,,,,Alternate,,,,4-8,Arthur Street,,,,,,,,,,,,
cd516b77-68e6-4766-8894-829da02a0e40,cd516b77-68e6-4766-8894-829da02a0e40,,,,Alternate,,,,72,Gracechurch Street,,,,,,,,,,,,
cdc500b8-7eb7-4a5f-9bf5-782b952c2d32,cdc500b8-7eb7-4a5f-9bf5-782b952c2d32,Surrey,County,Former,,,,,,,,,,,,,,,,,,
cdcfa310-68c1-4370-b004-de46d100a862,cdcfa310-68c1-4370-b004-de46d100a862,Middlesex,County,Former,,,,,,,,,,,,,,,,,,
ce3307bd-1b3e-4ece-9408-c3e6d91cdf78,ce3307bd-1b3e-4ece-9408-c3e6d91cdf78,Surrey,County,Former,,,,,,,,,,,,,,,,,,
ce3e0c45-027c-48f7-863e-5161ef5d3114,ce3e0c45-027c-48f7-863e-5161ef5d3114,,,,Alternate,,,,3-15,New Inn Yard,,,,,,,,,,,,
cf108e8d-50ca-46c5-9de4-9c08fc65fb23,cf108e8d-50ca-46c5-9de4-9c08fc65fb23,,,,Alternate,,,,14-16,Ulster Place,,,,,,,,,,,,
cf4c0a6f-3cc3-426f-9931-f77e1dc4acf0,cf4c0a6f-3cc3-426f-9931-f77e1dc4acf0,Middlesex,County,Former,,,,,,,,,,,,,,,,,,
cf97eee5-4397-4d3f-99a6-33fa6f135dee,cf97eee5-4397-4d3f-99a6-33fa6f135dee,Surrey,County,Former,,,,,,,,,,,,,,,,,,
cfce8e26-eabe-4a9c-94f5-c4c10b48f154,cfce8e26-eabe-4a9c-94f5-c4c10b48f154,,,,Alternate,,,,1-5,Coombe Road,,,,,,,,,,,,
cfead7be-5024-406b-b139-95e964601776,cfead7be-5024-406b-b139-95e964601776,,,,Alternate,,,,,Duke Hill,,,,,,,,,,,,
cfeef0c5-49a3-405c-a052-d60625c6ba94,cfeef0c5-49a3-405c-a052-d60625c6ba94,,,,Alternate,,,,19,Tokenhouse Yard,,,,,,,,,,,,
d000dc81-d2f3-49a2-aa07-30aca0169faf,d000dc81-d2f3-49a2-aa07-30aca0169faf,Essex,County,Former,,,,,,,,,,,,,,,,,,
d02e6f62-88c5-40d3-a487-0831ac2b16ca,d02e6f62-88c5-40d3-a487-0831ac2b16ca,Middlesex,County,Former,,,,,,,,,,,,,,,,,,
d02fbc83-45cc-4b28-919d-1078da1cef31,d02fbc83-45cc-4b28-919d-1078da1cef31,,,,Alternate,,,,18-31,Eldon Street,,,,,,,,,,,,
d04509ee-7a3b-4ab6-853e-e5e0a9d507df,d04509ee-7a3b-4ab6-853e-e5e0a9d507df,,,,Alternate,,,,130,Wood Street,,,,,,,,,,,,
d06efafd-cd91-41eb-bfa0-8cf0ac38ac9d,d06efafd-cd91-41eb-bfa0-8cf0ac38ac9d,Surrey,County,Former,,,,,,,,,,,,,,,,,,
d0c3e105-ab16-4878-8911-e794c2921c42,d0c3e105-ab16-4878-8911-e794c2921c42,,,,Alternate,,,,15-17,King Street,,,,,,,,,,,,
d0c7fc13-9242-4b4b-98dd-f668dbc0832a,d0c7fc13-9242-4b4b-98dd-f668dbc0832a,,,,Alternate,,,,95,Leonard Street,,,,,,,,,,,,
d0cbb30a-969f-48d6-aa02-9fa915b90832,d0cbb30a-969f-48d6-aa02-9fa915b90832,Essex,County,Former,,,,,,,,,,,,,,,,,,
d0d867b1-0fe0-448c-8c5a-28d0997510e7,d0d867b1-0fe0-448c-8c5a-28d0997510e7,Tower Hamlets,Borough,Current,,,,,,,,,,,,,,,,,,
d181e03e-5573-4cc5-9256-ba342ddba416,d181e03e-5573-4cc5-9256-ba342ddba416,Southwark,Borough,Current,,,,,,,,,,,,,,,,,,
d1989b4d-72ef-4544-ace0-039f409a667d,d1989b4d-72ef-4544-ace0-039f409a667d,,,,Alternate,,,,14-18,Gresham Street,,,,,,,,,,,,
d1ddcbff-cba4-4d63-bc8a-8ead9212ee47,d1ddcbff-cba4-4d63-bc8a-8ead9212ee47,Middlesex,County,Former,,,,,,,,,,,,,,,,,,
d21a430e-d52f-4058-887a-dbfec02ba23d,d21a430e-d52f-4058-887a-dbfec02ba23d,,,,Alternate,,,,285,Streatham High Road,,,,,,,,,,,,
d2a0b064-a62b-4a42-bb3c-42da1fb05f6b,d2a0b064-a62b-4a42-bb3c-42da1fb05f6b,Harrow,Borough,Current,,,,,,,,,,,,,,,,,,
d2b521a9-498e-4139-a1ad-3207a0059b8d,d2b521a9-498e-4139-a1ad-3207a0059b8d,Middlesex,County,Former,,,,,,,,,,,,,,,,,,
d2dddf5b-1c04-4677-a100-c353f4bdb44c,d2dddf5b-1c04-4677-a100-c353f4bdb44c,,,,Alternate,,,,6-10,Lexington Street,,,,,,,,,,,,
d32aa10b-318b-400d-acde-f336cfd46b6b,d32aa10b-318b-400d-acde-f336cfd46b6b,,,,Alternate,,,,15,Creed Lane,,,,,,,,,,,,
d34ae77e-a804-4b25-b629-607e31166b68,d34ae77e-a804-4b25-b629-607e31166b68,Middlesex,County,Former,,,,,,,,,,,,,,,,,,
d3f4ae70-2dbc-4d4d-8543-583dc84c95bd,d3f4ae70-2dbc-4d4d-8543-583dc84c95bd,Surrey,County,Former,,,,,,,,,,,,,,,,,,
d4af5cf6-429c-4af0-9f47-afb504c61c0c,d4af5cf6-429c-4af0-9f47-afb504c61c0c,City of Westminster,Borough,Current,,,,,,,,,,,,,,,,,,
d4e5989c-219a-4f37-a8b0-c1f1d3fb9cc1,d4e5989c-219a-4f37-a8b0-c1f1d3fb9cc1,Harrow,Borough,Current,,,,,,,,,,,,,,,,,,
d5660559-59c5-4b4e-afdd-2b8a562b0a6b,d5660559-59c5-4b4e-afdd-2b8a562b0a6b,Essex,County,Former,,,,,,,,,,,,,,,,,,
d56c4e9a-a17b-4e2c-a5df-11b7760d8a81,d56c4e9a-a17b-4e2c-a5df-11b7760d8a81,,,,Alternate,,,,26-34,Betterton Street,,,,,,,,,,,,
d5a97bb3-794c-4ab8-9fc7-eebac51e9de2,d5a97bb3-794c-4ab8-9fc7-eebac51e9de2,Surrey,County,Former,,,,,,,,,,,,,,,,,,
d5e61a11-b4f0-417c-8562-71ae6ee0e222,d5e61a11-b4f0-417c-8562-71ae6ee0e222,Southwark,Borough,Current,,,,,,,,,,,,,,,,,,
d62fd954-b36f-4a43-af7d-420da42c3e84,d62fd954-b36f-4a43-af7d-420da42c3e84,Surrey,County,Former,,,,,,,,,,,,,,,,,,
d63dd4e1-7cc2-415b-9b4d-dbdb6d345419,d63dd4e1-7cc2-415b-9b4d-dbdb6d345419,,,,Alternate,,,,66-67,Upper Thames Street,,,,,,,,,,,,
d666b6ce-4bc9-4aa2-82bc-8f870b5771ce,d666b6ce-4bc9-4aa2-82bc-8f870b5771ce,,,,Alternate,,,,66-67,Upper Thames Street,,,,,,,,,,,,
d70f4aa5-1084-41b6-b696-d1a3012c5e72,d70f4aa5-1084-41b6-b696-d1a3012c5e72,,,,Alternate,,,,6-9,Briset Street,,,,,,,,,,,,
d7212570-a7a5-4eb4-adab-286975d5007f,d7212570-a7a5-4eb4-adab-286975d5007f,Surrey,County,Former,,,,,,,,,,,,,,,,,,
d7683462-8279-482f-a5e2-8905ae40b0d3,d7683462-8279-482f-a5e2-8905ae40b0d3,,,,Alternate,,,,118-120,Southwark Street,,,,,,,,,,,,
d7f6e555-f066-49ee-99ff-8452904e98af,d7f6e555-f066-49ee-99ff-8452904e98af,,,,Alternate,,,,160-162,Packington Street,,,,,,,,,,,,
d7fef420-96a5-4ddb-ab9e-a8545b473c2f,d7fef420-96a5-4ddb-ab9e-a8545b473c2f,,,,Alternate,Fitzalan House,,,,,,,,,,,,,,,,
d8684907-d4df-40be-8a24-73b7fd412d60,d8684907-d4df-40be-8a24-73b7fd412d60,Harrow,Borough,Current,,,,,,,,,,,,,,,,,,
d872549a-8662-4209-b4ba-cabfad48292c,d872549a-8662-4209-b4ba-cabfad48292c,Essex,County,Former,,,,,,,,,,,,,,,,,,
d90187c8-40b3-4782-909b-3d856170b648,d90187c8-40b3-4782-909b-3d856170b648,,,,Alternate,,,,34-38,Southampton Street,,,,,,,,,,,,
d973d41f-ebd7-42be-acc9-e85381041baf,d973d41f-ebd7-42be-acc9-e85381041baf,,,,Alternate,,,,24-25,Buckle Street,,,,,,,,,,,,
d9dce7be-b024-4e46-847c-97a0f35cf144,d9dce7be-b024-4e46-847c-97a0f35cf144,,,,Alternate,,,,,Brushfield Street,,,,,,,,,,,,
d9edbbe3-e15f-4784-9f17-aaf1a2f6390c,d9edbbe3-e15f-4784-9f17-aaf1a2f6390c,,,,Alternate,,,,,Priory Road,Upton,,,,,,,,,,,
da8938fe-0dff-459f-9b9b-76e22122777e,da8938fe-0dff-459f-9b9b-76e22122777e,,,,Alternate,,,,"2-3, 4",Fareham Street,,,,,,,,,,,,
da938ba1-0628-4316-9a9a-7541cd223596,da938ba1-0628-4316-9a9a-7541cd223596,,,,Alternate,,,,168-170,Fenchurch Street,,,,,,,,,,,,
daf60e0a-7d1b-4a7f-86a1-7b9b6efa1f6c,daf60e0a-7d1b-4a7f-86a1-7b9b6efa1f6c,,,,Alternate,,,,33-36,Lombard Street,,,,,,,,,,,,
db00a116-5d52-4df3-835b-dce0b862d186,db00a116-5d52-4df3-835b-dce0b862d186,,,,Alternate,,,,19-28,Featherstone Street,,,,,,,,,,,,
db125414-69fd-4e94-b272-986f0dc7da82,db125414-69fd-4e94-b272-986f0dc7da82,,,,Alternate,,,,,Withens Close,,,,,,,,,,,,
db8a9832-c157-4935-9a23-1f94a6008863,db8a9832-c157-4935-9a23-1f94a6008863,,,,Alternate,,,,29-31,Park Street,,,,,,,,,,,,
dc34117c-2538-4013-96a8-d7a657e88b54,dc34117c-2538-4013-96a8-d7a657e88b54,Kensington and Chelsea,Borough,Current,,,,,,,,,,,,,,,,,,
dd317cc2-72c3-47e5-a134-69dfe4ab7f45,dd317cc2-72c3-47e5-a134-69dfe4ab7f45,,,,Alternate,,,,12A,Duke of York Street,,,,,,,,,,,,
dd6a802c-7923-4a0c-b354-2bd5d25ef877,dd6a802c-7923-4a0c-b354-2bd5d25ef877,,,,Alternate,,,,10-14,Mason's Avenue,,,,,,,,,,,,
ddb2445f-ef06-4e7d-aeff-b7bf50e195fe,ddb2445f-ef06-4e7d-aeff-b7bf50e195fe,Surrey,County,Former,,,,,,,,,,,,,,,,,,
ddbbe82a-9a9e-416e-bd08-92e8f86c8f10,ddbbe82a-9a9e-416e-bd08-92e8f86c8f10,Essex,County,Former,,,,,,,,,,,,,,,,,,
de905ed2-2eb7-4654-846c-59c27754f842,de905ed2-2eb7-4654-846c-59c27754f842,Redbridge,Borough,Current,,,,,,,,,,,,,,,,,,
de90b934-c6de-42de-b263-5a160af213d3,de90b934-c6de-42de-b263-5a160af213d3,,,,Alternate,,,,,Turnpin Lane,,,,,,,,,,,,
deabd326-7914-49f1-a438-84b635f72133,deabd326-7914-49f1-a438-84b635f72133,,,,Alternate,,,,,High Street,,,,,,,,,,,,
deb152f1-5c8e-4516-8757-32bf949c2b86,deb152f1-5c8e-4516-8757-32bf949c2b86,Essex,County,Current,,,,,,,,,,,,,,,,,,
def12f7b-ddb1-4bc8-9ae4-3f6bad0b4acf,def12f7b-ddb1-4bc8-9ae4-3f6bad0b4acf,,,,Alternate,,,,69,Carter Lane,,,,,,,,,,,,
df0043d3-0220-4167-911b-e063b9cf4580,df0043d3-0220-4167-911b-e063b9cf4580,Essex,County,Former,,,,,,,,,,,,,,,,,,
dfc6f599-910d-4cb2-9c48-d9010f67adb3,dfc6f599-910d-4cb2-9c48-d9010f67adb3,Middlesex,County,Former,,,,,,,,,,,,,,,,,,
dfd0a59c-fe9e-40f5-8f56-6e42b75be7e4,dfd0a59c-fe9e-40f5-8f56-6e42b75be7e4,,,,Alternate,,,,65,Bayham Place,,,,,,,,,,,,
e02bd8ba-47f0-4640-84cb-b3938283a167,e02bd8ba-47f0-4640-84cb-b3938283a167,,,,Alternate,,,,46-50,Tufton Street,,,,,,,,,,,,
e03cf3de-34ba-4eec-8655-914f68da9967,e03cf3de-34ba-4eec-8655-914f68da9967,,,,Alternate,,,,,Sumner Street,,,,,,,,,,,,
e0410084-96d8-4cb1-8708-668dbc3cbbc6,e0410084-96d8-4cb1-8708-668dbc3cbbc6,,,,Alternate,,,,16-17,Plough Street,,,,,,,,,,,,
e19c1f32-1855-4e0c-b5b5-f5d2c32e9ad6,e19c1f32-1855-4e0c-b5b5-f5d2c32e9ad6,,,,Alternate,,,,87-88,Farringdon Street,,,,,,,,,,,,
e1b8c07f-e421-419c-908b-426fa36f20ea,e1b8c07f-e421-419c-908b-426fa36f20ea,,,,Alternate,,,,23,Rood Lane,,,,,,,,,,,,
e1b9364e-0294-4dd6-9b1d-17982faf1191,e1b9364e-0294-4dd6-9b1d-17982faf1191,,,,Alternate,,,,,Morgan's Lane,,,,,,,,,,,,
e1cb98d3-9020-4aad-916c-b9e2b556cc51,e1cb98d3-9020-4aad-916c-b9e2b556cc51,,,,Alternate,,,,12-13,St John's Square,,,,,,,,,,,,
e209af30-d2d7-4ba9-9c8d-b0cf8238e509,e209af30-d2d7-4ba9-9c8d-b0cf8238e509,,,,Alternate,,,,29-30,Queen Street,,,,,,,,,,,,
e22ae127-b5a8-415a-bb0a-0dad29be67b3,e22ae127-b5a8-415a-bb0a-0dad29be67b3,,,,Alternate,,,,18-23,Curzon Street,,,,,,,,,,,,
e253f3f6-905a-49f5-a4dd-d43509d5ba3e,e253f3f6-905a-49f5-a4dd-d43509d5ba3e,,,,Alternate,,,,53,Cornhill Street,,,,,,,,,,,,
e274eaac-f486-47fe-87eb-fa1ac4a83fb2,e274eaac-f486-47fe-87eb-fa1ac4a83fb2,,,,Alternate,,,,5-7,Singer Street,,,,,,,,,,,,
e27984da-ad12-4fa7-8e25-73f3f054bbe6,e27984da-ad12-4fa7-8e25-73f3f054bbe6,,,,Alternate,,,,,Arundel Street,,,,,,,,,,,,
e279be9a-3f86-43ed-8f41-894de502a687,e279be9a-3f86-43ed-8f41-894de502a687,,,,Alternate,,,,3-4,Kings Arms Yard,,,,,,,,,,,,
e2e23767-55ad-4226-a3f3-1690bd01f2e3,e2e23767-55ad-4226-a3f3-1690bd01f2e3,,,,Alternate,,,,718-728,Old Kent Road,,,,,,,,,,,,
e330bfdc-5654-4852-a37d-6488d9403bf2,e330bfdc-5654-4852-a37d-6488d9403bf2,,,,Alternate,,,,7-9,Rathbone Place,,,,,,,,,,,,
e3667b07-9a68-46aa-98ea-5c2daebb0172,e3667b07-9a68-46aa-98ea-5c2daebb0172,,,,Alternate,,,,,Rush Green Road,,,,,,,,,,,,
e37c01cf-4490-417d-ac93-9184fdf5a2b1,e37c01cf-4490-417d-ac93-9184fdf5a2b1,,,,Alternate,,,,66-67,Upper Thames Street,,,,,,,,,,,,
e3b82fb6-515f-404b-b063-3a18c10d4c39,e3b82fb6-515f-404b-b063-3a18c10d4c39,,,,Alternate,,,,1-5,Queen Street,,,,,,,,,,,,
e3d664de-5144-4ada-b934-cefcaaadca0a,e3d664de-5144-4ada-b934-cefcaaadca0a,Tower Hamlets,Borough,Current,,,,,,,,,,,,,,,,,,
e41ad520-32ba-43ce-9228-4d9838b985d4,e41ad520-32ba-43ce-9228-4d9838b985d4,Surrey,County,Former,,,,,,,,,,,,,,,,,,
e47ca28f-53c4-4152-9084-1fb535c2a7bf,e47ca28f-53c4-4152-9084-1fb535c2a7bf,Kent,County,Former,,,,,,,,,,,,,,,,,,
e47e003a-cc27-45e2-babc-7040b8f07827,e47e003a-cc27-45e2-babc-7040b8f07827,,,,Alternate,,,,20-26,Cutler's Street,,,,,,,,,,,,
e48427d5-6dc0-4ab0-9bca-af8654d621c0,e48427d5-6dc0-4ab0-9bca-af8654d621c0,,,,Alternate,,,,"22, 24-28",Tavistock Street,,,,,,,,,,,,
e4933d2f-5700-4b66-a022-21b4de2e13c2,e4933d2f-5700-4b66-a022-21b4de2e13c2,,,,Alternate,,,,14,Ironmonger Lane,,,,,,,,,,,,
e4a1490b-ec48-48d6-9073-7d2f221be573,e4a1490b-ec48-48d6-9073-7d2f221be573,,,,Alternate,,,,1-2,Bear Gardens,,,,,,,,,,,,
e4a8a822-743f-405b-8892-4eabfae9a7fe,e4a8a822-743f-405b-8892-4eabfae9a7fe,Middlesex,County,Former,,,,,,,,,,,,,,,,,,
e4ac1329-97f0-4219-8e3c-aba65bab58bb,e4ac1329-97f0-4219-8e3c-aba65bab58bb,,,,Alternate,,,,,King William Walk,,,,,,,,,,,,
e4ed29cb-2867-4b92-ad8f-c5ce177951dd,e4ed29cb-2867-4b92-ad8f-c5ce177951dd,,,,Alternate,Crest House,,,,Carter Lane,,,,,,,,,,,,
e51be386-b8a5-40e6-a1ec-8959b1e0ead6,e51be386-b8a5-40e6-a1ec-8959b1e0ead6,Middlesex,County,Former,,,,,,,,,,,,,,,,,,
e52d6178-7319-4192-a786-77acccd8dacb,e52d6178-7319-4192-a786-77acccd8dacb,,,,Alternate,,,,4-10,St Alphage Highwalk,,,,,,,,,,,,
e538fb03-d9f0-4735-9ada-d06ffef536d5,e538fb03-d9f0-4735-9ada-d06ffef536d5,,,,Alternate,,,,,Tooley Street,,,,,,,,,,,,
e542eb0c-bd7e-4608-9ce3-e6066e5bb350,e542eb0c-bd7e-4608-9ce3-e6066e5bb350,Middlesex,County,Former,,,,,,,,,,,,,,,,,,
e5541539-3599-4755-86ae-f1aecd6c0ea6,e5541539-3599-4755-86ae-f1aecd6c0ea6,,,,Alternate,,,,156-158,Gray's Inn Road,,,,,,,,,,,,
e55b2e81-0cdb-403d-a315-f6762ee65af6,e55b2e81-0cdb-403d-a315-f6762ee65af6,,,,Alternate,,,,11-16,Telegraph Street,,,,,,,,,,,,
e56e3bcf-e244-4edd-bc09-d7ecc655ff9a,e56e3bcf-e244-4edd-bc09-d7ecc655ff9a,Middlesex,County,Former,,,,,,,,,,,,,,,,,,
e571a7e1-f6e8-4aee-a4be-bf54b41090af,e571a7e1-f6e8-4aee-a4be-bf54b41090af,Essex,County,Former,,,,,,,,,,,,,,,,,,
e5996371-1078-4828-bd49-fee6e389b53d,e5996371-1078-4828-bd49-fee6e389b53d,,,,Alternate,,,,5-12,New London Street,,,,,,,,,,,,
e6332a88-dc57-432c-b9bd-5349fda8df31,e6332a88-dc57-432c-b9bd-5349fda8df31,Middlesex,County,Former,,,,,,,,,,,,,,,,,,
e660832a-24d5-47c7-be6b-16d9ca92bf0f,e660832a-24d5-47c7-be6b-16d9ca92bf0f,,,,Alternate,,,,,Earnshaw Street,,,,,,,,,,,,
e6787cd8-f86c-44f7-b5d8-386f276f2e19,e6787cd8-f86c-44f7-b5d8-386f276f2e19,,,,Alternate,,,,1-2,Pudding Lane,,,,,,,,,,,,
e69d4c66-8d93-49e8-859e-a0c1f900fc1f,e69d4c66-8d93-49e8-859e-a0c1f900fc1f,,,,Alternate,,,,,Farleigh Road,,,,,,,,,,,,
e7a184fe-6c2d-4a08-b627-99a35dbd22c1,e7a184fe-6c2d-4a08-b627-99a35dbd22c1,Middlesex,County,Former,,,,,,,,,,,,,,,,,,
e7d6f22b-75dc-417e-9b4f-c11b4f998b14,e7d6f22b-75dc-417e-9b4f-c11b4f998b14,,,,Alternate,,,,4-10,Dock Street,,,,,,,,,,,,
e800405a-9457-4c96-9435-13a50d22a1d8,e800405a-9457-4c96-9435-13a50d22a1d8,,,,Alternate,,,,8,Stoney Street,,,,,,,,,,,,
e83a9db4-6cfe-4c27-9603-273215071f34,e83a9db4-6cfe-4c27-9603-273215071f34,,,,Alternate,,,,,Fore Street,,,,,,,,,,,,
e858f7b7-b9ca-4159-ae7a-b26cbf658c47,e858f7b7-b9ca-4159-ae7a-b26cbf658c47,,,,Alternate,,,,,Foster Lane,,,,,,,,,,,,
e8668e2f-a507-4471-80bf-57f481dfcbe4,e8668e2f-a507-4471-80bf-57f481dfcbe4,,,,Alternate,,,,37-41,Mark Lane,,,,,,,,,,,,
e87fdb90-f8b5-496b-924b-08be68c856c6,e87fdb90-f8b5-496b-924b-08be68c856c6,,,,Alternate,,,,59,Mansell Street,,,,,,,,,,,,
e892aa7d-9050-4344-8e59-fdf4f65d9957,e892aa7d-9050-4344-8e59-fdf4f65d9957,,,,Alternate,,,,26-34,Betterton Street,,,,,,,,,,,,
e8f87ffc-cf08-47d7-85ab-288e75119764,e8f87ffc-cf08-47d7-85ab-288e75119764,,,,Alternate,,,,1-17,Old Broad Street,,,,,,,,,,,,
e9266273-9b14-4b69-88c2-436e78158325,e9266273-9b14-4b69-88c2-436e78158325,Middlesex,County,Former,,,,,,,,,,,,,,,,,,
e97c889e-5b76-43f4-8c38-953d24467de4,e97c889e-5b76-43f4-8c38-953d24467de4,Middlesex,County,Former,,,,,,,,,,,,,,,,,,
e9922c86-fe13-41dd-99ad-8f8f0f27c035,e9922c86-fe13-41dd-99ad-8f8f0f27c035,,,,Alternate,Arnold House,,,4-6,Breams Buildings,,,,,,,,,,,,
e9dff830-405c-4ce1-8265-97d45c373504,e9dff830-405c-4ce1-8265-97d45c373504,,,,Alternate,,,,25,Southampton Buildings,,,,,,,,,,,,
ea375073-4976-4939-a89d-fc8dd7c058be,ea375073-4976-4939-a89d-fc8dd7c058be,,,,Alternate,,,,12-20,Swallow Street,,,,,,,,,,,,
ea64bfda-eadf-45f0-b1b5-a594fd26912b,ea64bfda-eadf-45f0-b1b5-a594fd26912b,Surrey,County,Former,,,,,,,,,,,,,,,,,,
ea8d93a1-0356-486e-a2ef-7677e136b3d8,ea8d93a1-0356-486e-a2ef-7677e136b3d8,,,,Alternate,,,,30-38,Hosier Lane,,,,,,,,,,,,
eaba377e-154e-4545-9950-bf22111d8f87,eaba377e-154e-4545-9950-bf22111d8f87,,,,Alternate,,,,,Muswell Hill Road,,,,,,,,,,,,
ead5f901-6626-4b97-90af-5fe65b0c149b,ead5f901-6626-4b97-90af-5fe65b0c149b,,,,Alternate,,,,29-31,Greville Street,,,,,,,,,,,,
eae14ca5-6b2e-4502-a512-51dd780f96a0,eae14ca5-6b2e-4502-a512-51dd780f96a0,,,,Alternate,,,,,The Mall,,,,,,,,,,,,
eaf468e4-dc0f-4c15-97cc-cec7574cabb9,eaf468e4-dc0f-4c15-97cc-cec7574cabb9,,,,Alternate,,,,14-16,Philpot Lane,,,,,,,,,,,,
eb1d7a3c-44cf-47fc-b42e-0d43601f266c,eb1d7a3c-44cf-47fc-b42e-0d43601f266c,Surrey,County,Former,,,,,,,,,,,,,,,,,,
eb2ed5f3-2e4b-4c1b-866f-9ea4409e9ce4,eb2ed5f3-2e4b-4c1b-866f-9ea4409e9ce4,Middlesex,County,Former,,,,,,,,,,,,,,,,,,
eb335c09-6e11-4e76-b4df-4f7406a8d90a,eb335c09-6e11-4e76-b4df-4f7406a8d90a,,,,Alternate,,,,12-13,St John's Square,,,,,,,,,,,,
ec2cc19b-4c46-40f2-8131-e317b1e6be2e,ec2cc19b-4c46-40f2-8131-e317b1e6be2e,,,,Alternate,,,,,Haddon Road,,,,,,,,,,,,
ec80273c-6736-44e2-8053-027c7876b2e4,ec80273c-6736-44e2-8053-027c7876b2e4,,,,Alternate,,,,3-4,Kings Arms Yard,,,,,,,,,,,,
eca20ec1-0839-412a-bfff-da4d12af62d0,eca20ec1-0839-412a-bfff-da4d12af62d0,,,,Alternate,,,,,Whitehall Place,,,,,,,,,,,,
ecc16579-246d-42fd-94db-4a5e6d07f01f,ecc16579-246d-42fd-94db-4a5e6d07f01f,,,,Alternate,,,,,Great Guildford Street,,,,,,,,,,,,
eced41c6-101e-40b1-9935-9fe4faaf1de1,eced41c6-101e-40b1-9935-9fe4faaf1de1,,,,Alternate,,,,6,Exchange Court,,,,,,,,,,,,
ed1ffc53-782a-45cd-85cb-2e4002b73f63,ed1ffc53-782a-45cd-85cb-2e4002b73f63,,,,Alternate,Oxleas Memorial Hospital,,,,Shooters Hill,,,SE18 3RG,,,,,,,,,
ed5ff285-e29b-4650-a07b-48b28169d61e,ed5ff285-e29b-4650-a07b-48b28169d61e,,,,Alternate,,,,43,Farringdon Street,,,,,,,,,,,,
ed761c72-928e-4270-8d16-d9acc8d95397,ed761c72-928e-4270-8d16-d9acc8d95397,Middlesex,County,Former,,,,,,,,,,,,,,,,,,
ed8882d2-f7b7-4448-8670-a6d8041b236d,ed8882d2-f7b7-4448-8670-a6d8041b236d,,,,Alternate,,,,1-15,Essex Road,,,,,,,,,,,,
ed91db4e-2a10-410a-9ea0-6ce69ef83242,ed91db4e-2a10-410a-9ea0-6ce69ef83242,,,,Alternate,,,,62-67,Long Lane,,,,,,,,,,,,
edd41bbf-0b6f-4802-918d-19035115dd27,edd41bbf-0b6f-4802-918d-19035115dd27,Harrow,Borough,Current,,,,,,,,,,,,,,,,,,
ee5022c8-6fcc-463e-919f-edb6f471fa43,ee5022c8-6fcc-463e-919f-edb6f471fa43,,,,Alternate,,,,,Judge Heath Lane,,,,,,,,,,,,
ee8c9eb9-9803-4367-b3e0-5255c8a32d73,ee8c9eb9-9803-4367-b3e0-5255c8a32d73,,,,Alternate,,,,25,Southampton Buildings,,,,,,,,,,,,
eea5f032-1e8f-4a86-bc07-f1dd01973f76,eea5f032-1e8f-4a86-bc07-f1dd01973f76,Essex,County,Former,,,,,,,,,,,,,,,,,,
eea86689-a451-4d86-8fdd-6ab421ec2626,eea86689-a451-4d86-8fdd-6ab421ec2626,,,,Alternate,,,,430,Whalebone Lane North,,,,,,,,,,,,
eece385a-e3c9-441e-9fb0-b416ea90ec53,eece385a-e3c9-441e-9fb0-b416ea90ec53,Harrow,Borough,Current,,,,,,,,,,,,,,,,,,
ef410c7f-d01f-44ee-a2ff-71ae258ffd1b,ef410c7f-d01f-44ee-a2ff-71ae258ffd1b,,,,Alternate,,,,6,Vine Street,,,,,,,,,,,,
ef6fa093-9813-4cf2-b102-091a11b4e136,ef6fa093-9813-4cf2-b102-091a11b4e136,,,,Alternate,,,,1,Hainault Road,,,,,,,,,,,,
ef9453b6-937c-4681-9a69-a1b883f83ffc,ef9453b6-937c-4681-9a69-a1b883f83ffc,Tower Hamlets,Borough,Current,,,,,,,,,,,,,,,,,,
ef9bca36-ed96-4de6-a500-bef05fe44d17,ef9bca36-ed96-4de6-a500-bef05fe44d17,Surrey,County,Former,,,,,,,,,,,,,,,,,,
eff21ebe-5bcb-4592-b85d-6544fba43570,eff21ebe-5bcb-4592-b85d-6544fba43570,,,,Alternate,,,,4,Billiter Street,,,,,,,,,,,,
f095e2be-1765-4d94-a74f-0611b744d370,f095e2be-1765-4d94-a74f-0611b744d370,,,,Alternate,,,,"16-17, 21",Bride Lane,,,,,,,,,,,,
f0a404d2-4872-48fb-a18d-cf2ec7d249bb,f0a404d2-4872-48fb-a18d-cf2ec7d249bb,,,,Alternate,Juxon House/Warwick Court,,,,Ave Maria Lane,,,,,,,,,,,,
f0ac8e94-cbd2-41bf-b333-4f9a9f61d07a,f0ac8e94-cbd2-41bf-b333-4f9a9f61d07a,,,,Alternate,,,,113-117,Cannon Street,,,,,,,,,,,,
f0af7eac-5fac-48b8-a4cb-8e94f38ea1c7,f0af7eac-5fac-48b8-a4cb-8e94f38ea1c7,,,,Alternate,,,,2,London Bridge Street,,,,,,,,,,,,
f0cdf139-b9ff-4e37-ae4f-1d4cc2326c67,f0cdf139-b9ff-4e37-ae4f-1d4cc2326c67,,,,Alternate,,,,17-25,New Inn Yard,,,,,,,,,,,,
f10007b0-7be7-47ac-b16e-a2d7bb02c278,f10007b0-7be7-47ac-b16e-a2d7bb02c278,Lambeth,Borough,Current,,,,,,,,,,,,,,,,,,
f13b20f4-1168-48d8-bcf2-f672581b4e38,f13b20f4-1168-48d8-bcf2-f672581b4e38,,,,Alternate,,,,26-30,Holborn Viaduct,,,EC1,,,,,,,,,
f18de416-ea33-4f83-9b59-0c3222319077,f18de416-ea33-4f83-9b59-0c3222319077,,,,Alternate,,,,,Stoney Street,,,,,,,,,,,,
f19a18c2-6703-4961-83c2-86f8a2ad0756,f19a18c2-6703-4961-83c2-86f8a2ad0756,,,,Alternate,,,,154-156,Upper Thames Street,,,,,,,,,,,,
f1b9c8d6-f9cd-40e2-b7df-da7174556caf,f1b9c8d6-f9cd-40e2-b7df-da7174556caf,,,,Alternate,,,,22-29,Hosier Lane,,,,,,,,,,,,
f1ebe1a0-85da-44fe-baf9-f7b87fd958f6,f1ebe1a0-85da-44fe-baf9-f7b87fd958f6,,,,Alternate,,,,,Disney Place,,,,,,,,,,,,
f26135e8-814d-40f5-acd5-f2fd1b42c418,f26135e8-814d-40f5-acd5-f2fd1b42c418,Harrow,Borough,Current,,,,,,,,,,,,,,,,,,
f2b6cc23-2d56-4d8e-b267-dd31c66b06cc,f2b6cc23-2d56-4d8e-b267-dd31c66b06cc,,,,Alternate,,,,67-71,Kingsland Road,,,,,,,,,,,,
f2be7c86-f008-4e61-b569-f8f60621941c,f2be7c86-f008-4e61-b569-f8f60621941c,Middlesex,County,Former,,,,,,,,,,,,,,,,,,
f2c59b9f-744b-4bc2-89aa-bc8e85fc0c51,f2c59b9f-744b-4bc2-89aa-bc8e85fc0c51,Middlesex,County,Former,,,,,,,,,,,,,,,,,,
f2d3c68a-896d-41d3-a38c-93d033aea68b,f2d3c68a-896d-41d3-a38c-93d033aea68b,,,,Alternate,,,,1-6,St Mary Axe,,,,,,,,,,,,
f2e52df0-b14f-47f0-bcfa-875070c2bc54,f2e52df0-b14f-47f0-bcfa-875070c2bc54,,,,Alternate,,,,151,Vauxhall Street,,,,,,,,,,,,
f43cd92f-513f-41a6-8f35-f056c00a28d3,f43cd92f-513f-41a6-8f35-f056c00a28d3,,,,Alternate,,,,,Field Lane,,,,,,,,,,,,
f4578cdc-ff81-493b-8fac-21cdc2a1e4d9,f4578cdc-ff81-493b-8fac-21cdc2a1e4d9,,,,Alternate,,,,1,Philpot Lane,,,,,,,,,,,,
f4f6c50a-1b44-4313-a208-16a6c0d350d1,f4f6c50a-1b44-4313-a208-16a6c0d350d1,Middlesex,County,Former,,,,,,,,,,,,,,,,,,
f5465012-fd04-4f2c-b863-fc2b37f79ab2,f5465012-fd04-4f2c-b863-fc2b37f79ab2,,,,Alternate,,,,37-39,St Mary-at-Hill,,,,,,,,,,,,
f5a37a22-6345-4deb-b2b7-37c6a039ff4f,f5a37a22-6345-4deb-b2b7-37c6a039ff4f,,,,Alternate,,,,,Christchurch Way,,,,,,,,,,,,
f5ab7d42-312f-43c9-b1da-f1b74670d0dc,f5ab7d42-312f-43c9-b1da-f1b74670d0dc,,,,Alternate,,,,66-70,St Mary Axe,,,,,,,,,,,,
f5d1e459-f6c1-4524-8722-979a3c2cac4d,f5d1e459-f6c1-4524-8722-979a3c2cac4d,Essex,County,Former,,,,,,,,,,,,,,,,,,
f61c4165-26ab-45bc-b211-a6a98a2a8440,f61c4165-26ab-45bc-b211-a6a98a2a8440,,,,Alternate,,,,224,High Street,,,,,,,,,,,,
f62ddf0b-e76e-4fa7-95b5-4ff2db2eb966,f62ddf0b-e76e-4fa7-95b5-4ff2db2eb966,,,,Alternate,,,,4-9,Wood Street,,,,,,,,,,,,
f62e6815-ef2e-4ab6-b086-170937a2423e,f62e6815-ef2e-4ab6-b086-170937a2423e,Surrey,County,Former,,,,,,,,,,,,,,,,,,
f63363af-e435-45b6-9222-03c734ef6b3a,f63363af-e435-45b6-9222-03c734ef6b3a,Middlesex,County,Former,,,,,,,,,,,,,,,,,,
f6531fa0-99e0-498e-9d9a-f16a9707f9a4,f6531fa0-99e0-498e-9d9a-f16a9707f9a4,,,,Alternate,,,,28A,Chapel Street,,,,,,,,,,,,
f6c0fb9f-c3bc-4a0f-b268-9d3f0c0cf8dd,f6c0fb9f-c3bc-4a0f-b268-9d3f0c0cf8dd,Surrey,County,Former,,,,,,,,,,,,,,,,,,
f6dea3a9-e5f4-45db-bc1c-008f4491346e,f6dea3a9-e5f4-45db-bc1c-008f4491346e,,,,Alternate,,,,44-46,Scotland Green,,,,,,,,,,,,
f6e5d154-ad12-413a-8f36-034e46629846,f6e5d154-ad12-413a-8f36-034e46629846,,,,Alternate,,,,19-21/22-24a,Greens End,,,,,,,,,,,,
f6e74405-433e-4bc8-bc67-7736dc72f0cb,f6e74405-433e-4bc8-bc67-7736dc72f0cb,,,,Alternate,,,,118-120,Southwark Street,,,,,,,,,,,,
f71db518-3688-4e63-8097-f80595841bc5,f71db518-3688-4e63-8097-f80595841bc5,,,,Alternate,,,,6-9,Briset Street,,,,,,,,,,,,
f764ddc5-e86e-4569-8c7d-5d9163a40484,f764ddc5-e86e-4569-8c7d-5d9163a40484,Surrey,County,Former,,,,,,,,,,,,,,,,,,
f76dd316-7afd-4abd-9a20-f87e998fce4b,f76dd316-7afd-4abd-9a20-f87e998fce4b,,,,Alternate,,,,21,Austin Friars,,,,,,,,,,,,
f7c666fc-7be5-4a06-89d4-16e9416d2d0c,f7c666fc-7be5-4a06-89d4-16e9416d2d0c,Middlesex,County,Former,,,,,,,,,,,,,,,,,,
f7ecc6c8-ce9d-4fac-b944-6aca15ce5966,f7ecc6c8-ce9d-4fac-b944-6aca15ce5966,,,,Alternate,,,,87-88,Farringdon Street,,,,,,,,,,,,
f7f2475f-b048-4f48-8502-58e068659757,f7f2475f-b048-4f48-8502-58e068659757,,,,Alternate,,,,39-49,Leadenhall Street,,,,,,,,,,,,
f7ffa98b-b030-4387-bcdb-2bc122acfcef,f7ffa98b-b030-4387-bcdb-2bc122acfcef,,,,Alternate,,,,78-84,Lower Thames Street,,,,,,,,,,,,
f840aa21-a60c-4b63-8dc0-ad2ab646f31b,f840aa21-a60c-4b63-8dc0-ad2ab646f31b,,,,Alternate,,,,9,Pancras Lane,,,,,,,,,,,,
f8a39fd5-73d0-414d-85b0-22c1d43f1891,f8a39fd5-73d0-414d-85b0-22c1d43f1891,Surrey,County,Former,,,,,,,,,,,,,,,,,,
f8f9eb3a-6e60-4c7c-a84e-7b6b560b8fc5,f8f9eb3a-6e60-4c7c-a84e-7b6b560b8fc5,,,,Alternate,Director General Public House,,,,Wellington Street,,,,,,,,,,,,
f91ad918-34c8-4fec-9f90-bc83f37ffafa,f91ad918-34c8-4fec-9f90-bc83f37ffafa,,,,Alternate,,,,,Lamb Street,,,,,,,,,,,,
f93304f7-5fd6-448b-97ce-f6dbec99a9a0,f93304f7-5fd6-448b-97ce-f6dbec99a9a0,,,,Alternate,,,,11-16,Telegraph Street,,,,,,,,,,,,
f968bde0-6282-4cb3-bcf1-6ff8636fab99,f968bde0-6282-4cb3-bcf1-6ff8636fab99,,,,Alternate,,,,1-4,The Oval,,,,,,,,,,,,
fa142fc4-70e5-4115-b551-75805c9063db,fa142fc4-70e5-4115-b551-75805c9063db,,,,Alternate,,,,33,Coronet Road,,,,,,,,,,,,
fa1b3c5e-8518-4b94-900d-51754422dc13,fa1b3c5e-8518-4b94-900d-51754422dc13,Southwark,Borough,Current,,,,,,,,,,,,,,,,,,
fa27379e-c574-409a-adba-381d7199c615,fa27379e-c574-409a-adba-381d7199c615,,,,Alternate,,,,5-7,Bushell Street,,,,,,,,,,,,
fa2c29f2-d814-466a-a991-06bca2ce4635,fa2c29f2-d814-466a-a991-06bca2ce4635,Essex,County,Former,,,,,,,,,,,,,,,,,,
faadb803-a5eb-4a6d-95f6-cd394517c077,faadb803-a5eb-4a6d-95f6-cd394517c077,,,,Alternate,,,,,New Road,,,,,,,,,,,,
fab0ade2-a715-4586-90fb-e6e0466f1ea7,fab0ade2-a715-4586-90fb-e6e0466f1ea7,,,,Alternate,,,,12-21,Hoxton Street,,,,,,,,,,,,
facda435-1352-4c93-a581-062fdc3bcf78,facda435-1352-4c93-a581-062fdc3bcf78,,,,Alternate,,,,17,Saffron Hill,,,,,,,,,,,,
fb59b3a9-e39e-4d9e-9e6e-a7da58cd0395,fb59b3a9-e39e-4d9e-9e6e-a7da58cd0395,,,,Alternate,,,,72-74,Coleman Street,,,,,,,,,,,,
fbc62539-432b-4cc7-9148-0eb29aa845a4,fbc62539-432b-4cc7-9148-0eb29aa845a4,,,,Alternate,,,,10-18,Bishop's Court,,,,,,,,,,,,
fbd116db-74f4-4233-92fa-e130f8fa37dd,fbd116db-74f4-4233-92fa-e130f8fa37dd,,,,Alternate,,,,4,Ardwell Road,,,,,,,,,,,,
fc05ac72-96a2-466a-b1c3-5a8bfd1ecbbe,fc05ac72-96a2-466a-b1c3-5a8bfd1ecbbe,,,,Alternate,,,,,St Benet's Place,,,,,,,,,,,,
fc1599a5-adbc-4f85-bcaf-4a2e3af3148b,fc1599a5-adbc-4f85-bcaf-4a2e3af3148b,,,,Alternate,,,,14-15,Philpot Lane,,,,,,,,,,,,
fc1a8d40-db75-4342-9868-8ca18c31893d,fc1a8d40-db75-4342-9868-8ca18c31893d,,,,Alternate,,,,,Hollingsworth Road,,,,,,,,,,,,
fc6d2fb3-e4f0-4eb7-be5e-6ff62372a544,fc6d2fb3-e4f0-4eb7-be5e-6ff62372a544,,,,Alternate,,,,26-28,London Road,,,,,,,,,,,,
fc6d9cf7-9655-4729-9421-12dfb10b5f98,fc6d9cf7-9655-4729-9421-12dfb10b5f98,,,,Alternate,,,,282-294,Bishopsgate,,,,,,,,,,,,
fca25245-7981-4ba1-90c3-deb42045ff04,fca25245-7981-4ba1-90c3-deb42045ff04,,,,Alternate,,,,,Water Lane,,,,,,,,,,,,
fcb00b5d-baa9-4c82-9368-d3aa4a88a1e6,fcb00b5d-baa9-4c82-9368-d3aa4a88a1e6,,,,Alternate,,,,,Bridge Street,,,,,,,,,,,,
fce6b592-e950-4c3f-a3f3-31b224cc72f3,fce6b592-e950-4c3f-a3f3-31b224cc72f3,,,,Alternate,,,,4-6,Leyden Street,,,,,,,,,,,,
fcf6d237-ebf9-4a6e-bc18-9f75df916727,fcf6d237-ebf9-4a6e-bc18-9f75df916727,Middlesex,County,Former,,,,,,,,,,,,,,,,,,
fd023a5b-9e8c-4061-8d4e-94fc4f97cf64,fd023a5b-9e8c-4061-8d4e-94fc4f97cf64,,,,Alternate,,,,,Atterbury Street,,,,,,,,,,,,
fd1e1530-5410-4590-8749-6908f6cfae46,fd1e1530-5410-4590-8749-6908f6cfae46,,,,Alternate,,,,,Patmos Road,,,,,,,,,,,,
fd21a351-323e-47bb-aa3d-8314d82d3552,fd21a351-323e-47bb-aa3d-8314d82d3552,,,,Alternate,,,,"16-17, 21",Bride Lane,,,,,,,,,,,,
fd2715d5-1eb4-4267-afee-437e77a961d2,fd2715d5-1eb4-4267-afee-437e77a961d2,Islington,Borough,Current,,,,,,,,,,,,,,,,,,
fd5014bd-bc55-4fd0-b362-d83755112b08,fd5014bd-bc55-4fd0-b362-d83755112b08,,,,Alternate,,,,,Ship and Half Moon Passage,,,,,,,,,,,,
fd53fcd1-f95b-4a02-a041-9cbc573bf63a,fd53fcd1-f95b-4a02-a041-9cbc573bf63a,,,,Alternate,,,,,Enid Road,,,,,,,,,,,,
fd6e9ac8-8ca7-4a69-b582-b43c543f8bac,fd6e9ac8-8ca7-4a69-b582-b43c543f8bac,Middlesex,County,Former,,,,,,,,,,,,,,,,,,
fd7e6eca-4cd3-4379-ac91-056180d70a19,fd7e6eca-4cd3-4379-ac91-056180d70a19,Middlesex,County,Former,,,,,,,,,,,,,,,,,,
fdd9f6a8-0823-42de-b77e-0596cd834e24,fdd9f6a8-0823-42de-b77e-0596cd834e24,,,,Alternate,,,,423,New King's Road,,,,,,,,,,,,
fe3fa5cb-6382-47ea-97e5-901aa9f0ad60,fe3fa5cb-6382-47ea-97e5-901aa9f0ad60,,,,Alternate,,,,1,Fenchurch Buildings,,,,,,,,,,,,
ff65428a-bed8-4924-89ac-5d0b225c2934,ff65428a-bed8-4924-89ac-5d0b225c2934,Kent,County,Former,,,,,,,,,,,,,,,,,,
ff928851-76e4-4c12-8bdd-b39f9850a8f8,ff928851-76e4-4c12-8bdd-b39f9850a8f8,,,,Alternate,,,,8-11b,Ship Tavern Passage,,,,,,,,,,,,
ff9a1a73-d0d3-4c7d-8f38-7ec3ad934bd1,ff9a1a73-d0d3-4c7d-8f38-7ec3ad934bd1,,,,Alternate,,,,,Fenner Close,,,,,,,,,,,,
ffaf6cab-5b10-4ab4-a431-9b190cae43e5,ffaf6cab-5b10-4ab4-a431-9b190cae43e5,,,,Alternate,,,,34-36,Duke Street,,,,,,,,,,,,
ffdd25ed-72c9-4787-a167-68cb3ad620f4,ffdd25ed-72c9-4787-a167-68cb3ad620f4,,,,Alternate,,,,,Pastor Street,,,,,,,,,,,,
ffde62a7-e089-4bad-9402-c3ff9472a56b,ffde62a7-e089-4bad-9402-c3ff9472a56b,Surrey,County,Former,,,,,,,,,,,,,,,,,,
ffe447d3-ef55-4820-819f-2336e3a572b7,ffe447d3-ef55-4820-819f-2336e3a572b7,,,,Alternate,,,,,Staner Street,,,,,,,,,,,,
