ResourceID,Full Address,Address Status,Address Currency,Building Name,Building Number Sub-Street,Sub-Street,Building Number,Street,Locality,Town or City,County,Country,Postcode
00934532-3683-4282-b609-24b392ec7530,"Jackson House, 86  Sandyhill Lane, Ipswich, Suffolk, IP3 0NA",Primary,,Jackson House,,,86,Sandyhill Lane,,Ipswich,Suffolk,,IP3 0NA
009b376c-7bab-4643-bf66-8c5b5a9f46aa,"18  Holborn, London, EC1N 2LE",Primary,,,,,18,Holborn,,London,,,EC1N 2LE
00dd4cac-0399-4386-b2ba-8e58ecc36a01,"2b Glensdale Road, Brockley, London, SE4 1UE",Primary,,,,,2b,Glensdale Road,Brockley,London,,,SE4 1UE
0101f7e4-25d9-46ff-9269-3c5d9bcd34d5,"Grosvenor House, 69  London Road, Redhill, Surrey,  RH1 1LQ",Primary,,Grosvenor House,,,69,London Road,,Redhill,Surrey,, RH1 1LQ
017c9583-7e38-47ca-b775-bfc88ca1acc1,"3  Manchester Square, London, W1U 3PB",Primary,,,,,3,Manchester Square,,London,,,W1U 3PB
0190cb2c-269d-43c0-b90f-6afa87d5cb08,"Costain House, Vanwall Business Park, Maidenhead, Berkshire, SL6 4UB",Primary,,Costain House,,,,Vanwall Business Park,,Maidenhead,Berkshire,,SL6 4UB
019a0345-ce73-49dd-9982-50ede416062e,"Arisa Gallery, 130  Shad Thames, London, SE1 2PU",Primary,,Arisa Gallery,,,130,Shad Thames,,London,,,SE1 2PU
01a44159-a393-4d76-89cc-040e8c7abc77,"14  Lower Grosvenor Place, London, SW1W 0EX",Primary,,,,,14,Lower Grosvenor Place,,London,,,SW1W 0EX
01c881fe-47f7-4118-bc5a-c65c882183cf,"47  Clapham High Street, London, SW4 7TL",Primary,,,,,47,Clapham High Street,,London,,,SW4 7TL
01e19f24-0c68-4f67-b754-5169b7f8de8d,"Heron House, 4  Bentinck Street, London, W1U 2EF",Primary,,Heron House,,,4,Bentinck Street,,London,,,W1U 2EF
023eee92-87a8-464b-922f-cc37464267df,"Station House, Connaught Road, Brookwood, Woking, Surrey, GU24 0ER",Primary,,Station House,,,,Connaught Road,Brookwood,Woking,Surrey,,GU24 0ER
023f823c-0726-45a0-a8e7-3d2c66d54327,"The Shaftesbury Centre, Percy Street, Swindon, Wiltshire, SN2 2AZ",Primary,,The Shaftesbury Centre,,,,Percy Street,,Swindon,Wiltshire,,SN2 2AZ
025ce0c2-3b6e-4262-8a67-f58accc6b7ce,"1-5 Clerkenwell Road, London, EC1M 5PA",Primary,,,,,01-May,Clerkenwell Road,,London,,,EC1M 5PA
029011d8-0f05-450c-8834-67d044147526,"18 Frogmore Road, Hemel Hempstead, Hertfordshire, HP3 9RW",Primary,,,,,18,Frogmore Road,,Hemel Hempstead,Hertfordshire,,HP3 9RW
02b97cfa-67ac-4fe8-8802-ef87900d8695,"83  Blackfriars Road, London, SE1 8HA",Primary,,,,,83,Blackfriars Road,,London,,,SE1 8HA
02bc5647-4f89-461b-b6c8-c3fec3c4d86f,"85  Southwark Street, London,  SE1 0HX",Primary,,,,,85,Southwark Street,,London,,, SE1 0HX
02e68e6e-4cad-4f23-b023-4b44d1cdb276,"Transport Avenue, Brentford, TW8 9HA",Primary,,,,,,Transport Avenue,,Brentford,,,TW8 9HA
0332ec50-16f2-4394-b586-a098d8f608b2,"Kemble Drive, Swindon, SN2 2GZ",Primary,,,,,,Kemble Drive,,Swindon,,,SN2 2GZ
036c2b09-4ad7-41d1-9b42-c9932e5031f5,"Calverley House, 55  Calverley Road,, Tunbridge Wells, Kent, TN1 2TU",Primary,,Calverley House,,,55,"Calverley Road,",,Tunbridge Wells,Kent,,TN1 2TU
03a6e3c0-c55a-4cfd-a598-4549f745a78c,"16  Eastcheap, London, EC3M 1BD",Primary,,,,,16,Eastcheap,,London,,,EC3M 1BD
03aa932b-87be-4479-a2fb-5991be437b14,"Second Floor - Unit 2 A C Court, High Street, Thames Ditton, Surrey, KT7 0SR",Primary,,Second Floor - Unit 2 A C Court,,,,High Street,,Thames Ditton,Surrey,,KT7 0SR
03bec780-8cc2-4c0d-8a0f-37ae7f1f654e,"The Old Boathouse, 1a Putney Embankment, London, SW15 1LB",Primary,,The Old Boathouse,,,1a,Putney Embankment,,London,,,SW15 1LB
03bfa7b0-14ef-4698-9fbf-93f82a4a38d5,"30  Percy Street, London, W1T 2DB",Primary,,,,,30,Percy Street,,London,,,W1T 2DB
03ce669c-ff7c-4d00-bc83-ea59598beb77,"4  Stanley Road, Enfield, EN1 1NG",Primary,,,,,4,Stanley Road,,Enfield,,,EN1 1NG
03fef89e-e03a-4817-a4b9-d3dc1ce9c5b1,"The Plaza, Owen Way, Leominster Enterprise Park, Leominster, Herefordshire, HR6 0LA",Primary,,The Plaza,,,,Owen Way,Leominster Enterprise Park,Leominster,Herefordshire,,HR6 0LA
0417d915-56f1-4896-a618-ba3b91e86fa3,"St Thomas's Church, St Thomas Street, London, SE1 9RY",Primary,,St Thomas's Church,,,,St Thomas Street,,London,,,SE1 9RY
0468e9b3-b7e0-4917-bfce-551fe3fd9981,"Little Priory Offices, 4  Fore Street, Totnes, TQ9 5NJ",Primary,,Little Priory Offices,,,4,Fore Street,,Totnes,,,TQ9 5NJ
04a35639-3542-40ad-8784-8ea1641d93c2,"Quantum House, 3-5 College Street, Nottingham, Nottinghamshire, NG1 5AQ",Primary,,Quantum House,,,03-May,College Street,,Nottingham,Nottinghamshire,,NG1 5AQ
057f5460-d94f-408a-966f-e0f4e19ac7b3,"The Print House, 18  Ashwin Street, London,  E8 3DL",Primary,,The Print House,,,18,Ashwin Street,,London,,, E8 3DL
05a8162d-a538-4060-97c8-ff503bbeb397,"Sir Stanley Clarke House, 7  Ridgeway, Quinton, Birmingham, B32 1AF",Primary,,Sir Stanley Clarke House,,,7,Ridgeway,Quinton,Birmingham,,,B32 1AF
068e2911-5990-4c0a-aea5-3a2536b6d6e0,"112  High Street, Uxbridge, Middlesex, UB8 1JT",Primary,,,,,112,High Street,,Uxbridge,Middlesex,,UB8 1JT
06a3bb53-8565-42f7-8133-1aee0735915b,"Aston Webb Building, University of Birmingham, Edgbaston, Birmingham, West Midlands, B15 2TT",Primary,,Aston Webb Building,,,,University of Birmingham,Edgbaston,Birmingham,West Midlands,,B15 2TT
06a46942-a8c8-434f-8984-86650e6b103e,"Amshold House, Golding's Hill, Loughton, Essex, IG10 2RW",Primary,,Amshold House,,,,Golding's Hill,,Loughton,Essex,,IG10 2RW
06a92817-7998-4446-a648-037ef6e50306,"Mentmore House, 11  Cray Avenue, Orpington, Kent, BR5 3QF",Primary,,Mentmore House,,,11,Cray Avenue,,Orpington,Kent,,BR5 3QF
06b24439-94ee-4ba1-ae8a-86a21d0c4e4f,"Guildhall - PO Box 270, London, EC2P 2EJ",Primary,,Guildhall - PO Box 270,,,,,,London,,,EC2P 2EJ
07ab77c5-a7ea-406d-b72a-8995dc9dc75a,"Windmill Court, 2  Borstal Hill, Whitstable, Kent, CT5 4QH",Primary,,Windmill Court,,,2,Borstal Hill,,Whitstable,Kent,,CT5 4QH
07c39c5e-20df-408d-9bab-f5799513251e,"Museum of London, 150 London Wall, London, EC2Y 5HN",Primary,,Museum of London,,,150,London Wall,,London,,,EC2Y 5HN
08113d94-1e94-42e6-9363-b0c865bac123,"Calvert's Buildings, 52B Borough High Street, London, SE1 1NX",Primary,,Calvert's Buildings,,,52B,Borough High Street,,London,,,SE1 1NX
0842f5ef-fb82-4c17-a845-afb81caf2c31,"Surveyor's Office - The Chapter House, St Paul's Churchyard, London, EC4M 8AD",Primary,,Surveyor's Office - The Chapter House,,,,St Paul's Churchyard,,London,,,EC4M 8AD
086370f8-a22d-4a89-9631-86653e800ee0,"Janus House, Osney Mead, Oxford, Oxfordshire, OX2 0ES",Primary,,Janus House,,,,Osney Mead,,Oxford,Oxfordshire,,OX2 0ES
086370f8-a22d-4a89-9631-86653e800ee0,"15  Trafalgar Way, Bar Hill, Cambridge, Cambridgeshire, CB23 8SQ",Alternate,Current,,,,15,Trafalgar Way,Bar Hill,Cambridge,Cambridgeshire,,CB23 8SQ
087429ae-907b-49a6-9763-53d03eaae027,"25  Saville Row, London, W1S 2ES",Primary,,,,,25,Saville Row,,London,,,W1S 2ES
08974284-2d6e-492f-8dd7-453970c483d6,"41  Paradise Walk, London, SW3 4JL",Primary,,,,,41,Paradise Walk,,London,,,SW3 4JL
08e2c74f-6384-4a18-8cf7-5848cad518ce,"Mercury House, Broadwater Road, Welwyn Garden City, Herts, AL7 3BQ",Primary,,Mercury House,,,,Broadwater Road,,Welwyn Garden City,Herts,,AL7 3BQ
094a2d40-5e9e-4a4e-8830-49c2bb74a77d,"13  Langley Street, London, WC2H 9JG",Primary,,,,,13,Langley Street,,London,,,WC2H 9JG
0a0755ea-c314-419c-bb9c-ca608b26a610,"Sir John Lyon House, 5  High Timber Street, London, EC4V 3LN",Primary,,Sir John Lyon House,,,5,High Timber Street,,London,,,EC4V 3LN
0a1b98fc-347b-41bf-bd9d-902fdffedbad,"Newminster House, 27-29 Baldwin Street, Bristol, BS1 1LT",Primary,,Newminster House,,,27-29,Baldwin Street,,Bristol,,,BS1 1LT
0a3ed59f-5fd0-4971-a5e2-b163f6deaa13,"Level 5 Block II - Elizabeth House, 39 York Road, London, SE1 7NQ",Primary,,Level 5 Block II - Elizabeth House,,,39,York Road,,London,,,SE1 7NQ
0a559016-eb35-4e11-bcfc-0ce3cc1bdac7,"Old Royal Naval College, King William Walk, Greenwich, London, SE10 9NN",Primary,,Old Royal Naval College,,,,King William Walk,Greenwich,London,,,SE10 9NN
0a9545d3-55f0-4133-a013-710e07db8b74,"20-25 Glasshouse Yard, London, EC1A4JT",Primary,,,,,20-25,Glasshouse Yard,,London,,,EC1A4JT
0a9d930e-66a4-48ae-a297-d1b94b034eb8,"19 Eastbourne Terrace, London, W2 6LG",Primary,,,,,19,Eastbourne Terrace,,London,,,W2 6LG
0b0c97d5-c1d6-4f56-8eb7-113380796d8a,"3  Elmbridge Close, Ruislip, HA4 7XA",Primary,,,,,3,Elmbridge Close,,Ruislip,,,HA4 7XA
0b126afb-a87d-4f0a-9cf0-1ec7372d7fa8,"Axiom House, Station Road, Stroud, Gloucestershire, GL5 3AP",Primary,,Axiom House,,,,Station Road,,Stroud,Gloucestershire,,GL5 3AP
0b4f08b6-3581-4e5c-8ab3-08e6e6a06f6a,"Civic Offices, St Nicholas Way, Sutton, London,  SM1 1EA",Primary,,Civic Offices,,,,St Nicholas Way,,Sutton,,, SM1 1EA
0ba51d55-6be8-4792-9795-24b96f08aa4b,"Lakeside Cottage, Lyng Easthaugh, Lyng, Norwich, Norfolk, NR9 5LN",Primary,,Lakeside Cottage,,,,Lyng Easthaugh,Lyng,Norwich,Norfolk,,NR9 5LN
0bace8a8-c26f-44c8-8f90-933ee0cc60ef,"Athene Place, 66  Shoe Lane, London, EC4A 3BQ",Primary,,Athene Place,,,66,Shoe Lane,,London,,,EC4A 3BQ
0bb3fb1a-5167-4cfa-8b86-760feeb08501,"100  London Road, Forest Hill, London, SE23 3PQ",Primary,,,,,100,London Road,Forest Hill,London,,,SE23 3PQ
0c1af7e7-24cf-42d0-84d7-dff654c01b4e,"36  Church View, Gillingham, Dorset, SP8 4XE",Primary,,,,,36,Church View,,Gillingham,Dorset,,SP8 4XE
0c9d7947-8f61-46b4-b91b-7fa2978aa6f7,"The Finsbury Business Centre, 40 Bowling Green Lane, London, EC1R 0NE",Primary,,The Finsbury Business Centre,,,40,Bowling Green Lane,,London,,,EC1R 0NE
0cac795d-6088-42be-ba96-e2f942436f83,"Goodmayes Hospital, Barley Lane, Ilford, IG3 8XJ",Primary,,Goodmayes Hospital,,,,Barley Lane,,Ilford,,,IG3 8XJ
0cc6f7f9-ba77-4bcf-8653-918e75bfc98a,"Studio 13, 50 Carnwath Road, London, SW6 3EG",Primary,,Studio 13,,,50,Carnwath Road,,London,,,SW6 3EG
0ce03983-e8fa-4593-80e2-196235c4838d,"2  Montfichet Road, Westfield Stratford City, London, E20 1EJ",Primary,,,,,2,Montfichet Road,Westfield Stratford City,London,,,E20 1EJ
0d1d0621-0908-4a00-95bb-df405fbcfa36,"Waggoners Court, The Street, Manuden, Bishop's Stortford, Hertfordshire, CM23 1DW",Primary,,Waggoners Court,,,,The Street,Manuden,Bishop's Stortford,Hertfordshire,,CM23 1DW
0d747ab6-5c89-4d6a-a082-1b6c0b23c8ce,"PO Box 10 - Hurstmere House, Denbigh Close, Chislehurst, Kent, BR7 5ZE",Primary,,PO Box 10 - Hurstmere House,,,,Denbigh Close,,Chislehurst,Kent,,BR7 5ZE
0d79f1f0-ada5-4b82-b887-65593a2d6fe5,"10  Snow Hill, London, EC1A 2AL",Primary,,,,,10,Snow Hill,,London,,,EC1A 2AL
0dfe2730-9729-4d54-b4a0-6c141b454d04,"Griffin House, 135  High Streetreet, Crawley, West Sussex, RH10 1DQ",Primary,,Griffin House,,,135,High Streetreet,,Crawley,West Sussex,,RH10 1DQ
0e0e0160-8e28-4ce1-b55c-b1d6390357e8,"1-3 Station Approach, Hayes, Bromley, BR2 7EQ",Primary,,,,,01-Mar,Station Approach,Hayes,Bromley,,,BR2 7EQ
0e15e353-1a99-41b0-8121-3cb3e145a5f6,"2-3 Lower Grove, New Radnor, Presteigne, Powys, LD8 2SS",Primary,,,,,02-Mar,Lower Grove,New Radnor,Presteigne,Powys,,LD8 2SS
0e2019d0-8f24-4691-8e50-b7617a6d2f11,"Teresa Gavin House, Woodford Avenue, Woodford Green, IG8 8FA",Primary,,Teresa Gavin House,,,,Woodford Avenue,,Woodford Green,,,IG8 8FA
0e538f11-29ab-4fe8-9642-a3585984a48d,"St Georges House, 24  Queens Road, Weybridge, KT13 9UX",Primary,,St Georges House,,,24,Queens Road,,Weybridge,,,KT13 9UX
0eb2c97f-5999-4821-8ca8-1451f8d19951,"Whitehall, London, SW1A 2HB",Primary,,,,,,Whitehall,,London,,,SW1A 2HB
0ebed7d3-129c-4a07-a3bb-39421755283f,"Hyde Park House, 5  Manfred Road, Putney, London, SW15 2RS",Primary,,Hyde Park House,,,5,Manfred Road,Putney,London,,,SW15 2RS
0ec3dec5-321a-45e7-b134-4416ab2e647a,"Goldsel Road, Swanley, Kent, BR8 8EX",Primary,,,,,,Goldsel Road,,Swanley,Kent,,BR8 8EX
0edf43bd-b082-42bb-b08d-6779e4cdc7ae,"5  St Mary's Road, Surbiton, KT6 4JG",Primary,,,,,5,St Mary's Road,,Surbiton,,,KT6 4JG
0ef5d526-3a31-4cca-bd2d-30d4c571ddbd,"The Granary, White Hall Farm, Leamington Road, Long Itchington, Southam, Warwickshire, CV47 9PU",Primary,,The Granary,,White Hall Farm,,Leamington Road,Long Itchington,Southam,Warwickshire,,CV47 9PU
0efffe5c-ef90-4851-8849-375a3231542c,"Shinfield Park, Shinfield, Reading, Berkshire, RG2 9FW",Primary,,,,,,Shinfield Park,Shinfield,Reading,Berkshire,,RG2 9FW
0f522713-afae-4c89-9a38-46fda8bfff19,"70 Cowcross Street, London, EC1M 6EJ",Primary,,,,,70,Cowcross Street,,London,,,EC1M 6EJ
0f8030b2-b551-484d-9549-7d8330762e41,"Ashcombe House, 5  The Crescent, Leatherhead, Surrey, KT22 8DY",Primary,,Ashcombe House,,,5,The Crescent,,Leatherhead,Surrey,,KT22 8DY
0f8f348c-dc72-4c5f-a543-17e75df868f4,"47-51 Great Suffolk Street, London, SE1 0BS",Primary,,,,,47-51,Great Suffolk Street,,London,,,SE1 0BS
0fc0b424-cac9-4bd0-a87a-2c304be34b50,"Red House Farm, Pilcox Hall Lane, Tendring, Clacton-on-Sea, Essex, CO16 0PD",Primary,,Red House Farm,,,,Pilcox Hall Lane,Tendring,Clacton-on-Sea,Essex,,CO16 0PD
0fe7059b-ccf0-4610-be59-96c5f1e14c71,"Hall Place, Bourne Road, Bexley, DA5 1PQ",Primary,,Hall Place,,,,Bourne Road,,Bexley,,,DA5 1PQ
0ff94f47-310c-4a54-b5d5-39626d8d5ddd,"County Hall, Market Road, Chelsmford, CM1 1QH",Primary,,County Hall,,,,Market Road,,Chelsmford,,,CM1 1QH
0ffe90c2-bc38-47f6-a9d2-b6ebb972fcf6,"PO Box 7694 - Corby Delivery Office, Crucible Road, Corby, Northamptonshire, NN17 5ZZ",Primary,,PO Box 7694 - Corby Delivery Office,,,,Crucible Road,,Corby,Northamptonshire,,NN17 5ZZ
107ec501-ee35-47f3-a35b-d8a41749d58c,"The Grange, Market Square, Westerham, Kent, TN16 1HB",Primary,,The Grange,,,,Market Square,,Westerham,Kent,,TN16 1HB
108df406-bdfc-4e0d-af1c-c6f6c318d401,"4 Stable Street, King's Cross, London, N1C 4AB",Primary,,,,,4,Stable Street,King's Cross,London,,,N1C 4AB
109f3856-b6ef-49bb-8272-67c98e5926f5,"Unit 9, Montague Road, Warwick, Warwickshire, CV34 5LW",Primary,,Unit 9,,,,Montague Road,,Warwick,Warwickshire,,CV34 5LW
10a78f7a-7603-4cfb-b676-e1df0bed7f69,"20  Old Mill Square, Storrington, Pulborough, West Sussex, RH20 4NQ",Primary,,,,,20,Old Mill Square,Storrington,Pulborough,West Sussex,,RH20 4NQ
10c38b15-ce8c-43b2-8f2e-8cdd9e9cba30,"16  Palace Street, Cardinal Place, London, SW1E 5JQ",Primary,,,,,16,Palace Street,Cardinal Place,London,,,SW1E 5JQ
10f1f80f-d94f-403a-ae1c-06f830fdebe4,"72  Pymer's Mead, London, SE21 8NJ",Primary,,,,,72,Pymer's Mead,,London,,,SE21 8NJ
1113aa49-2156-4d9e-9693-098a823f5543,"Vestry Road, Walthamstow, London, E17 9NH",Primary,,,,,,Vestry Road,Walthamstow,London,,,E17 9NH
115095fb-88b0-45ca-8121-0154178f4c65,"Saint George House, 76  Crown Road, Twickenham, TW1 3EU",Primary,,Saint George House,,,76,Crown Road,,Twickenham,,,TW1 3EU
115d8bad-e494-4812-ac0b-0e1ea963ea29,"Suite 3 - Salar House, Campfield Road, St Albans, Hertfordshire, AL1 5HT",Primary,,Suite 3 - Salar House,,,,Campfield Road,,St Albans,Hertfordshire,,AL1 5HT
11c3ba08-8787-4755-8fc6-7883558c3cdc,"Highclere House, 180  Main Road, Biggin Hill, Kent, TN14 3BB",Primary,,Highclere House,,,180,Main Road,,Biggin Hill,Kent,,TN14 3BB
11f88b85-a7fc-4850-a378-fcec8742f0dc,"86-90 Paul Street, London, EC2A 4NE",Primary,,,,,86-90,Paul Street,,London,,,EC2A 4NE
12055d8a-ee99-4f03-8d55-261a5b03910b,"89-91 Bayham Street, London, NW1 OAG",Primary,,,,,89-91,Bayham Street,,London,,,NW1 OAG
1217e2b0-520d-4961-b550-ea4afa4d9fe9,"4 Stable Street, London, N1C 4AB",Primary,,,,,4,Stable Street,,London,,,N1C 4AB
124cb697-2330-46dd-91c0-dd5e49244d01,"Victoria House, 10 Woolwich Manor Way, Beckton, London, E6 5PA",Primary,,Victoria House,,,10,Woolwich Manor Way,Beckton,London,,,E6 5PA
1261d1c1-054c-4f65-82f3-034d8fee7248,"133  Harrow Road, Paddington, London, W2 1JP",Primary,,,,,133,Harrow Road,Paddington,London,,,W2 1JP
1334de00-8416-4a7e-8ae9-502b2e092254,"Blake House, 18  Blake Street, York, YO1 8QG",Alternate,Current,Blake House,,,18,Blake Street,,York,North Yorkshire,,YO1 8QG
1334de00-8416-4a7e-8ae9-502b2e092254,"Brettingham House, 98 Pottergate, Norwich, NR2 1EQ",Primary,,Brettingham House,,,98,Pottergate,,Norwich,Norfolk,,NR2 1EQ
138662ed-08df-4442-9734-4e5211bbc136,"The Burroughs, Hendon, London, NW4 4BT",Primary,,,,,,The Burroughs,Hendon,London,,,NW4 4BT
13d1fc06-ecba-474e-bd5a-e93d4d4581c2,"Westport, Horsell Common, Woking, Surrey, GU21 4YA",Primary,,Westport,,,,Horsell Common,,Woking,Surrey,,GU21 4YA
14100bd9-6e96-4584-962e-f5d720c77269,"142  St Marks Road, Enfield, EN1 1BJ",Primary,,,,,142,St Marks Road,,Enfield,,,EN1 1BJ
142322ed-7383-4458-b108-8dd16f1b1bbc,"The Manor, North Street, Digby, LN4 3LY",Primary,,The Manor,,,,North Street,,Digby,,,LN4 3LY
14b5fd27-1a4c-4d11-a055-207b4a033f8d,"Unit 7, Waterside, 44-48 Wharf Road, London, N1 7UX",Primary,,Unit 7,,Waterside,44-48,Wharf Road,,London,,,N1 7UX
14e8da6e-f7c3-4311-aa82-fa0b15a221fc,"1 Pickford Street, Aldershot, Hampshire, GU11 1TY",Primary,,,,,1,Pickford Street,,Aldershot,Hampshire,,GU11 1TY
1531807a-b56e-4f20-848f-b081aee7c6b7,"Devonshire House, 582  Honeypot Lane, Stanmore, HA7 1JS",Primary,,Devonshire House,,,582,Honeypot Lane,,Stanmore,,,HA7 1JS
155e5714-2db6-42c8-802d-895d6c25b636,"98A Liverpool Road, Islington, London, N1 0RE",Primary,,,,,98A,Liverpool Road,Islington,London,,,N1 0RE
1590f6e1-caaa-46cc-b90b-593465acc4ea,"5th Floor, 6  St Andrews Street, London, EC4A 3AE",Primary,,5th Floor,,,6,St Andrews Street,,London,,,EC4A 3AE
15ce7616-e3cb-4a08-a11d-3c7703d748ba,"1  Coate Street, London, E2 9AG",Primary,,,,,1,Coate Street,,London,,,E2 9AG
15ce8155-6c90-4048-9d99-f6f3984dfaad,"41a Beavor Lane, London, W6 9BL",Primary,,,,,41a,Beavor Lane,,London,,,W6 9BL
160d1e02-9b84-4dec-bd7f-9842e802b71c,"140  Aldersgate Street, London, EC1A 4HY",Primary,,,,,140,Aldersgate Street,,London,,,EC1A 4HY
16233286-9e08-496a-9c6a-cac7d9338579,"Euston Tower, 286  Euston Road, London, NW1 3AT",Primary,,Euston Tower,,,286,Euston Road,,London,,,NW1 3AT
1636110f-06c5-4cb0-95ef-bfe0337fd8b3,"Unit A11 Poplar Business Park, 10  Pestons Road, London, E14 9RL",Primary,,,Unit A11,Poplar Business Park,10,Pestons Road,,London,,,E14 9RL
165b1ada-00aa-43be-87f0-44ab444859c4,"16  Duncan Terrace, London, N1 8BZ",Primary,,,,,16,Duncan Terrace,,London,,,N1 8BZ
1672a60e-67c9-4b63-a6b2-35fd25e32145,"98  Baggot Street Lower, Dublin, Ireland, 216410",Primary,,,,,98,Baggot Street Lower,,Dublin,,Ireland,216410
16b8cc9a-bd7c-49ee-93ba-9e31df54c64c,"Cunard House, 15 Regent Street, London, SW1Y 4LR",Primary,,Cunard House,,,15,Regent Street,,London,,,SW1Y 4LR
16f01763-ba4e-4f92-b0e0-74e46eab0224,"15  Worship Street, London, EC2A 2DT",Primary,,,,,15,Worship Street,,London,,,EC2A 2DT
17434206-2b94-4d19-a614-ec3d0a08dcc6,"Nero House, 5 Ridgeway, Papworth Everard, Cambridge, Cambridgeshire, CB23 3RW",Primary,,Nero House,,,5,Ridgeway,Papworth Everard,Cambridge,Cambridgeshire,,CB23 3RW
1752a9d8-f5fb-48a2-bef6-774358378dcb,"59a Brent Street, London, NW4 2EA",Primary,,,,,59a,Brent Street,,London,,,NW4 2EA
17eb678a-c218-4244-8979-ae9e421acd4f,"5-8 Empire Square South, 34 Long Lane, London, SE1 4NA",Primary,,,05-Aug,Empire Square South,34,Long Lane,,London,,,SE1 4NA
1835f723-1b0f-4fe0-98c8-cf52fce6b1d4,"Flat N, 19  Hyde Park Gardens, London, W2 2LY",Primary,,Flat N,,,19,Hyde Park Gardens,,London,,,W2 2LY
186ef73c-ede9-416b-8495-914e34d8b544,"Lancaster House, 16 Central Avenue, St Andrews Business Park, Norwich, Norfolk, NR7 0HR",Primary,,Lancaster House,,,16,Central Avenue,St Andrews Business Park,Norwich,Norfolk,,NR7 0HR
186ef73c-ede9-416b-8495-914e34d8b544,"Nautilus House, 10 Central Avenue, St Andrew's Business Park, Norwich, Norfolk, NR7 0HR",Alternate,Current,Nautilus House,,,10,Central Avenue,St Andrew's Business Park,Norwich,Norfolk,,NR7 0HR
187c4778-a061-41d6-a04e-ea666477dccc,"Manor Farm Stables, Chicklade, Salisbury, Wiltshire, SP3 5SU",Primary,,Manor Farm Stables,,,,,Chicklade,Salisbury,Wiltshire,,SP3 5SU
18a43f98-492d-4016-b852-5041b67509e7,"20  Triton Street, Regent's Place, London, NW1 3BF",Primary,,,,,20,Triton Street,Regent's Place,London,,,NW1 3BF
18fe9794-a398-4e0c-906a-ab8ee638cb4b,"28  Crescent Road, Brighton, East Sussex, BN2 3RP",Primary,,,,,28,Crescent Road,,Brighton,East Sussex,,BN2 3RP
19164c7f-097d-42e1-99a6-9a55eeba12e2,"96a Brighton Road, South Croydon, CR2 6EQ",Primary,,,,,96a,Brighton Road,,South Croydon,,,CR2 6EQ
19235d1f-5c06-462c-8d84-92d1ed2c27be,"Benson House, 33  Wellington Street, Leeds, West Yorkshire, LS1 4JP",Primary,,Benson House,,,33,Wellington Street,,Leeds,West Yorkshire,,LS1 4JP
1952530e-8bb6-4975-b2e6-962b9960e90a,"West Wing - Newham Dockside, 1000  Dockside Road, Newham, London, E16 2QU",Primary,,West Wing - Newham Dockside,,,1000,Dockside Road,Newham,London,,,E16 2QU
1976f451-bb53-4b24-b2ea-4ebe7280edf0,"Department of Archaeology - University of Cambridge, Downing Street, Cambridge, Cambridgeshire, CB2 3DZ",Primary,,Department of Archaeology - University of Cambridge,,,,Downing Street,,Cambridge,Cambridgeshire,,CB2 3DZ
19a4e503-8b5d-47da-a352-b41f186a1225,"25  St Johns Wood Park, London, Middlesex, NW8 6QR",Primary,,,,,25,St Johns Wood Park,,London,Middlesex,,NW8 6QR
19d929a5-4430-4fd4-b3e2-33fdf17c08ee,"7  Bishops Terrace, London, ES11 4UE",Primary,,,,,7,Bishops Terrace,,London,,,ES11 4UE
1a012d57-7bf7-4913-8839-9c64144167f3,"103 Borough Road, London, SE1 0AA",Primary,,,,,103,Borough Road,,London,,,SE1 0AA
1ae80b70-3874-4085-a619-e00b0df9254f,"24  Birch Street, Wolverhampton, WV1 4HY",Primary,,,,,24,Birch Street,,Wolverhampton,,,WV1 4HY
1b42d09b-37f5-4787-bd80-00ce478b6744,"Arcadis House, 34 York Way, London, N1 9AB",Primary,,Arcadis House,,,34,York Way,,London,,,N1 9AB
1b42d09b-37f5-4787-bd80-00ce478b6744,"Arcadis Cymru House, St Mellons Business Park, Fortran Road, St Mellons, Cardiff, CF3 0EY",Alternate,Current,Arcadis Cymru House,,St Mellons Business Park,,Fortran Road,St Mellons,Cardiff,,,CF3 0EY
1b42d09b-37f5-4787-bd80-00ce478b6744,"The Mill Brimscombe Port, Port Lane, Brimscombe, Stroud, Gloucestershire, GL5 2QG",Alternate,Current,The Mill Brimscombe Port,,,,Port Lane,Brimscombe,Stroud,Gloucestershire,,GL5 2QG
1b42d09b-37f5-4787-bd80-00ce478b6744,"2 Glass Wharf, Temple Quay, Bristol, BS2 0FR",Alternate,Current,,,,2,Glass Wharf,Temple Quay,Bristol,,,BS2 0FR
1b66b604-1127-475b-90cf-04f275d82896,"57 Station Road, Harrow, HA1 2XY",Primary,,,,,57,Station Road,,Harrow,,,HA1 2XY
1b68bc4c-ef74-4cbc-a8d5-bee6092f17b5,"29-35 West Ham Lane, London, E15 4PH",Primary,,,,,29-35,West Ham Lane,,London,,,E15 4PH
1b769856-1091-40b3-910b-8102fc7f7895,"Domaine Universitaire, Esplanade des Antilles, Pessac, France, 33600 Pessac",Primary,,Domaine Universitaire,,,,Esplanade des Antilles,,Pessac,,France,33600 Pessac
1bb772dc-20a9-416f-884f-7017a0377322,"341  Exning Road, Newmarket, Suffolk, CB8 0AT",Primary,,,,,341,Exning Road,,Newmarket,Suffolk,,CB8 0AT
1bd0e0ae-61c3-47b3-82d5-e2a758bad5a0,"Canon Court, Abbey Lawn, Abbey Foregate, Shrewsbury, Shropshire, SY2 5DE",Primary,,Canon Court,,Abbey Lawn,,Abbey Foregate,,Shrewsbury,Shropshire,,SY2 5DE
1bf7d811-a412-4d3b-941f-e09f01a6f405,"Studio NS22 Netil House, 1  Westgate Street, Hackney, London, E8 3RL",Primary,,Studio NS22 Netil House,,,1,Westgate Street,Hackney,London,,,E8 3RL
1c045a1f-5d36-459b-a665-b756ea18dd36,"152-160 City Road, London, EC1V 2NX",Primary,,,,,152-160,City Road,,London,,,EC1V 2NX
1c81b6cc-87ff-4461-a86d-1e6d25f4b47a,"16  Winchester Walk, London, SE1 9AQ",Primary,,,,,16,Winchester Walk,,London,,,SE1 9AQ
1c8af398-e8d2-4517-81b4-f356dde1fbce,"Bardon Road, Bardon Hill, Coalville, B37 7BQ",Primary,,,,,,Bardon Road,Bardon Hill,Coalville,,,B37 7BQ
1cd154a8-b8dd-4708-b712-eaa90fd2271b,"Viridor House, Priory Bridge Road, Taunton, Somerset, TA1 1AP",Primary,,Viridor House,,,,Priory Bridge Road,,Taunton,Somerset,,TA1 1AP
1cea173d-01ee-4248-be96-b38dfd650b6b,"Suite 17, 9 Tanner Street, London, SE1 3LE",Primary,,Suite 17,,,9,Tanner Street,,London,,,SE1 3LE
1ced43ff-7d7a-4fd5-bc9e-0b88d87dbfd3,"City Hall, The Queen's Walk, More London Riverside, London, SE1 2AA",Primary,,City Hall,,,,The Queen's Walk,More London Riverside,London,,,SE1 2AA
1d897b32-4825-4fd5-ac50-7c0b1b8c8ce2,"21-23 Ives Street, Chelsea, London, SW3 2ND",Primary,,,,,21-23,Ives Street,Chelsea,London,,,SW3 2ND
1e3bcc4d-dc85-44e8-af1f-d5df95811f3b,"PO Box 473, New Malden, Surrey, KT3 9DZ",Primary,,PO Box 473,,,,,,New Malden,Surrey,,KT3 9DZ
1e3ddb9a-963e-43c1-8f61-a8dbd18be50a,"Wheatfield Way, Kingston Upon Thames, KT1 2PS",Primary,,,,,,Wheatfield Way,,Kingston Upon Thames,,,KT1 2PS
1e4bf76c-c931-4943-a779-5cdb5677231d,"Euston Tower, 286 Euston Road, London, NW1 3AT",Primary,,Euston Tower,,,286,Euston Road,,London,,,NW1 3AT
1e4bf76c-c931-4943-a779-5cdb5677231d,"The Axis, 10 Holliday Street, Birmingham, B1 1TF",Alternate,Current,The Axis,,,10,Holliday Street,,Birmingham,West Midlands,,B1 1TF
1e4bf76c-c931-4943-a779-5cdb5677231d,"Woodcote Grove, Ashley Road, Epsom, Surrey, KT18 5BW",Alternate,Current,Woodcote Grove,,,,Ashley Road,,Epsom,Surrey,,KT18 5BW
1e7ca384-27b6-468b-b09e-7315b68cb87c,"Norfolk House, 31  St James's Square, London, SW1Y 4JJ",Primary,,Norfolk House,,,31,St James's Square,,London,,,SW1Y 4JJ
1e979aba-dcca-4446-b314-8b58ba429eae,"82  Galleyway Road, Bermondsey, London, SE16 3PB",Primary,,,,,82,Galleyway Road,Bermondsey,London,,,SE16 3PB
1f09bc2a-4503-4cfc-8b21-31c6e853022f,"St Mary's Road, Ealing, London, W5 5RF",Primary,,,,,,St Mary's Road,Ealing,London,,,W5 5RF
1f3e6b0f-5be4-4f0e-a952-7377d0381449,"Wentworth House, Dormay Street, London, SW18 1EY",Primary,,Wentworth House,,,,Dormay Street,,London,,,SW18 1EY
1f767067-32c0-4b77-8237-3473342fd69a,"London, ",Primary,,,,,,,,London,,,
20227bfa-a499-42d2-bb5c-dedb365080f0,"Ashworth House, 9  The Strand, Ashtead, Surrey, KT21 2AD",Primary,,Ashworth House,,,9,The Strand,,Ashtead,Surrey,,KT21 2AD
2022a6d4-aaf6-4fd5-8eca-0f47347c6471,"Unit 50, 152-178 Kingston Road, New Malden, KT3 3ST",Primary,,Unit 50,,,152-178,Kingston Road,,New Malden,,,KT3 3ST
20253653-9ada-4db5-aa1e-cb2317bf32f6,"The Croft, East Street, Swinton, Malton, Yorkshire, YO17 6SH",Primary,,The Croft,,,,East Street,Swinton,Malton,Yorkshire,,YO17 6SH
21200273-35af-4f3b-b8a3-4d1609713cb8,"County Hall, Belvedere Road, London, SE1 7GP",Primary,,County Hall,,,,Belvedere Road,,London,,,SE1 7GP
21600018-f959-43be-ad83-6b6c41337414,"201  Townmead Road, Imperial Wharf, London, SW6 2SX",Primary,,,,,201,Townmead Road,Imperial Wharf,London,,,SW6 2SX
218d9a3f-259f-467a-b688-a786b7392808,"25  City Road, Cambridge, Cambridgeshire, CB1 1DP",Primary,,,,,25,City Road,,Cambridge,Cambridgeshire,,CB1 1DP
21a817ec-d424-4159-9cd9-fa158f7c5b5d,"Kings House, 32-40 Widmore Road, Bromley, BR1 1RY",Primary,,Kings House,,,32-40,Widmore Road,,Bromley,,,BR1 1RY
21c0472b-908e-4891-b234-9dbdfd77b124,"The Town Hall, Wandsworth High Street, Wandsworth,, London, SW18 2PU",Primary,,The Town Hall,,,,Wandsworth High Street,,London,,,SW18 2PU
21ea932d-1b26-4c08-8e8a-3973789aa3f1,"Flat 22 Jeeva Mansions, 135  Shacklewell Lane, Hackney Downs, London, N16 7RW",Primary,,,Flat 22,Jeeva Mansions,135,Shacklewell Lane,Hackney Downs,London,,,N16 7RW
22188210-2bf4-4e0c-9443-8d49eb2ed698,"The Town Hall, Blagrave Street, Reading, Berkshire, RG1 1QH",Primary,,The Town Hall,,,,Blagrave Street,,Reading,Berkshire,,RG1 1QH
22232cf3-e8a1-41e1-8b54-29c40ab7d5b0,"265-267 Kentish Town Road, Kentish Town, London, NW5 2TP",Primary,,,,,265-267,Kentish Town Road,Kentish Town,London,,,NW5 2TP
2274051c-9432-49bb-a106-0c7297e5deea,"48  Fairhazel Gardens, London, NW6 3SJ",Primary,,,,,48,Fairhazel Gardens,,London,,,NW6 3SJ
22a08604-5447-4281-81ec-ea74f2242ba1,"52 Welbeck Street, London, W1G 9XP",Primary,,,,,52,Welbeck Street,,London,,,W1G 9XP
22ab8563-9c8c-49d5-8df4-50c4ef5c281b,"106-110 Kentish Town Road, London, NW1 9PX",Primary,,,,,106-110,Kentish Town Road,,London,,,NW1 9PX
22b81cb8-6edb-4044-a431-610de6287b8c,"1a South Terrace, South Street, Dorchester, Dorset, DT1 1DE",Primary,,,1a,South Terrace,,South Street,,Dorchester,Dorset,,DT1 1DE
22c124ac-6c72-4cd6-883d-7b7dee5b48b1,"45  Welbeck Street, London, W1G 8DZ",Primary,,,,,45,Welbeck Street,,London,,,W1G 8DZ
22e53489-f3e7-43c3-b403-34c1f391bccf,"Camellia House, 76  Water Lane, Wilmslow, Cheshire, SK9 5BB",Primary,,Camellia House,,,76,Water Lane,,Wilmslow,Cheshire,,SK9 5BB
22fcbcec-64cf-44bc-97d4-741ad4a2989a,"Socotec House, Bretby Business Park, Ashby Road, Bretby, Burton upon Trent, Staffordshire, DE15 0YZ",Primary,,Socotec House,,Bretby Business Park,,Ashby Road,Bretby,Burton upon Trent,Staffordshire,,DE15 0YZ
22fcbcec-64cf-44bc-97d4-741ad4a2989a,"Glossop House, Hogwood Lane, Finchampstead, Wokingham, Berkshire, RG40 4QW",Alternate,Current,Glossop House,,,,Hogwood Lane,Finchampstead,Wokingham,Berkshire,,RG40 4QW
2310ab28-a37a-498b-b9c7-908be057c061,"23  Gerard Road, London, N1 8AY",Primary,,,,,23,Gerard Road,,London,,,N1 8AY
2366af65-c847-45ef-a533-7e36c816329f,"183  Long Lane, Tilehurst, Reading, Berkshire, RG31 6YW",Primary,,,,,183,Long Lane,Tilehurst,Reading,Berkshire,,RG31 6YW
23b2882a-66ac-4553-9357-c984c210e5d8,"47  Aldwark, York, North Yorkshire, YO1 7BX",Primary,,,,,47,Aldwark,,York,North Yorkshire,,YO1 7BX
23ed80ca-f49e-4857-a931-205595d9b4f4,"Leadbitter Site Office, Percy Road, Twickenham, TW2 6JW",Primary,,Leadbitter Site Office,,,,Percy Road,,Twickenham,,,TW2 6JW
2469248e-f139-4d08-b3bf-12609c1468d6,"1  Frog Lane, 
Tunbridge Wells, Kent, TN1 1YT",Primary,,,,,1,Frog Lane,,"
Tunbridge Wells",Kent,,TN1 1YT
2487c732-0aac-4b7e-87b1-15045574f568,"29  Welbeck Street, London, W1G 8DA",Primary,,,,,29,Welbeck Street,,London,,,W1G 8DA
24cc0292-48f5-4a3c-a31a-bd1ba792b1aa,"Park Road, Bestwood Village, Nottingham, Nottinghamshire, NG6 8TQ",Primary,,,,,,Park Road,Bestwood Village,Nottingham,Nottinghamshire,,NG6 8TQ
24e502ab-0aa5-44a7-afc7-be003d6b1bc0,"Artillery Square, Woolwich, London, SE18 4DX",Primary,,,,,,Artillery Square,Woolwich,London,,,SE18 4DX
250aed77-bc34-41ff-9315-4780472a6e77,"Boone's Chapel, Lee High Road, London, SE13 5PH",Primary,,Boone's Chapel,,,,Lee High Road,,London,,,SE13 5PH
25b754c7-74c5-4579-b00d-88ec70792d37,"Bickle's Yard, 151B Bermondsey Street, London, SE1 3UW",Primary,,Bickle's Yard,,,151B,Bermondsey Street,,London,,,SE1 3UW
263038ff-733a-4845-8740-f6952e5a4d94,"School of Archaeology & Ancient History, Mayor's Walk, Leicester, Leicestershire, LE1 7RH",Primary,,School of Archaeology & Ancient History,,,,Mayor's Walk,,Leicester,Leicestershire,,LE1 7RH
2642fca2-47d5-45e3-82c8-76089aad676d,"181  Lewisham High Street, London, SE13 6AA",Primary,,,,,181,Lewisham High Street,,London,,,SE13 6AA
266863c8-2c5a-40c4-a982-37c21ec6a298,"1 Kings Avenue, Winchmore Hill, London, N21 3NA",Primary,,,,,1,Kings Avenue,Winchmore Hill,London,,,N21 3NA
26d73e9e-8fc4-4568-8683-9e3170ef64ec,"6  Bermuda Road, Ransomes Europark, Ipswich, Suffolk, IP3 9RU",Primary,,,,,6,Bermuda Road,Ransomes Europark,Ipswich,Suffolk,,IP3 9RU
26d980cb-3d5e-424f-ba81-5ab98942bebf,"2nd Floor - Lewisham Library, 199-201 Lewisham High Street, SE13 6LG",Primary,,2nd Floor - Lewisham Library,,,199-201,Lewisham High Street,,,,,SE13 6LG
2747c515-cef4-41d0-bd60-d5742d1c920d,"1  Greencoat Row,, London, SW1P 1PQ",Primary,,,,,1,"Greencoat Row,",,London,,,SW1P 1PQ
275aed06-d420-4773-9fcc-a4ddfd291901,"Mott MacDonald House, 8-10 Sydenham Road, Croydon, CR0 2EE",Primary,,Mott MacDonald House,,,08-Oct,Sydenham Road,,Croydon,,,CR0 2EE
27fca026-71f3-4c30-ba81-1bb08b614abd,"187  Southborough Lane, Bromley, BR2 8AR",Primary,,,,,187,Southborough Lane,,Bromley,,,BR2 8AR
28a60b77-30ed-4e85-86e1-44555428fe49,"Mill Farm, Mapledurham, Reading, Oxfordshire, RG4 7TX",Primary,,,,,,Mill Farm,Mapledurham,Reading,Oxfordshire,,RG4 7TX
28b568d6-0abd-4034-bfed-0bfe86f6bc67,"Friars Corner, 155a Friern Barnet Lane, Whetstone, London, N20 0NP",Primary,,Friars Corner,,,155a,Friern Barnet Lane,Whetstone,London,,,N20 0NP
28e0adae-8c06-4828-8a11-066758474e63,"10  South Crescent, London, WC1E 7BD",Primary,,,,,10,South Crescent,,London,,,WC1E 7BD
29811c9e-241e-457a-b6e2-08bbbed5c040,"128  Southwark Street, London, SE1 0SW",Primary,,,,,128,Southwark Street,,London,,,SE1 0SW
299dd958-8387-4c90-839a-81a1e557e7f3,"Romney Road, Greenwich, London, SE10 9NF",Primary,,,,,,Romney Road,Greenwich,London,,,SE10 9NF
29b30c0d-364f-4d71-8b5a-a75e766ee5d7,"Golder House, Tadcaster Enterprise Park, Station Road, Tadcaster, North Yorkshire, LS24 9FJ",Primary,,Golder House,,Tadcaster Enterprise Park,,Station Road,,Tadcaster,North Yorkshire,,LS24 9FJ
29fb7d1d-ee23-46c7-b4b7-35962d5426fd,"125  Church Road, London, SE19 2PR",Primary,,,,,125,Church Road,,London,,,SE19 2PR
2b1e90d1-b328-49b9-a2c1-8da92c45ffd6,"41  Pear Tree Street, London, EC1V 3AG",Primary,,,,,41,Pear Tree Street,,London,,,EC1V 3AG
2b38cf4b-bbc7-400d-8b05-258363dba060,"Freshwater House, 158-162 Shaftsbury Avenue, London, WC2H 8HR",Primary,,Freshwater House,,,158-162,Shaftsbury Avenue,,London,,,WC2H 8HR
2b402c3d-7159-4660-8aac-621878ebc501,"1  Central Avenue, Welling, DA16 3AX",Primary,,,,,1,Central Avenue,,Welling,,,DA16 3AX
2b747e34-8122-41c2-aa11-2f1545281b26,"Riverside, 37  Sir Thomas Longley Road, Rochester, Kent, ME2 4DP",Primary,,Riverside,,,37,Sir Thomas Longley Road,,Rochester,Kent,,ME2 4DP
2b7da8d7-fe6e-4540-bf32-d7bf5fb28b7c,"Wellington Way, Brooklands Business Park, Weybridge, Surrey, KT13 0TT",Primary,,,,,,Wellington Way,Brooklands Business Park,Weybridge,Surrey,,KT13 0TT
2bfe1b4a-9feb-49ea-8b8f-ff6e1dd3bf06,"Holly Cottage, Lower Street, Upton Noble, Somerset, BA4 6BB",Primary,,Holly Cottage,,,,Lower Street,,Upton Noble,Somerset,,BA4 6BB
2c6c3fe6-2348-4348-965a-62ecc65bc226,"Unit 8 Fulford Business Centre, 35 Hospital Fields Road, York, North Yorkshire, YO10 4DZ",Primary,,,Unit 8,Fulford Business Centre,35,Hospital Fields Road,,York,North Yorkshire,,YO10 4DZ
2c6edcfe-a788-4aa6-942f-2a6c8aac76ea,"Excel House, Cray Avenue, Orpington, BR5 3ST",Primary,,Excel House,,,,Cray Avenue,,Orpington,,,BR5 3ST
2c703f92-94f0-4d7b-95de-6c61337b6cf0,"34  Sandall Close, Ealing, London, W5 1JF",Primary,,,,,34,Sandall Close,Ealing,London,,,W5 1JF
2c879d18-8d24-4008-b611-e58c00a2e02b,"Canterbury, Kent, ",Primary,,,,,,,,Canterbury,Kent,,
2c8d4e5d-694a-478b-8a5d-077cbb65584f,"37-39 Lime Street, London, EC3M 7AY",Primary,,,,,37-39,Lime Street,,London,,,EC3M 7AY
2cc252c0-446f-4e04-9fbe-87e5a6965af8,"Civic Centre, London Road, Morden, London, SM4 5DX",Primary,,Civic Centre,,,,London Road,,Morden,,,SM4 5DX
2cc47b0b-2564-430a-a2a0-89ca9e7dbeeb,"12-15 Hanger Green, Ealing, London, W5 3AY",Primary,,,,,Dec-15,Hanger Green,Ealing,London,,,W5 3AY
2d778fcb-dd72-4fa8-9d06-1cb2cc5af5c4,"1-2 Bridge Place, Anchor Boulevard, Crossways, Dartford, Kent, DA2 6SN",Primary,,,01-Feb,Bridge Place,,Anchor Boulevard,Crossways,Dartford,Kent,,DA2 6SN
2d82745e-4a9d-4c96-ab91-d331f0ea48d1,"Providence Cottage, 7  The Horsefair, Romsey, Hampshire, SO51 8EZ",Primary,,Providence Cottage,,,7,The Horsefair,,Romsey,Hampshire,,SO51 8EZ
2d83ac70-be8e-4d90-b660-7081e618880b,"Unit 20 Perseverance Works, Kingsland Road, Shoreditch, London, E2 8DD",Primary,,,Unit 20,Perseverance Works,,Kingsland Road,Shoreditch,London,,,E2 8DD
2dbead29-d043-4590-b11a-df817de20fb0,"Circle House, 1-3 Highbury Station Road, Islington, London, N1 1SE",Primary,,Circle House,,,01-Mar,Highbury Station Road,Islington,London,,,N1 1SE
2e03983d-44d4-417e-b938-7ebe4457733e,"Park Row, Greenwich, London, SE10 9NF",Primary,,,,,,Park Row,Greenwich,London,,,SE10 9NF
2e16edea-e690-432d-afba-d85d143675e6,"National Maritime Museum, Park Row, London, SE10 9NF",Primary,,National Maritime Museum,,,,Park Row,,London,,,SE10 9NF
2e2326a7-e71e-4682-9f04-f169489703fc,"Tuscany Wharf, 4a Orsman Road, London, N1 5QJ",Primary,,Tuscany Wharf,,,4a,Orsman Road,,London,,,N1 5QJ
2e2791a2-1062-4cf7-8c28-256eabea8db4,"Whisby Lodge, Whisby Road, Hillcroft Business Park, Lincoln, Lincolnshire, LN6 3QL",Primary,,Whisby Lodge,,,,Whisby Road,Hillcroft Business Park,Lincoln,Lincolnshire,,LN6 3QL
2e389132-f182-4395-b206-f33a52b90e90,"4-8 Tapster Street, Barnet, EN5 5TX",Primary,,,,,04-Aug,Tapster Street,,Barnet,,,EN5 5TX
2e7800cc-b7d7-4437-96f3-5d597c2b035d,"Broadoak House, Horsham Road, Cranleigh, Surrey, GU6 8DJ",Primary,,Broadoak House,,,,Horsham Road,,Cranleigh,Surrey,,GU6 8DJ
2e9104c8-83e6-485a-a630-c35fb5a3d2e4,"Riverbridge House, Anchor Boulevard, Dartford, Kent, DA2 6SL",Primary,,Riverbridge House,,,,Anchor Boulevard,,Dartford,Kent,,DA2 6SL
2eb63847-9871-4267-9cd5-032b490d3fad,"3 King Street Cloisters, Clifton Walk, London, W6 0GY",Primary,,,3,King Street Cloisters,,Clifton Walk,,London,,,W6 0GY
2ed43dc4-c46f-4773-a7fc-051438fbc98b,"Nobel House, 17  Smith Square, London, SW1P",Primary,,Nobel House,,,17,Smith Square,,London,,,SW1P
2f039465-353c-4c1c-8f63-3eb4c280dde3,"Brightwell Barns, Ipswich Road, Brightwell, Suffolk, IP10 0BJ",Primary,,Brightwell Barns,,,,Ipswich Road,,Brightwell,Suffolk,,IP10 0BJ
2f616a8e-4ae0-4cf5-b168-bd1c68e620b8,"Planning Department - County Hall, Market Road, Chelmsford, Essex, CM1 1LF",Primary,,Planning Department - County Hall,,,,Market Road,,Chelmsford,Essex,,CM1 1LF
2f6d96ee-7f0a-4a58-bb2d-7dac0d7f6222,"57  Clerkenwell Road, London, EC1M 5NG",Primary,,,,,57,Clerkenwell Road,,London,,,EC1M 5NG
2f77473d-88d6-4842-9bb1-1a0b44b3cad4,"21 Perseverance Works, 38 Kingsland Road, London, E2 8DD",Primary,,,21,Perseverance Works,38,Kingsland Road,,London,,,E2 8DD
2f851ab4-9478-49e3-9df4-13de71a47399,"Terrance House, 151  Hastings Road, Bromley, BR2 8NQ",Primary,,Terrance House,,,151,Hastings Road,,Bromley,,,BR2 8NQ
2f8f2a13-cdea-483c-be51-4a7546532a52,"Manor Way, Borehamwood, Hertfordshire, WD6 1LN",Primary,,,,,,Manor Way,,Borehamwood,Hertfordshire,,WD6 1LN
2fca130e-dbdc-4808-8639-e594353b19d2,"87  East Sheen Avenue, London, SW14 8AX",Primary,,,,,87,East Sheen Avenue,,London,,,SW14 8AX
2fca1e8e-b0ae-42a0-82ea-287882faeca9,"14  Greenland Street, London, NW1 0D",Primary,,,,,14,Greenland Street,,London,,,NW1 0D
302c84d5-ce42-449f-bcea-554cf4708057,"8  Watford Road., St Albans, Hertfordshire, AL1 2AJ",Primary,,,,,8,Watford Road.,,St Albans,Hertfordshire,,AL1 2AJ
3051ccc4-d0c1-4f25-86cc-af63e903e110,"Savoy Court, 7  Strand, London, WC2R 0EX",Primary,,Savoy Court,,,7,Strand,,London,,,WC2R 0EX
3058cb59-1718-4f7d-8842-1ef98d9b82ec,"3rd Floor - Sterling House, Langston Road, Loughton, Essex, IG10 3TS",Primary,,3rd Floor - Sterling House,,,,Langston Road,,Loughton,Essex,,IG10 3TS
305d4558-5d6a-4c90-aca9-00cf85b1f3bc,"5 Choumert Mews, Choumert Road, Peckham, London, SE15 4BD",Primary,,,5,Choumert Mews,,Choumert Road,Peckham,London,,,SE15 4BD
3075b13f-c26d-4698-9b96-f83ee893526b,"PO Box 58 - Civic Centre, Silver Street, Enfield, EN1 3XJ",Primary,,PO Box 58 - Civic Centre,,,,Silver Street,,Enfield,,,EN1 3XJ
307d63b1-133e-4a8e-af96-7ce2993c1282,"25  West Parade, Lincoln, Lincs, LN1 1NW",Primary,,,,,25,West Parade,,Lincoln,Lincs,,LN1 1NW
3091cc9c-9a81-471f-8c31-3439753008da,"42-44 Waterside, Brightlingsea, Colchester, Essex, CO7 0FH",Primary,,,,,42-44,Waterside,Brightlingsea,Colchester,Essex,,CO7 0FH
30fbc3ce-a2f2-433d-a77e-3fd4950d5d8d,"17  Halstead Road, Wanstead, London, E11 2AY",Primary,,,,,17,Halstead Road,Wanstead,London,,,E11 2AY
31293105-5b58-4670-9687-a4a9961f69d4,"Broughton Grange Business Centre, Headlands, Kettering, Northants, NN15 6XA",Primary,,Broughton Grange Business Centre,,,,Headlands,,Kettering,Northants,,NN15 6XA
31559309-0f33-41ad-b774-c31022c8c218,"Unit 1, Holly Lane, Chilwell, Nottingham, Nottinghamshire, NG9 4AB",Primary,,Unit 1,,,,Holly Lane,Chilwell,Nottingham,Nottinghamshire,,NG9 4AB
315632be-19b8-4e4a-9c5c-c15aca4e968e,"14  Lambourne Crescent, Cardiff Business Park, Cardiff, CF14 5GF",Primary,,,,,14,Lambourne Crescent,Cardiff Business Park,Cardiff,,,CF14 5GF
315c0f69-ad2c-4bd5-80ae-b625836e494e,"Arndale Court, Otley Road, Headingley, Leeds, West Yorkshire, LS6 2UJ",Primary,,Arndale Court,,,,Otley Road,Headingley,Leeds,West Yorkshire,,LS6 2UJ
315c0f69-ad2c-4bd5-80ae-b625836e494e,"The Pavilion, Botleigh Grange Office Campus, Hedge End, Southampton, Hampshire, SO30 2AF",Alternate,Current,The Pavilion,,,,Botleigh Grange Office Campus,Hedge End,Southampton,Hampshire,,SO30 2AF
315c0f69-ad2c-4bd5-80ae-b625836e494e,"90 Victoria Street, Bristol, BS1 6DP",Alternate,Current,,,,90,Victoria Street,,Bristol,,,BS1 6DP
315c0f69-ad2c-4bd5-80ae-b625836e494e,"11th Floor, 1 Angel Court, London, EC2R 7HJ",Alternate,Current,11th Floor,,,1,Angel Court,,London,,,EC2R 7HJ
31cc804d-7ff7-4fdd-8fda-b1be6f72754d,"35  Landmark Square, London, E14 9AB",Primary,,,,,35,Landmark Square,,London,,,E14 9AB
31db7bb6-f750-4eba-b864-ed3922997fb8,"The Old Printworks, 77a Brunswick Street, Edinburgh, EH7 5HS",Primary,,The Old Printworks,,,77a,Brunswick Street,,Edinburgh,,,EH7 5HS
321e22c7-a623-4a2d-9f9d-bb0570bf7e83,"11-15 Farm Street, London, W1J 5RS",Primary,,,,,Nov-15,Farm Street,,London,,,W1J 5RS
32208508-0710-47c9-80c3-3b886049d088,"Chasemore Farm, Bookham Road, Downside, Surrey, KT11 3JT",Primary,,Chasemore Farm,,,,Bookham Road,,Downside,Surrey,,KT11 3JT
327b3ca8-3b9e-4bda-a906-a17222cf7caf,"19  West Eaton Place, London, SW1X 8LT",Primary,,,,,19,West Eaton Place,,London,,,SW1X 8LT
32c4151a-d205-4de3-915e-c5165d11f1a1,"Astral House, Imperial Way, Watford, Hertfordshire, WD24 4WW",Primary,,Astral House,,,,Imperial Way,,Watford,Hertfordshire,,WD24 4WW
32ef9cbd-04d4-4685-af18-4e2c076ab1b0,"Adamson House, Towers Business Park, Wilmslow Road, Didsbury, Manchester, M20 2YY",Primary,,Adamson House,,Towers Business Park,,Wilmslow Road,Didsbury,Manchester,,,M20 2YY
331adf94-1319-43f8-b7b5-f07effb0c4d0,"Grove House, 2B Lichfield Grove, London, N3 2JP",Primary,,Grove House,,,2B,Lichfield Grove,,London,,,N3 2JP
331e3a7f-bd78-4465-b78a-cc0a8ce09bb9,"2 Westbury Mews, Westbury Hill, Westbury-on-Trym, Bristol, BS9 3QA",Primary,,,2,Westbury Mews,,Westbury Hill,Westbury-on-Trym,Bristol,,,BS9 3QA
335d99a9-d69a-44d8-8efc-95060914bc41,"46-48 East Street, Epsom, Surrey, KT17 1HQ",Primary,,,,,46-48,East Street,,Epsom,Surrey,,KT17 1HQ
33af38e6-c23d-4d40-a544-2984208a7fb6,"Bedford House, 125-133 Camden High Street, London, NW1 7JR",Primary,,Bedford House,,,125-133,Camden High Street,,London,,,NW1 7JR
33b7a714-8299-4a75-b13f-57bd80bddea8,"33  The Cut, South Bank, London,  SE1 8LF",Primary,,,,,33,The Cut,South Bank,London,,, SE1 8LF
33cd901a-1305-4ebe-a45d-10ea23e10598,"50  Liverpool Street, London, EC2M 7PY",Primary,,,,,50,Liverpool Street,,London,,,EC2M 7PY
34113f47-b898-4b7f-90eb-6912ea4ef4de,"The Stamp Office - Somerset House, Strand, London, WC2R1LA",Primary,,The Stamp Office - Somerset House,,,,Strand,,London,,,WC2R1LA
34135b44-9e44-4112-a830-6501d1db4e91,"39  Blossom Street, York, North Yorkshire, YO24 1AQ",Primary,,,,,39,Blossom Street,,York,North Yorkshire,,YO24 1AQ
341f0b98-73a9-4e9c-8017-8c0410ae3b5a,"Carlton House, Aylmer Road, London, E11 3AD",Primary,,Carlton House,,,,Aylmer Road,,London,,,E11 3AD
345692f6-6240-4644-be94-0afd18b97077,"Boxgrove Road, Abbey Wood, London, SE2 9JP",Primary,,,,,,Boxgrove Road,Abbey Wood,London,,,SE2 9JP
34bb0821-4a25-4857-8374-95012fac4c1b,"The Studio, 14  Aspinall Road, Debenham, Stowmarket, IP14 6QA",Primary,,The Studio,,,14,Aspinall Road,Debenham,Stowmarket,,,IP14 6QA
34d432ea-844e-4551-82cf-de68f29d6c7a,"1  Bank End, London, SE1 9BU",Primary,,,,,1,Bank End,,London,,,SE1 9BU
357f1afb-020f-45b0-aeb6-05b79eb399ce,"34 Bell Lane, Uckfield, East Sussex, TN22 1QL",Primary,,,,,34,Bell Lane,,Uckfield,East Sussex,,TN22 1QL
35c6e4ed-329f-4b05-9311-7b867fc72530,"88  Kingsway, Holborn, London, WC2B 6AA",Primary,,,,,88,Kingsway,Holborn,London,,,WC2B 6AA
35d0a33d-b394-4c83-bcd4-4c4d9d8f1050,"Lilywhite House, 782 High Road, Tottenham, London, N17 0BX",Primary,,Lilywhite House,,,782,High Road,Tottenham,London,,,N17 0BX
35d2daf3-2836-48a8-a9b3-db0ec064d3d8,"181  Union Street, London, SE1 0LN",Primary,,,,,181,Union Street,,London,,,SE1 0LN
35e0fb08-291d-444f-a1e2-d94775bf1b83,"100  Chalk Farm Road, Camden, London, NW1 8EH",Primary,,,,,100,Chalk Farm Road,Camden,London,,,NW1 8EH
36281213-5d8e-4aa1-8efe-98269ce1e56a,"1st Floor, 158  Liverpool Road North, Liverpool, L31 2HP",Primary,,1st Floor,,,158,Liverpool Road North,,Liverpool,,,L31 2HP
36a78110-0e26-415e-9153-e677a45e10bd,"71-75 Shelton Street, London, WC2H 9JQ",Primary,,,,,71-75,Shelton Street,,London,,,WC2H 9JQ
37b44207-a5e6-4ac1-98bd-b9da2c91fa28,"85  Alexandra Road, Farnborough, Hampshire, GU14 6BN",Primary,,,,,85,Alexandra Road,,Farnborough,Hampshire,,GU14 6BN
37e55b6e-1157-4956-8c45-2ed89d280410,"Richmond Road, Kingston upon Thames, Surrey, KT2 5PE",Primary,,,,,,Richmond Road,,Kingston upon Thames,Surrey,,KT2 5PE
37f5091f-9051-4c32-b216-7c5f1ac8dc8f,"Ivory House, East Smithfield, St Katharine's Docks, London, E1W 1AT",Primary,,Ivory House,,,,East Smithfield,St Katharine's Docks,London,,,E1W 1AT
37fd0d0e-9929-43f9-bb90-9d3e7703b6a5,"222  Upper Street, Islington, London, N1 1XR",Primary,,,,,222,Upper Street,Islington,London,,,N1 1XR
38047b8a-408f-4450-bff8-f807bb35726e,"110  Park Street, London, W1K 6NX",Primary,,,,,110,Park Street,,London,,,W1K 6NX
38110a6a-2f1e-4a73-92e0-252d7e3c9f88,"Weir House, Hurst Road, East Molesey, Surrey, KT8 9AY",Primary,,Weir House,,,,Hurst Road,,East Molesey,Surrey,,KT8 9AY
38ad1a4e-84e1-48a1-bc09-6154326996ce,"17  Carlton House Terrace, London, SW1Y 5AS",Primary,,,,,17,Carlton House Terrace,,London,,,SW1Y 5AS
38c31abe-320b-47b8-9aa9-7f9e1b710c5a,"Kestrel House, Rookery Yard, Primett Road, Stevenage, Hertfordshire, SG1 3EE",Primary,,Kestrel House,,Rookery Yard,,Primett Road,,Stevenage,Hertfordshire,,SG1 3EE
38d79cfe-64dd-4974-8f62-b4241b6f5401,"The Surrey Research Park, 10  Medawar Road, Guildford, Surrey, GU2 7AR",Primary,,The Surrey Research Park,,,10,Medawar Road,,Guildford,Surrey,,GU2 7AR
3908bef5-5b90-4d74-9ae9-f4d6b8207c96,"The Trafalgar, 17  Remington Street, London, N1 8DH",Primary,,The Trafalgar,,,17,Remington Street,,London,,,N1 8DH
390bf5eb-0288-4460-b289-1bd57f919e71,"Spring Lodge, 172  Chester Road, Helsby, Frodsham, Cheshire, WA6 0AR",Primary,,Spring Lodge,,,172,Chester Road,Helsby,Frodsham,Cheshire,,WA6 0AR
390bf5eb-0288-4460-b289-1bd57f919e71,"18 Frogmore Road, Hemel Hempstead, Hertfordshire, HP3 9RT",Alternate,Current,,,,18,Frogmore Road,,Hemel Hempstead,Hertfordshire,,HP3 9RT
39264c8c-cdc2-4120-a881-f3fa5e87916c,"Inveralmond House, 200  Dunkeld Road, Perth, PH1 3AQ",Primary,,Inveralmond House,,,200,Dunkeld Road,,Perth,,,PH1 3AQ
3941ffaf-133d-466d-9922-a105fae1a0bc,"Burlington Lane, Chiswick, London, W4 2RP",Primary,,,,,,Burlington Lane,Chiswick,London,,,W4 2RP
39655c6b-d2d4-4282-9b35-01edcfa7424d,"Unit 10 St Martins Industrial Park, Moorend Farm Avenue, Bristol, BS11 0RS",Primary,,,Unit 10,St Martins Industrial Park,,Moorend Farm Avenue,,Bristol,,,BS11 0RS
3995687c-dff7-4a18-b2e9-a88621e96c75,"Ye Old Forge, 36b West Street, Reigate, Surrey, RH2 9BX",Primary,,Ye Old Forge,,,36b,West Street,,Reigate,Surrey,,RH2 9BX
39b366c0-cc8f-4ae3-9d20-40c1318d3722,"Whitebread Court, Houghton Hall Business Park, Porz Avenue, Houghton Regis, Dunstable, Bedfordshire, LU5 5XE",Primary,,Whitebread Court,,Houghton Hall Business Park,,Porz Avenue,Houghton Regis,Dunstable,Bedfordshire,,LU5 5XE
3a325b25-7c52-4f07-a3eb-e7bc9197be88,"Camden Town Hall, Judd Street, London, WC1H 9JE",Primary,,Camden Town Hall,,,,Judd Street,,London,,,WC1H 9JE
3a47903d-2e00-4ebd-ada7-8a398cb50355,"3  Crittall Drive, Springwood Industrial Estate, Braintree, Essex, CM7 2RT",Primary,,,,,3,Crittall Drive,Springwood Industrial Estate,Braintree,Essex,,CM7 2RT
3a5fccf8-fadd-4e44-8501-d74b8d0a77f5,"St Pancras, 96  Euston Road, London, NW1 2DB",Primary,,St Pancras,,,96,Euston Road,,London,,,NW1 2DB
3a74ff2d-23d9-4d1a-b2f1-d2e8139493bf,"357  Kennington Lane, Vauxhall, London, SE11 5QY",Primary,,,,,357,Kennington Lane,Vauxhall,London,,,SE11 5QY
3a9a7b4f-b42f-4f55-a3d4-0e3052b25f50,"Cedar House, 91  High Streetreet, Caterham, Surrey, CR3 5UX",Primary,,Cedar House,,,91,High Streetreet,,Caterham,Surrey,,CR3 5UX
3ab33ae9-af84-4745-8487-9413880115ca,"19  Fitzroy Square, London, W1T 6EQ",Primary,,,,,19,Fitzroy Square,,London,,,W1T 6EQ
3b31f3d2-ce68-41d1-ad4c-e2edd6ade06c,"Aldford House, 63a South Audley Street, London, W1K 2QS",Primary,,Aldford House,,,63a,South Audley Street,,London,,,W1K 2QS
3ba1152e-6933-44e7-bef8-7669c8a12632,"Henrietta House, Henrietta Place, London, W1G 0NB",Primary,,Henrietta House,,,,Henrietta Place,,London,,,W1G 0NB
3bbeed63-2944-4c61-871f-3d0c8801192a,"Gate House, 1  St John's Square, London, EC1M 4DH",Primary,,Gate House,,,1,St John's Square,,London,,,EC1M 4DH
3be62d67-6271-4898-873f-dad8283a11cd,"Trust Headquarters, 1  Armstring Way, Southall, UB2 4SA",Primary,,Trust Headquarters,,,1,Armstring Way,,Southall,,,UB2 4SA
3bec19fb-9dba-4de3-afaa-f67fb329aec3,"61 Newmarket Road, Cambridge, Cambridgeshire, CB5 8AX",Primary,,,,,61,Newmarket Road,,Cambridge,Cambridgeshire,,CB5 8AX
3bec19fb-9dba-4de3-afaa-f67fb329aec3,"Les Mimosas, 12 Avenue des Orangers, Roquebrun, France, Roquebrun 34460",Alternate,Current,Les Mimosas,,,12,Avenue des Orangers,,Roquebrun,,France,Roquebrun 34460
3c0a1a40-6d56-42a7-8a95-96a5395d428f,"The Old Crown, High Street, Blackboys, Uckfield, East Sussex, TN22 5JR",Primary,,The Old Crown,,,,High Street,Blackboys,Uckfield,East Sussex,,TN22 5JR
3c6bf1f6-47cd-4229-9f53-b11cd4f8a51d,"64  Great Suffolk Street, London, SE1 0BL",Primary,,,,,64,Great Suffolk Street,,London,,,SE1 0BL
3ca2a260-6274-48bd-84d2-d1c9a8d4118a,"Lynton House, 7-12 Tavistock Square, London, WC1H 9BQ",Primary,,Lynton House,,,07-Dec,Tavistock Square,,London,,,WC1H 9BQ
3cc571b8-3235-4030-a646-45eedad9be0c,"Cromwell Road, Kensington, London, SW7 5BD",Primary,,,,,,Cromwell Road,Kensington,London,,,SW7 5BD
3ce99e19-b4ff-43c0-bb51-c7fd496daf4d,"Castor Lane, Poplar, London, E14 0DS",Primary,,,,,,Castor Lane,Poplar,London,,,E14 0DS
3cf3eb04-2676-4bb8-8d3e-48e18d6e7eb1,"8  Castle Close, Warwick, CV34 4DB",Primary,,,,,8,Castle Close,,Warwick,,,CV34 4DB
3d26c72c-4e3f-42af-8c8d-ac5a268d7d0b,"5 St Philip's Place, Colmore Row, Birmingham, West Midlands, B3 2PW",Primary,,,5,St Philip's Place,,Colmore Row,,Birmingham,West Midlands,,B3 2PW
3d4ef5a5-7881-49cc-a9c3-eb66d3d20d17,"Berkeley House, 7  Oakhill Road, Sevenoaks, Kent, TN13 1NQ",Primary,,Berkeley House,,,7,Oakhill Road,,Sevenoaks,Kent,,TN13 1NQ
3d8dd255-88fb-47a0-9b76-45b17f943527,"Queensgate, Huddersfield, West Yorkshire, HD1 3DH",Primary,,,,,,Queensgate,,Huddersfield,West Yorkshire,,HD1 3DH
3dfd3a6e-9699-4f43-9a0e-1b47773d819a,"16  Temple Avenue, London, EC4Y 0HP",Primary,,,,,16,Temple Avenue,,London,,,EC4Y 0HP
3e07b15d-5f5e-4fc5-8f8e-841b8f4e990b,"2  Compton Terrace, London, London, N1 2UN",Primary,,,,,2,Compton Terrace,,London,,,N1 2UN
3e391bec-7215-441b-919c-cd8875f621c2,"University of Florida P.O. Box 117000, Gainesville, Florida, United States of America, FL 32611-7000",Primary,,University of Florida P.O. Box 117000,,,,,,Gainesville,,United States of America,FL 32611-7000
3f681a4d-62cc-4cf6-95e6-1b3c21b42b91,"York Castle Museum, Museum Street, York, North Yorkshire, YO1 7FR",Primary,,York Castle Museum,,,,Museum Street,,York,North Yorkshire,,YO1 7FR
3f7bdf19-29b3-4439-81b4-0d835963f414,"144  Lower Cippenham Lane, Slough, Berkshire, SL1 5EA",Primary,,,,,144,Lower Cippenham Lane,,Slough,Berkshire,,SL1 5EA
3fa13e69-0516-4593-ae25-9f0f174e82d1,"Haberdashers' Hall, 18  West Smithfield, London, EC1A 9HQ",Primary,,Haberdashers' Hall,,,18,West Smithfield,,London,,,EC1A 9HQ
3fabbbbd-9907-4990-9050-8835b08c47b8,"10  Bremer Mews, London, E17 9RA",Primary,,,,,10,Bremer Mews,,London,,,E17 9RA
4006f302-4d97-45a2-aa14-59c58cd85c5f,"Furmston Court, 11  Icknield Way, Letchworth, Hertfordshire, SG6 1UJ",Primary,,Furmston Court,,,11,Icknield Way,,Letchworth,Hertfordshire,,SG6 1UJ
40393350-f8a0-47be-8a85-da720b71f316,"Stanton House Business Centre, Eastham Village Road, Eastham, Cheshire, CH62 0BJ",Primary,,Stanton House Business Centre,,,,Eastham Village Road,,Eastham,Cheshire,,CH62 0BJ
4049c20f-e897-4450-a597-0f0f5c4685d9,"93  French Street, Southampton, SO14 2DY",Primary,,,,,93,French Street,,Southampton,,,SO14 2DY
406434d7-1bb6-4913-89c3-e060c5ce0b0c,"5 Marylebone Mews, London, W1G 8PX",Primary,,,,,5,Marylebone Mews,,London,,,W1G 8PX
406aaa04-d78b-4000-a23a-cb2541dc0aa7,"Apple Cross House, 52  The Rise, Sevenoaks, Kent, TN13 1RN",Primary,,Apple Cross House,,,52,The Rise,,Sevenoaks,Kent,,TN13 1RN
406c4c1f-02f8-42b5-b8cd-1c8ba82cda09,"Building 11, Kemble Enterprise Park, Kemble, Cirencester, Gloucestershire, GL7 6BQ",Primary,,Building 11,,,,Kemble Enterprise Park,Kemble,Cirencester,Gloucestershire,,GL7 6BQ
406c4c1f-02f8-42b5-b8cd-1c8ba82cda09,"Unit 8, The IO Centre, Fingle Drive, Stonebridge, Milton Keynes, MK13 0AT",Alternate,Current,"Unit 8, The IO Centre",,,,Fingle Drive,Stonebridge,Milton Keynes,Buckinghamshire,,MK13 0AT
40d107ff-a621-4461-a940-a254525036c1,"High Edge Court, Church Street, Heage, Belper, Derbyshire, DE56 2BW",Primary,,High Edge Court,,,,Church Street,Heage,Belper,Derbyshire,,DE56 2BW
411b0b1e-b54c-4e2c-a28d-22dd4ecbda69,"1  Lyric Square, London, W6 0NB",Primary,,,,,1,Lyric Square,,London,,,W6 0NB
41a750a9-7388-450a-a400-d375bda06ea2,"90  Borough High Street, London, SE1 1LL",Primary,,,,,90,Borough High Street,,London,,,SE1 1LL
41d7b8c0-758c-429c-ac6d-6ffd3d53253b,"7  Banstead Road, Purley, CR8 3EB",Primary,,,,,7,Banstead Road,,Purley,,,CR8 3EB
42041417-66f0-4953-a6df-ac5dcfdbb974,"Unit Thurrock Enterprise Centre, 21  Maidstone Road, Grays, Essex, RM17 6NF",Primary,,Unit Thurrock Enterprise Centre,,,21,Maidstone Road,,Grays,Essex,,RM17 6NF
42afafc5-6a73-44c7-b599-5a434cf768e8,"London, United Kingdom, ",Primary,,,,,,,,London,,,
42c1e123-6ab5-448d-8c32-fd317e966ef2,"Dulwich Picture Gallery, Gallery Road, London, SE21 7AD",Primary,,Dulwich Picture Gallery,,,,Gallery Road,,London,,,SE21 7AD
42d55382-67b9-43d4-96cd-84e3f3c13786,"Princes Manor Barn, Reading Road, Harwell, Oxfordshire, OX11 0LU",Primary,,Princes Manor Barn,,,,Reading Road,,Harwell,Oxfordshire,,OX11 0LU
42ec4b80-0d5c-4103-9324-a766211da774,"9  Savoy Street, London, WC2E 7EG",Primary,,,,,9,Savoy Street,,London,,,WC2E 7EG
434bb11a-ca09-4878-a24f-04474953aa70,"Woodhall, Woodhall Lane, Calverley, Pudsey, West Yorkshire, LS28 5NY",Primary,,Woodhall,,,,Woodhall Lane,Calverley,Pudsey,West Yorkshire,,LS28 5NY
43698e4e-58af-44b4-ac50-5eea743b12f4,"The Worshipful Company of Masons, 22  Cannon Hill, Southgate, London, N14 6LG",Primary,,The Worshipful Company of Masons,,,22,Cannon Hill,Southgate,London,,,N14 6LG
43c588b4-5ab0-4458-b220-1475d44a7f0a,"Chiltern House, Earl Howe Road, Holmer Green, High Wycombe, Buckinghamshire, HP15 6QT",Primary,,Chiltern House,,,,Earl Howe Road,Holmer Green,High Wycombe,Buckinghamshire,,HP15 6QT
43c9175e-176e-48e1-b691-fb92860723e2,"43  Frith Street, London, W1D 4SA",Primary,,,,,43,Frith Street,,London,,,W1D 4SA
43e58b54-e596-4ab8-8272-9cfe84ec2fae,"25  Church Street, Warmington, Peterborough, PE8 6TE",Primary,,,,,25,Church Street,Warmington,Peterborough,,,PE8 6TE
441577d3-c23f-4283-a560-b085b76051f4,"16-25 Bastwick Street, London, EC1V 3PS",Primary,,,,,16-25,Bastwick Street,,London,,,EC1V 3PS
4433f8a3-d085-4798-96af-6679730e79f3,"141  Harley Street, London, W1G 6BQ",Primary,,,,,141,Harley Street,,London,,,W1G 6BQ
443667a0-b528-40db-a7fd-72b84f13865f,"137-145 Church Road, Harold Wood, Romford, RM3 0SH",Primary,,,,,137-145,Church Road,Harold Wood,Romford,,,RM3 0SH
44561843-f9ec-4324-baa7-4230e6315c03,"250  Harrow Road, Wembley, HA9 6QL",Primary,,,,,250,Harrow Road,,Wembley,,,HA9 6QL
446f1e0c-65d2-4f32-ae2f-afe802fb9183,"The Hive, Sawmill Walk, The Butts, Worcester, Worcestershire, WR1 3PD",Primary,,The Hive,,Sawmill Walk,,The Butts,,Worcester,Worcestershire,,WR1 3PD
44787837-32df-477f-bc48-979e45df020e,"31  Hill Street, London, W1J 5LS",Primary,,,,,31,Hill Street,,London,,,W1J 5LS
447e4f37-9dfd-4581-9566-b2d0f5634029,"Prospect House, Garden Lane, Sherburn in Elmet, North Yorkshire, LS25 6AT",Primary,,Prospect House,,,,Garden Lane,,Sherburn in Elmet,North Yorkshire,,LS25 6AT
448cb393-8e20-44d6-a5db-123ca97f56bc,"The Coach House, 6  Swakeleys Road, Ickenham, Uxbridge, UB10 8BG",Primary,,The Coach House,,,6,Swakeleys Road,Ickenham,Uxbridge,,,UB10 8BG
44a96833-3898-4e61-b1d3-ceb1214b2a11,"The Old School House, 178  Ebury Street, London, SW1W 8UP",Primary,,The Old School House,,,178,Ebury Street,,London,,,SW1W 8UP
44b4313a-44b8-4e2b-8eaf-bf60c24e4ef4,"2  Turnberry Quay, London, E14 9RD",Primary,,,,,2,Turnberry Quay,,London,,,E14 9RD
4508bd14-13da-415d-8f99-2d33fd79c191,"Maritime House, Old Town, London, SW4 0JW",Primary,,Maritime House,,,,Old Town,,London,,,SW4 0JW
452337ae-4b89-4a80-bf12-975c7052e14a,"Purelake House, 7  Plaistow Lane, Bromley, BR1 4DS",Primary,,Purelake House,,,7,Plaistow Lane,,Bromley,,,BR1 4DS
4571d08d-4163-434a-8d05-b1cd7e0579fb,"Sandgate Hall, Albion Road, North Shields, Tyne and Wear, NE30 2RQ",Primary,,Sandgate Hall,,,,Albion Road,,North Shields,Tyne and Wear,,NE30 2RQ
457e6566-1107-4483-9a55-93f2ccc9b129,"Isle House, Brussels Green, Darsham, Saxmundham, Suffolk, IP17 3RN",Primary,,Isle House,,,,Brussels Green,Darsham,Saxmundham,Suffolk,,IP17 3RN
459c1774-afa3-4e43-8540-80f47fe0f9c4,"1  Athenaeum Road, Whetstone, London,  N20 9AA",Primary,,,,,1,Athenaeum Road,Whetstone,London,,, N20 9AA
463901cc-a917-46a4-ad7d-8ab75c4a296f,"5th Floor, 89 New Bond Street, London, W1S 1DA",Primary,,5th Floor,,,89,New Bond Street,,London,,,W1S 1DA
46480542-0ef2-4d6e-809c-d50e7daca010,"Department of Archaeology, South Road, Durham, DH1 3LE",Primary,,Department of Archaeology,,,,South Road,,Durham,,,DH1 3LE
46c2f077-391a-4ce9-9328-da48665c42f2,"Phoneix Yard, 64  Kings Cross Road, London, WC1X 9LW",Primary,,Phoneix Yard,,,64,Kings Cross Road,,London,,,WC1X 9LW
46f3271c-5075-4a26-85b6-715a8c45bab4,"Pickford's Wharf, Clink Street, London, SE1 9DG",Primary,,Pickford's Wharf,,,,Clink Street,,London,,,SE1 9DG
46f3271c-5075-4a26-85b6-715a8c45bab4,"Merchant's House, Wapping Road, Bristol, BS1 4RW",Alternate,Current,Merchant's House,,,,Wapping Road,,Bristol,,,BS1 4RW
47228583-5ce8-4d49-b703-558fa8fc5b80,"150  London Wall, London, EC2Y5HN",Primary,,,,,150,London Wall,,London,,,EC2Y5HN
474a2a55-28e0-4bb5-a886-d29ec1169399,"67  Brook Street, London, W1K 4NJ",Primary,,,,,67,Brook Street,,London,,,W1K 4NJ
47cb9ce3-72c5-441b-901e-f664affd104c,"Old Church Court, Claylands Road, The Oval, London, SW8 1NZ",Primary,,Old Church Court,,,,Claylands Road,The Oval,London,,,SW8 1NZ
47e76eed-a9e1-425c-8ffe-7ecbc31801dd,"Unit 6 Block C, Western Industrial Estate, Caerphilly, CF83 1BQ",Primary,,Unit 6 Block C,,,,Western Industrial Estate,,Caerphilly,,,CF83 1BQ
485c75e4-a1c9-44f5-9af4-cf3b3fac09fa,"66 Porchester Road, London, W2 6ET",Primary,,,,,66,Porchester Road,,London,,,W2 6ET
4882fccb-0b73-4aff-9647-9b8163419363,"1  Farringdon Street, London, EC4M 7LG",Primary,,,,,1,Farringdon Street,,London,,,EC4M 7LG
488f2de2-7b12-4ca3-83a1-4b03b7661fc5,"25  Berkeley Square, London, ",Primary,,,,,25,Berkeley Square,,London,,,
48c6feb0-1f15-402f-b488-6098e4c90fa7,"Blue Lion Place, 237  Long Lane, London, SE1 4PX",Primary,,,,Blue Lion Place,237,Long Lane,,London,,,SE1 4PX
48f36013-0ade-40d5-b89f-ef9fe6f498b9,"The Old School, Stillhouse Lane, Bristol, BS3 4EB",Primary,,The Old School,,,,Stillhouse Lane,,Bristol,,,BS3 4EB
48fccbbc-4e43-4f4e-a7b2-d7df8d0271ba,"Unit 13 Wheatley Business Centre, Wheatley, Oxfordshire, OX33 1XW",Primary,,Unit 13,,,,Wheatley Business Centre,,Wheatley,Oxfordshire,,OX33 1XW
49600b2f-a374-42d0-b9bd-9e6787c1f134,"Victoria House, 10 Woolwich Manor Way, Beckton, London, E6 5PA",Primary,,Victoria House,,,10,Woolwich Manor Way,Beckton,London,,,E6 5PA
49e27573-a9e4-486d-9b4c-033256d5a694,"Unit 8b - The 1929 Shop, Merton Abbey Mills, Watermill Way, London, SW19 2RD",Primary,,"Unit 8b - The 1929 Shop, Merton Abbey Mills",,,,Watermill Way,,London,,,SW19 2RD
49f9d7d8-52c0-4248-bab2-12cc3768a974,"Waltham House, 11  Unity Road, Stowmarket, IP14 1AS",Primary,,Waltham House,,,11,Unity Road,,Stowmarket,,,IP14 1AS
49fb2e82-cfcd-4ad9-8f98-202aa5c5f8b1,"11th Floor, 140 London Wall, London, EC2Y 5DN",Primary,,11th Floor,,,140,London Wall,,London,,,EC2Y 5DN
4a58e805-010f-4790-8bea-6c80404cddc4,"Chelsea House, Westgate, London, W5 1DR",Primary,,Chelsea House,,,,Westgate,,London,,,W5 1DR
4a9d7e1e-fdf7-4a4b-9aba-e6c473823ba1,"Colin Sanders Innovation Centre, Mewburn Road, Banbury, Oxfordshire, OX16 9PA",Primary,,Colin Sanders Innovation Centre,,,,Mewburn Road,,Banbury,Oxfordshire,,OX16 9PA
4aa34b47-e7ed-4cd8-90e6-21c03a279c10,"250  York Road, Battersea, London, SW11 3SJ",Primary,,,,,250,York Road,Battersea,London,,,SW11 3SJ
4ab08bbb-29c0-417e-a4b4-a4b44382931c,"Miltons Yard, Petworth Road, Witley, Godalming, Surrey, GU8 5LH",Primary,,,,Miltons Yard,,Petworth Road,Witley,Godalming,Surrey,,GU8 5LH
4ac2077e-7084-4551-9948-13eca9ff6562,"Southwark Cathedral, London Bridge, London, SE1 9DA",Primary,,Southwark Cathedral,,,,London Bridge,,London,,,SE1 9DA
4acfa1ab-48c0-4ad6-b776-b83565a7d86e,"35 (4) Clarendon Square, Royal Leamington Spa, Warwickshire, CV32 5QY",Primary,,,,,35 (4),Clarendon Square,,Royal Leamington Spa,Warwickshire,,CV32 5QY
4af17d7c-3ac3-4c1d-965e-84e049a12bf8,"Mermaid Conference Centre, 2  Puddle Dock, Blackfriars, London, EC4V 3DB",Primary,,Mermaid Conference Centre,,,2,Puddle Dock,Blackfriars,London,,,EC4V 3DB
4b0074e6-e847-46c6-b79b-01672c161bed,"1 Silk Street, London, EC2Y 8HQ",Primary,,,,,1,Silk Street,,London,,,EC2Y 8HQ
4b014931-fd25-4e50-b6ac-25e4e501062a,"Grosvenor House, 1  St Mary's Street, Worcester, Worcestershire, WR1 1HA",Primary,,Grosvenor House,,,1,St Mary's Street,,Worcester,Worcestershire,,WR1 1HA
4b7d07fc-7a18-4653-bdd2-e4c43138b25f,"49a Cicada Road, London, SW18 2NN",Primary,,,,,49a,Cicada Road,,London,,,SW18 2NN
4ba85734-5b2c-45c7-8135-9f3e9e56faca,"22 Gordon Street, London, WC1H 0QB",Primary,,,,,22,Gordon Street,,London,,,WC1H 0QB
4bf6e247-f4dc-465b-b4de-6e27e2035ece,"2 Anglo Office Park, 67 White Lion Road, Amersham, Buckingham, HP7 9FB",Primary,,,2,Anglo Office Park,67,White Lion Road,,Amersham,Buckingham,,HP7 9FB
4c338e03-5079-43d1-b264-4f3cdaecd683,"25th Floor, 1 Canada Square, Canary Wharf, London, E14 5AB",Primary,,25th Floor,,,1,Canada Square,Canary Wharf,London,,,E14 5AB
4c417c36-7b91-41f6-8c51-011dc3cb1658,"Argyle House, Joel Street, Northwood Hills, Northwood, HA6 1LN",Primary,,Argyle House,,,,Joel Street,Northwood Hills,Northwood,,,HA6 1LN
4c8929fa-bb6c-4d23-a511-fb089e46afda,"2  Westway Close, Castle Combe, Wiltshire, SN14 7QZ",Primary,,,,,2,Westway Close,,Castle Combe,Wiltshire,,SN14 7QZ
4ca00268-64aa-4c94-be80-51ede65d62e8,"16 Blacklands Way, Abingdon Business Park, Abingdon, Oxfordshire, OX14 1DY",Primary,,,,,16,Blacklands Way,Abingdon Business Park,Abingdon,Oxfordshire,,OX14 1DY
4cc8e6b9-2f7e-456f-8cc2-a9feefab97d4,"22  Rupert Street, London, W1V 7FN",Primary,,,,,22,Rupert Street,,London,,,W1V 7FN
4ced7fcb-a344-43e5-b586-df27860da0f0,"Carlton House, Carlton Terrace, Brighton, East Sussex, BN41 1UR",Primary,,Carlton House,,,,Carlton Terrace,,Brighton,East Sussex,,BN41 1UR
4cfa6103-3eac-40c1-9abd-3a6c203a644a,"Room 340 420 Lexington Avenue, New York, USA, NY 10170",Primary,,,Room 340,,420,Lexington Avenue,,New York,,United States of America,NY 10170
4e4e37bf-336a-40da-ace0-917eb76bc796,"Clearview House, 201  Pinner Road, Northwood, HA6 1BZ",Primary,,Clearview House,,,201,Pinner Road,,Northwood,,,HA6 1BZ
4e6c714a-94dc-42bb-b2c0-9f5d8e6817b5,"The Lodge, Station Road, Chinnor, Oxfordshire, OX39 4HA",Primary,,The Lodge,,,,Station Road,,Chinnor,Oxfordshire,,OX39 4HA
4ef98812-4291-4a41-b5ed-c03d640891ad,"5  Harvest Bank Road, West Wickham, BR4 9DL",Primary,,,,,5,Harvest Bank Road,,West Wickham,,,BR4 9DL
4efe0c8c-5b9f-4acb-bb26-b2dee64c83fa,"Portland House, Bickenhill Lane, Solihull, Birmingham, B37 7BQ",Primary,,Portland House,,,,Bickenhill Lane,Solihull,Birmingham,,,B37 7BQ
4efedb63-8602-42c5-82ef-d88ed1fc126c,"Somerset House South Building, Strand, London, WC2R 1LA",Primary,,Somerset House South Building,,,,Strand,,London,,,WC2R 1LA
4f02bf39-9c85-4ed6-b79d-28563caf37d7,"Units 1 & 2, 2 Chapel Place, Portslade, Brighton, 
East Sussex, BN41 1DR",Primary,,Units 1 & 2,,,2,Chapel Place,Portslade,Brighton,"
East Sussex",,BN41 1DR
4f02bf39-9c85-4ed6-b79d-28563caf37d7,"27  Eastways, Witham, Essex, CM8 3YQ",Alternate,Current,,,,27,Eastways,,Witham,Essex,,CM8 3YQ
4f417019-ee02-47a9-82ed-e33ccbc5a608,"Environmental Services - Civic Centre PO Box 53, Silver Street, Enfield, EN1 3XE",Primary,,Environmental Services - Civic Centre PO Box 53,,,,Silver Street,,Enfield,,,EN1 3XE
4f7a0eb5-3533-4c73-8fc2-3a0b81a2c3a7,"6  Guildford Way, Loughborough, Leicestershire, LE11 3SE",Primary,,,,,6,Guildford Way,,Loughborough,Leicestershire,,LE11 3SE
4fd68fa4-2e2d-4cf3-b75a-3d269ccb10ba,"14 Regent's Wharf, All Saints Street, King's Cross, London, N1 9RL",Primary,,,14,Regent's Wharf,,All Saints Street,King's Cross,London,,,N1 9RL
4fd68fa4-2e2d-4cf3-b75a-3d269ccb10ba,"Helmont House, Churchill Way, Cardiff, CF10 2HE",Alternate,Current,Helmont House,,,,Churchill Way,,Cardiff,,,CF10 2HE
4fe0c9bb-e04f-433b-865f-11136bca2860,"Head Office, 130  Wilton Road, London, SW1V 1LQ",Primary,,Head Office,,,130,Wilton Road,,London,,,SW1V 1LQ
50073790-d8af-484f-82f2-0c34d4ca23ed,"39  Manton Avenue, London, W7 2DY",Primary,,,,,39,Manton Avenue,,London,,,W7 2DY
501dd5b6-167a-49d3-a7c0-b04fe1498ad7,"Floor 5 - Cornerblock, 2 Cornwall Street, Birmingham, B3 2DX",Primary,,Floor 5 - Cornerblock,,,2,Cornwall Street,,Birmingham,,,B3 2DX
509b7ca4-a1f3-4685-877c-f397eb25ab3f,"St James Hall, Moore Park Road, London, SW6 2JW",Primary,,St James Hall,,,,Moore Park Road,,London,,,SW6 2JW
50b3eba0-8eba-48c6-ac81-76f1808df22b,"Architecture and Conservation, 43  New Road, London, E1 1HE",Primary,,Architecture and Conservation,,,43,New Road,,London,,,E1 1HE
50cf138d-fc3a-4ca4-94a3-6a9d592150da,"Jacobs Court, 31  Sandford Road, Leeds, LS5 3RR",Primary,,Jacobs Court,,,31,Sandford Road,,Leeds,,,LS5 3RR
5124512b-d12d-4821-addc-28ce0a1fcd21,"Bidwell House, Trumpington Road, Cambridge, CB2 9LD",Primary,,Bidwell House,,,,Trumpington Road,,Cambridge,,,CB2 9LD
514955eb-8955-4727-92d8-f581dea87b90,"41-43 Maddox Street, Kensington, London, W1S 2PD",Primary,,,,,41-43,Maddox Street,Kensington,London,,,W1S 2PD
51962498-2fe1-4eb6-9ffc-e097a16ae71a,"Alberton House, St Mary's Parsonage, Manchester, M3 2WJ",Primary,,Alberton House,,,,St Mary's Parsonage,,Manchester,,,M3 2WJ
51fa8c73-e65f-4db8-bb6b-5c73cc5f30ef,"2nd Floor, 46  Bow Lane, London, EC4M 9DL",Primary,,2nd Floor,,,46,Bow Lane,,London,,,EC4M 9DL
52909575-1813-491f-8e71-402b2f8acc64,"Brunel Science Park, Coopers Hill Lane, Englefield Green, Egham, Surrey, TW20 0JZ",Primary,,Brunel Science Park,,,,Coopers Hill Lane,Englefield Green,Egham,Surrey,,TW20 0JZ
5290aafc-516d-4556-83f6-5e71073eec71,"Magistrates Building, Town Hall Complex, Forest Road, Walthamstow, London, E17 4JF",Primary,,Magistrates Building,,Town Hall Complex,,Forest Road,Walthamstow,London,,,E17 4JF
52b361fa-f709-451b-b2bc-42ecc76f8f61,"Marlborough Hse, Upper Marlborough Road, St Albans, AL1 3UT",Primary,,Marlborough Hse,,,,Upper Marlborough Road,,St Albans,,,AL1 3UT
53407431-999d-4423-ada8-fa2077c40805,"Suite 9 - Claremont Business Centre, 6  Claremont Road, Surbiton, KT6 4RA",Primary,,Suite 9 - Claremont Business Centre,,,6,Claremont Road,,Surbiton,,,KT6 4RA
53443703-bce3-4e3c-a147-fe59826abe4e,"Isambard House, 60  Weston Street, London, SE1 3QJ",Primary,,Isambard House,,,60,Weston Street,,London,,,SE1 3QJ
5367ef65-9e4f-4a41-bcee-141f6bb08d34,"349  Ilderton Road, London, SE15 1NW",Primary,,,,,349,Ilderton Road,,London,,,SE15 1NW
536f10e4-61e7-4624-88d3-7736fc6c4f42,"4-8 Emerson Street, London, SE1 9DU",Primary,,,,,04-Aug,Emerson Street,,London,,,SE1 9DU
538e5d07-ff9d-4baf-a054-ca214683d2f7,"Unit 3, 1-4 Christina Street, London, EC2A 4PA",Primary,,Unit 3,,,01-Apr,Christina Street,,London,,,EC2A 4PA
539ebccd-0cb2-4527-9253-948828bf8402,"Syon Park, Brentford, Middlesex, TW8 8JF",Primary,,,,,,Syon Park,,Brentford,Middlesex,,TW8 8JF
54351b07-355c-44fc-9e86-adcb4bb7cd59,"13 Axis Court, Mallard Way, Swansea Vale, Swansea, SA7 0AJ",Primary,,,13,Axis Court,,Mallard Way,Swansea Vale,Swansea,,,SA7 0AJ
54575c5f-9fc8-473d-84e3-d960a39c2251,"151-153 Bermondsey Street, London, SE1 3HA",Primary,,,,,151-153,Bermondsey Street,,London,,,SE1 3HA
549cfda4-50df-454f-aa01-c7312223d234,"69  Park Lane, Croydon, CR0 1BY",Primary,,,,,69,Park Lane,,Croydon,,,CR0 1BY
54e85320-7312-403c-80b1-1ee8ad3a58bb,"Ground Floor - Ashford Offices, Ashford Road, London, NW2 6TP",Primary,,Ground Floor - Ashford Offices,,,,Ashford Road,,London,,,NW2 6TP
54e94a19-a05b-4002-8e8e-4e8850989402,"127 Metal Box Factory, 30 Great Guildford Street, London, SE1 0HS",Primary,,,127,Metal Box Factory,30,Great Guildford Street,,London,,,SE1 0HS
54e953e8-628c-44d1-8d6b-9c1c740a47f0,"Second Floor, 21  St Georges Road, London, SE1 6ES",Primary,,Second Floor,,,21,St Georges Road,,London,,,SE1 6ES
5531b17e-67b6-42db-bd12-164b96eee41a,"Mortimer Wheeler House, 46 Eagle Wharf Road, London, N1 7ED",Primary,,Mortimer Wheeler House,,,46,Eagle Wharf Road,,London,,,N1 7ED
556400e6-f5e1-4bcc-8d13-153c559c1d25,"2-3 Woodstock Street, London, W1C 2AB",Primary,,,,,02-Mar,Woodstock Street,,London,,,W1C 2AB
55fe888f-1807-40fd-8b9d-50c3377c50c4,"Artillery House, 11-19 Artillery Row, Victoria, London, SW1P 1RT",Primary,,Artillery House,,,Nov-19,Artillery Row,Victoria,London,,,SW1P 1RT
561c46ea-62a9-48ea-9b16-044b751ad327,"Unit 17 - Spectrum House, 32-34 Gordon House Road, London, NW5 1LP",Primary,,Unit 17 - Spectrum House,,,32-34,Gordon House Road,,London,,,NW5 1LP
5697c157-106e-4082-97ce-5d5b249610d5,"3A Woodborough Road, Putney, London, SW15 6PX",Primary,,,,,3A,Woodborough Road,Putney,London,,,SW15 6PX
570623b2-3559-4db0-854d-49ce50345ba5,"38 Elvendon Road, Goring on Thames, South Oxfordshire, RG8 0DU",Primary,,,,,38,Elvendon Road,,Goring on Thames,South Oxfordshire,,RG8 0DU
5710deee-851d-4e1e-bebd-f3d8b33046bd,"Churchill House, 6  Cherstey Road, Byfleet, Surrey, KT14 7AG",Primary,,Churchill House,,,6,Cherstey Road,,Byfleet,Surrey,,KT14 7AG
57501567-615e-4ee9-bb11-da76b9c7df16,"70 Cowcross Street, London, EC1M 6EJ",Primary,,,,,70,Cowcross Street,,London,,,EC1M 6EJ
57c06931-001c-4320-835d-dc4c197e4d4b,"Britanic House, 17  Highfield Road, London, NW11 9LS",Primary,,Britanic House,,,17,Highfield Road,,London,,,NW11 9LS
57d73eee-118f-4f21-b183-c8b82875e61c,"95  Kingsland Road, London, E2 8AG",Primary,,,,,95,Kingsland Road,,London,,,E2 8AG
5803cec4-37da-4375-b3fc-a9bf9f0b3728,"9-13 Arcola Street, London, E8 2DJ",Primary,,,,,Sep-13,Arcola Street,,London,,,E8 2DJ
580c88f9-a48d-477c-a0ec-bdae3f70623c,"Amphenal Business Complex, Thanet Way, Whitstavle, Kent, CT5 3JF",Primary,,Amphenal Business Complex,,,,Thanet Way,,Whitstavle,Kent,,CT5 3JF
58162ac3-d00f-488b-8961-1ea040cfc1fa,"43-45 Portman Square, London, W1H 6LY",Primary,,,,,43-45,Portman Square,,London,,,W1H 6LY
58171dba-948c-46ef-ad86-983ef54e6be3,"Highgate Business Centre, 33  Greenwood Place, London, NW5 1LB",Primary,,Highgate Business Centre,,,33,Greenwood Place,,London,,,NW5 1LB
58857103-8919-4a67-aba5-356329a589d7,"Ogier House, The Esplanade, St Helier, Jersey, JE4 9WG",Primary,,Ogier House,,,,The Esplanade,,St Helier,Jersey,,JE4 9WG
58a94da1-7119-4854-aa72-27673b844bb8,"54a High Pavement, Nottingham, NG1 1HW",Primary,,,,,54a,High Pavement,,Nottingham,,,NG1 1HW
58b80fcf-301b-42d1-a3c9-8411c5bb0e93,"PO Box 59536, Dulwich, London, SE21 9BG",Primary,,PO Box 59536,,,,,Dulwich,London,,,SE21 9BG
58f5945f-8511-415d-8f12-8c5905e56504,"The Gas Office, 4 Cromac Quay, Ormeau Road, Belfast, BT7 2JD",Primary,,The Gas Office,4,Cromac Quay,,Ormeau Road,,Belfast,,,BT7 2JD
59513921-217e-4253-8c86-1f0d10fbdf7e,"Freshwater House, 158-162 Shaftsbury Avenue, London, WC2H 8HR",Primary,,Freshwater House,,,158-162,Shaftsbury Avenue,,London,,,WC2H 8HR
5b209b1f-a13e-4456-bedd-f73dbe0be472,"Royal London House, Alderley Road, Wilmslow, Cheshire, SK9 1PF",Primary,,Royal London House,,,,Alderley Road,,Wilmslow,Cheshire,,SK9 1PF
5c030ed3-a525-4232-ae12-0683a6da1236,"School of Archaeology, Geography and Environmental Science - PO Box 227, Whiteknights, Reading, Berkshire, RG6 6AB",Primary,,"School of Archaeology, Geography and Environmental Science - PO Box 227",,,,Whiteknights,,Reading,Berkshire,,RG6 6AB
5c12e01d-39b7-4ed9-b9cb-81c0c4e3cd7e,"68A Kelmscott Road, London, SW11 6PT",Primary,,,,,68A,Kelmscott Road,,London,,,SW11 6PT
5c49ac85-ecd8-4ea5-aefb-a35f698eccfc,"First Floor, Kirkdale House, 7  Kirkdale Road, Leytonstone, London, E11 1HP",Primary,,"First Floor, Kirkdale House",,,7,Kirkdale Road,Leytonstone,London,,,E11 1HP
5c4f800e-2dd2-4f6b-ab82-18570c25872b,"Temple Wharf, 33A Bermondsey Wall West, London, SE16 4TQ",Primary,,Temple Wharf,,,33A,Bermondsey Wall West,,London,,,SE16 4TQ
5c7d5d6b-3f51-4be4-8dd5-e3e8d4a48033,"32  Trinity Street, Norwich, Norfolk, NR2 2BQ",Primary,,,,,32,Trinity Street,,Norwich,Norfolk,,NR2 2BQ
5c870c20-cc8e-4f76-96a8-eaf8140ee887,"Hiview House, Highgate Road, London, NW5 1TN",Primary,,Hiview House,,,,Highgate Road,,London,,,NW5 1TN
5c890db8-748b-4c99-badf-e9f5c88a52b8,"Maidstone Museum, St Faith's Street, Maidstone, ME14 1LH",Primary,,Maidstone Museum,,,,St Faith's Street,,Maidstone,,,ME14 1LH
5cfacd30-5297-4500-8358-34630137436d,"Julco House, 26-28 Great Portland Street, London, W1W 8QY",Primary,,Julco House,,,26-28,Great Portland Street,,London,,,W1W 8QY
5d72fcdd-415e-460e-b68a-fac73769d63d,"NFC Homes Limited, 78  Pall Mall, London, SW1Y 5ES",Primary,,NFC Homes Limited,,,78,Pall Mall,,London,,,SW1Y 5ES
5dc56588-c407-4b24-955c-5334091429d5,"56  Clerkenwell Road, London, EC1M 5PX",Primary,,,,,56,Clerkenwell Road,,London,,,EC1M 5PX
5e02c673-b9ef-405c-9e62-585ffda3802c,"6th Floor, 25  Farringdon Street, London, EC4A 4AB",Primary,,6th Floor,,,25,Farringdon Street,,London,,,EC4A 4AB
5e29115f-9910-48b3-8b02-e3adae5ecb06,"72  Nithdale Road, London, SE18 3PD",Primary,,,,,72,Nithdale Road,,London,,,SE18 3PD
5e7e850a-b9b6-4e4f-8314-0c7efad0a52b,"60  New Broad Street, London, EC2M 1JJ",Primary,,,,,60,New Broad Street,,London,,,EC2M 1JJ
5eccb629-a640-4961-9e99-adbf0b4e82b7,"10  Norwich Street, London, EC4A 1BD",Primary,,,,,10,Norwich Street,,London,,,EC4A 1BD
5f4e15a2-a619-494b-b0b0-4386e58be9c7,"Letchworth House, Chesney Wold, Bleak Hall, Milton Keynes, Buckinghamshire, MK6 1NE",Primary,,Letchworth House,,,,Chesney Wold,Bleak Hall,Milton Keynes,Buckinghamshire,,MK6 1NE
5fca9dbf-9064-4097-a0e3-4733ddcb1b00,"60  Station Road, Chingford, London, E4 7BE",Primary,,,,,60,Station Road,Chingford,London,,,E4 7BE
5fd2f9c7-1e45-4152-af84-5770f25a7314,"Unit 6, Cutlers Road, Saltcoates Industrial Estate, Chelmsford, Essex, CM3 5XJ",Primary,,Unit 6,,,,Cutlers Road,Saltcoates Industrial Estate,Chelmsford,Essex,,CM3 5XJ
6077cfed-0135-47cd-bba8-fca1f0cf5c08,"Park Row, Greenwich, London, SE10 9NF",Primary,,,,,,Park Row,Greenwich,London,,,SE10 9NF
608b1262-9e08-44eb-a7d9-92ea24cb7466,"Churchill House, Sopwith Crescent, Hurricane Way, Wickford, Essex, SS11 8YU",Primary,,Churchill House,,Sopwith Crescent,,Hurricane Way,,Wickford,Essex,,SS11 8YU
60bcd53f-0d96-43ab-85ae-0db421b99481,"Laurence House, 1 Catford Road, Catford, London, SE6 4RU",Primary,,Laurence House,,,1,Catford Road,Catford,London,,,SE6 4RU
60d65287-c67c-44fb-93ca-f7168f47bdef,"6 Wendell Road, London, W12 9RT",Primary,,,,,6,Wendell Road,,London,,,W12 9RT
60ef6772-3791-4923-8342-27093af62c9e,"213 - 215 New North Road, London, N1 6SU",Primary,,,,,213 - 215,New North Road,,London,,,N1 6SU
620d8e60-f356-4dfb-bc1d-ac96b3039a2a,"Burderop Park, Swindon, Wiltshire, SN4 0QD",Primary,,,,,,Burderop Park,,Swindon,Wiltshire,,SN4 0QD
62889ad2-4d9b-4a33-9c6e-11af4ce74d7c,"Broxhill Road, Havering-atte-Bower, Romford, RM4 1QH",Primary,,,,,,Broxhill Road,Havering-atte-Bower,Romford,,,RM4 1QH
62f32fa7-ce23-44ef-822e-7800083f62f5,"Area 1C - Nobel House, 17  Smith Square, London, SW1P 3JR",Primary,,Area 1C - Nobel House,,,17,Smith Square,,London,,,SW1P 3JR
633a8fff-2b34-41d1-a723-4daad35131f1,"10 Cawdry Buildings, Fountain Street, Leek, Staffordshire, ST13 6JP",Primary,,,10,Cawdry Buildings,,Fountain Street,,Leek,Staffordshire,,ST13 6JP
639390d0-f8b9-44f4-b0e5-122e08f9a6d7,"Central House, 32-66 High Street, Old Ford, London, E15 2PF",Primary,,Central House,,,32-66,High Street,Old Ford,London,,,E15 2PF
64077303-13e1-4f6b-b858-dc4b772e6eea,"Rodbourne Rail Business Centre, Grange Lane, Malmesbury, Wiltshire, SN16 0ES",Primary,,Rodbourne Rail Business Centre,,,,Grange Lane,,Malmesbury,Wiltshire,,SN16 0ES
64688e6a-7c96-4a73-af4f-6c58504b4f1c,"The House of Detention, Clerkenwell Close, London, EC1R 0AS",Primary,,The House of Detention,,,,Clerkenwell Close,,London,,,EC1R 0AS
6494147a-756b-4e52-958a-a9c5b65a20a9,"Studio 9, 14 Southgate Road, London, SE1 0HX",Primary,,Studio 9,,,14,Southgate Road,,London,,,SE1 0HX
64ace8a7-649a-4965-a897-b73e95b047e3,"Victoria House, 10  Windsor Street, Wolverton, Milton Keynes, MK12 5AU",Primary,,Victoria House,,,10,Windsor Street,,Wolverton,Milton Keynes,,MK12 5AU
64d91a9e-55ea-4207-809a-b6b4afdf8d23,"The Gallery, 96  King Street, Cambridge, Cambridgeshire, CB1 1LN",Primary,,The Gallery,,,96,King Street,,Cambridge,Cambridgeshire,,CB1 1LN
655412f4-2ed6-44f2-a790-bfa55e523439,"Becontree Avenue, Dagenham, RM8 3HT",Primary,,,,,,Becontree Avenue,,Dagenham,,,RM8 3HT
6584ba11-5ad1-4825-8edf-50af5597e56c,"Fairfield Court, Fairfield Road, Braintree, Essex, CM7 3YQ",Primary,,Fairfield Court,,,,Fairfield Road,,Braintree,Essex,,CM7 3YQ
65fcee1b-5417-42c5-9c01-8363d47c3559,"Esher STW, Farm Road, Esher, Surrey, KT10 8AU",Primary,,Esher STW,,,,Farm Road,,Esher,Surrey,,KT10 8AU
6674a9be-7780-427e-8d19-0a6cc2d72a6f,"The Old Church, Whyke Road,  Chichester, PO19 8HA",Primary,,The Old Church,,,,Whyke Road,,, Chichester,,PO19 8HA
668052b6-ef61-407c-9be5-70f47abde244,"The Charlotte Building, 17  Gresse Street, London, W1T 1QL",Primary,,The Charlotte Building,,,17,Gresse Street,,London,,,W1T 1QL
66922642-8c1b-4419-9437-737170a10c07,"West Yorkshire Joint Services, Nepshaw Lane South, Morley, Leeds, West Yorkshire, LS27 7JQ",Primary,,West Yorkshire Joint Services,,,,Nepshaw Lane South,Morley,Leeds,West Yorkshire,,LS27 7JQ
66dd221a-20c6-4e4b-9987-690fedf20c75,"19  High Street, Pewsey, Wiltshire, SN9 5AF",Primary,,,,,19,High Street,,Pewsey,Wiltshire,,SN9 5AF
673a7353-25fc-4406-b1d0-2ed0bf257d48,"Birkett House, 27  Albemarle Street, London, W1S 4BQ",Primary,,Birkett House,,,27,Albemarle Street,,London,,,W1S 4BQ
673b7beb-06d8-4226-9bd0-e2468c49a031,"2 Bolton House, Mereway, Wootton Hall Park, Northampton, Northamptonshire, NN4 9BE",Primary,,,2,Bolton House,,Mereway,Wootton Hall Park,Northampton,Northamptonshire,,NN4 9BE
6744e523-3399-44d6-8dff-903c73056681,"33 Holborn, London, EC1N 2HT",Primary,,,,,33,Holborn,,London,,,EC1N 2HT
67a44d03-0c2d-4fb1-b061-40e7e14feabf,"Rush Green Campus, Dagenham Road, Romford, Essex, RM7 0XU",Primary,,Rush Green Campus,,,,Dagenham Road,,Romford,Essex,,RM7 0XU
685629bd-52c5-42b7-afb2-c16a115bea23,"5  Rectory Road, Caversham, Reading, Berkshire, RG4 7SH",Primary,,,,,5,Rectory Road,Caversham,Reading,Berkshire,,RG4 7SH
688a2684-c2cd-4326-8dd7-8a36c67dd352,"Old House, 59  Church Street, Digby, Lincolnshire, LN4 3LZ",Primary,,Old House,,,59,Church Street,,Digby,Lincolnshire,,LN4 3LZ
68a40a2a-3d6d-4303-afae-5fa220efbc02,"6  All Souls Road, Ascot, Berkshire, SL5 9EA",Primary,,,,,6,All Souls Road,,Ascot,Berkshire,,SL5 9EA
690f9c81-32f1-41db-89fb-7fd7961af7e1,"Fanshaw House, Fanshaw Street, London, N1 6HX",Primary,,Fanshaw House,,,,Fanshaw Street,,London,,,N1 6HX
6954ac7e-670e-4758-98a6-87fc6aced826,"Planning and Development Department - Bexley Civic Offices, 2 Watling Street, Bexleyheath, DA6 7AT",Primary,,Planning and Development Department - Bexley Civic Offices,,,2,Watling Street,,Bexleyheath,,,DA6 7AT
69aa2da7-d1fd-4ee0-9298-c1aceca5f5e0,"62a Balcombe Street, Marylebone, London, NW1 6NE",Primary,,,,,62a,Balcombe Street,Marylebone,London,,,NW1 6NE
69c499d5-5b23-4269-932a-2081f7c0b00a,"34-35 Hatton Gardens, Holborn, London, EC1N 8DX",Primary,,,,,34-35,Hatton Gardens,Holborn,London,,,EC1N 8DX
6a1a8a02-6fe5-4bf7-8152-f015c9d2677a,"Planning - Hackney Service Centre, 1  Hillman Street, Hackney, London, E8 1DY",Primary,,Planning - Hackney Service Centre,,,1,Hillman Street,Hackney,London,,,E8 1DY
6a37c72c-e1a5-4348-9bd1-8d298ba5fb2a,"Oxford House, 76  Oxford Street, Westminster, London, W1D 1BS",Primary,,Oxford House,,,76,Oxford Street,Westminster,London,,,W1D 1BS
6a5cefd0-8e38-4e8c-8a7b-69616eba1555,"23 Savile Row, London, W1S 2ET",Primary,,,,,23,Savile Row,,London,,,W1S 2ET
6a70cf83-bcd8-48b6-a6a2-f4b90e2e32e2,"Mortimer Wheeler House, 46 Eagle Wharf Road, London, N1 7ED",Primary,,Mortimer Wheeler House,,,46,Eagle Wharf Road,,London,,,N1 7ED
6ac80559-7905-4d19-b430-3c2cbc8ed60a,"10  Collingwood Road, Witham, Essex, CM8 2EA",Primary,,,,,10,Collingwood Road,,Witham,Essex,,CM8 2EA
6b2c3305-ced1-4660-9396-d3a97c4641c8,"Smeckley Wood Close, Chesterfield Trading Estate, Chesterfield, Derbyshire, S41 9PZ",Primary,,,,,,Smeckley Wood Close,Chesterfield Trading Estate,Chesterfield,Derbyshire,,S41 9PZ
6b34fb48-f4ba-44ab-9436-14c3bee41df3,"Building 21, Westdown Camp, Tilshead, Salisbury, Wiltshire, SP3 4RS",Primary,,Building 21,,,,Westdown Camp,Tilshead,Salisbury,Wiltshire,,SP3 4RS
6b701679-ab03-4df7-9c66-7c1866cbcb54,"Henley Office Park, 3  Doddington Road, Lincoln, LN6 3QR",Primary,,Henley Office Park,,,3,Doddington Road,,Lincoln,,,LN6 3QR
6b993d94-026a-42cd-984f-f5f7afc5b6b8,"Lancaster House, Hampshire Court, Newcastle Upon Tyne, Tyne and Wear, NE4 7YH",Primary,,Lancaster House,,,,Hampshire Court,,Newcastle Upon Tyne,Tyne and Wear,,NE4 7YH
6bb111a6-a72a-4f35-b7c3-2292d6f8f2e2,"21  Mandalay Road, London, SW4 9EE",Primary,,,,,21,Mandalay Road,,London,,,SW4 9EE
6bd58dc1-8986-414f-872e-cfd2bc019273,"Fourth Floor - Ergon House, Horseferry Road, Westminster, London, SW1P 2AL",Primary,,Fourth Floor - Ergon House,,,,Horseferry Road,Westminster,London,,,SW1P 2AL
6c7d10d0-0990-4033-b4da-7d6aaa4352f4,"The Old Bank, 39  Market Square, Witney, OX28 6AD",Primary,,The Old Bank,,,39,Market Square,,Witney,,,OX28 6AD
6c9d24df-203b-4e6b-abf5-7b569164e55d,"Pollen House, 10-12 Cork Street, London, W1S 3NP",Primary,,Pollen House,,,10-Dec,Cork Street,,London,,,W1S 3NP
6ca52f15-b72c-4263-ba4b-55879f927b21,"Focus House, Millenium Way West, Nottingham, Nottinghamshire, NG8 6AS",Primary,,Focus House,,,,Millenium Way West,,Nottingham,Nottinghamshire,,NG8 6AS
6d3b7741-38bb-4bbd-bdfc-bedb651f19ea,"4 Churchill Court, 58 Station Road, Harrow, HA2 7SA",Primary,,,4,Churchill Court,58,Station Road,,Harrow,,,HA2 7SA
6d8f650f-9037-4bfc-90a5-5318c2469a29,"85  Rannoch Road, Fulham, London, W6 9SX",Primary,,,,,85,Rannoch Road,Fulham,London,,,W6 9SX
6ef30e71-5734-4eff-801d-ca9e9b64574c,"Griffin Manor Way, Thamesmead, London, SE28 0FJ",Primary,,,,,,Griffin Manor Way,Thamesmead,London,,,SE28 0FJ
6ef994d3-c217-4567-93b3-0bfbc7bb0e17,"4th Floor, 8  Crosby Square, London, EC3A 6AQ",Primary,,4th Floor,,,8,Crosby Square,,London,,,EC3A 6AQ
6efa4ce8-e4f9-43e2-a77c-1b01842e1d1a,"19-23 White Lion Street, London, N1 9PD",Primary,,,,,19-23,White Lion Street,,London,,,N1 9PD
6f499162-9522-411e-9b20-a4c56ec7da17,"Perceval House, 14-16 Uxbridge Road, Ealing, London, W5 2HL",Primary,,Perceval House,,,14-16,Uxbridge Road,Ealing,London,,,W5 2HL
6f5d51e3-0235-4aeb-9876-278ddbf7d076,"The Ridings, White Elm Road, Danbury, Essex, CM3 4LR",Primary,,The Ridings,,,,White Elm Road,,Danbury,Essex,,CM3 4LR
6f6f4895-345d-424c-8847-974ec00fc9a1,"249  Broadway, Bexley, DA6 8DB",Primary,,,,,249,Broadway,,Bexley,,,DA6 8DB
6f96c6e6-1870-4191-8874-4afe755957c4,"Unit 54 - Brockley Cross Business Centre, 96 Endwell Road, Brockley, London, SE4 2PD",Primary,,Unit 54 - Brockley Cross Business Centre,,,96,Endwell Road,Brockley,London,,,SE4 2PD
6fad69d9-4e3b-4d1c-9d11-fbe49d213874,"2nd Floor, 65  Petty France, London, SW1H 9EU",Primary,,2nd Floor,,,65,Petty France,,London,,,SW1H 9EU
7002c651-eecf-47b8-948d-dd08a335bf6c,"10  Hamilton Road, Sidcup, Kent, DA15 7HB",Primary,,,,,10,Hamilton Road,,Sidcup,Kent,,DA15 7HB
703137d1-7fb5-43b1-b323-e765b3906c58,"130 Goldsworth Road, Woking, Surrey, GU21 6ND",Primary,,,,,130,Goldsworth Road,,Woking,Surrey,,GU21 6ND
703fd159-eac1-49c3-9581-ec7f80aa5531,"88  Goldern Lane, London, EC1Y 0UA",Primary,,,,,88,Goldern Lane,,London,,,EC1Y 0UA
7044ede1-f916-4410-9971-c89d285f5287,"Lambeth Town Hall, Brixton Hill, Brixton, SW2 1RW",Primary,,Lambeth Town Hall,,,,Brixton Hill,,Brixton,,,SW2 1RW
705c5d78-a4c8-44dd-af48-cdeae9377ec4,"Hethel Engineering Centre, Chapman Way, Hethel, Norwich, Norfolk, NR14 8FB",Primary,,Hethel Engineering Centre,,,,Chapman Way,Hethel,Norwich,Norfolk,,NR14 8FB
70679223-c1d0-4a6e-91e9-c2e3a68c2f3d,"55  Strand, London, WC5N 5RL",Primary,,,,,55,Strand,,London,,,WC5N 5RL
707de73e-6bf5-4507-851d-3d614596ef45,"Ove Arups and Partners, 13  Fitzroy Street, London, W1T 4BQ",Primary,,Ove Arups and Partners,,,13,Fitzroy Street,,London,,,W1T 4BQ
707de73e-6bf5-4507-851d-3d614596ef45,"The Arup Campus, Blythe Gate, Blythe Valley Park, Solihull, West Midlands,  B90 8AE",Alternate,Current,The Arup Campus,,,,Blythe Gate,Blythe Valley Park,Solihull,West Midlands,, B90 8AE
707de73e-6bf5-4507-851d-3d614596ef45,"Central Square, 5 Forth Street, Newcastle upon Tyne, Tyne and Wear, NE1 3PL",Alternate,Current,Central Square,,,5,Forth Street,,Newcastle upon Tyne,Tyne and Wear,,NE1 3PL
70ddf54a-206f-42d8-9254-eab7e92cc760,"Chester House - Kennington Park Business Centre, 1-3 Brixton Road, London, SW9 6DE",Primary,,Chester House - Kennington Park Business Centre,,,01-Mar,Brixton Road,,London,,,SW9 6DE
71a877c9-2692-4b61-a4e6-06819e18b472,"4th Floor - Cannon Bridge House, 25 Dowgate Hill, London, United Kingdom, EC4R 2YA",Primary,,4th Floor - Cannon Bridge House,,,25,Dowgate Hill,,London,,,EC4R 2YA
71e58017-2392-4e5a-85c5-05ff4d024a14,"WSP House, 70 Chancery Lane, London, WC2A 1AF",Primary,,WSP House,,,70,Chancery Lane,,London,,,WC2A 1AF
71e58017-2392-4e5a-85c5-05ff4d024a14,"16 High Holborn, London, WC1V 6BX",Alternate,Current,,,,16,High Holborn,,London,,,WC1V 6BX
71e58017-2392-4e5a-85c5-05ff4d024a14,"6 Devonshire Square, London, EC2M 4YE",Alternate,Current,,,,6,Devonshire Square,,London,,,EC2M 4YE
71e58017-2392-4e5a-85c5-05ff4d024a14,"Mountbatten House, Basing View, Basingstoke, Hampshire, RG21 4HJ",Alternate,Current,Mountbatten House,,,,Basing View,,Basingstoke,Hampshire,,RG21 4HJ
71e58017-2392-4e5a-85c5-05ff4d024a14,"1 Queen's Drive, Birmingham, B5 4PJ",Alternate,Current,,,,1,Queen's Drive,,Birmingham,,,B5 4PJ
71e58017-2392-4e5a-85c5-05ff4d024a14,"3 White Rose Office Park, Milshaw Park Lane, Leeds, LS11 0DL",Alternate,Current,,3,White Rose Office Park,,Milshaw Park Lane,,Leeds,West Yorkshire,,LS11 0DL
71f456a3-e890-4f68-845d-8c67e32e06b8,"Crastock Manor, Smarts Heath Road, Woking, Surrey, GU22 0RJ",Primary,,Crastock Manor,,,,Smarts Heath Road,,Woking,Surrey,,GU22 0RJ
7201ba83-a5e1-48b3-b3de-213d6acbd2bb,"Newark Road, Peterborough, Cambridgeshire, PE1 5UA",Primary,,,,,,Newark Road,,Peterborough,Cambridgeshire,,PE1 5UA
72849502-24f4-4243-bceb-be64d4552883,"5 Marylebone Mews, London, W1G 8PX",Primary,,,,,5,Marylebone Mews,,London,,,W1G 8PX
72b0081b-b733-4e1a-ab4d-2e0b8510c208,"Bridge House, 25  Fiddlebridge Lane, Hatfield, Hertfordshire, ",Primary,,Bridge House,,,25,Fiddlebridge Lane,,Hatfield,Hertfordshire,,
72b14001-9628-4c8c-aa53-63b3fb0c4931,"St Lawrence House, Station Approach, Horley, Surrey, RH6 9HJ",Primary,,St Lawrence House,,,,Station Approach,,Horley,Surrey,,RH6 9HJ
72ccf8a0-0c06-456c-b740-1b1f5a076174,"1 Christchurch Way, Woking, Surrey, GU21 6JG",Primary,,,,,1,Christchurch Way,,Woking,Surrey,,GU21 6JG
731aa8b1-c8f5-4def-ae39-1fe212c8835b,"8  Logan Place, Kensington, London, W8 6QN",Primary,,,,,8,Logan Place,Kensington,London,,,W8 6QN
7422f9e5-046a-40f0-8cbe-6937dc2500a4,"Burgate, 63 Cedar Road, Sutton, SM2 5DJ",Primary,,Burgate,,,63,Cedar Road,,Sutton,,,SM2 5DJ
74437e7c-aa77-4208-afa9-d310fccee1ae,"City Hall, The Queen's Walk, London, SE1 2AA",Primary,,City Hall,,,,The Queen's Walk,,London,,,SE1 2AA
74c621ff-a7c0-400e-8510-e1b20b58a004,"272  High Holborn, Holborn, London, WC1V 7EY",Primary,,,,,272,High Holborn,Holborn,London,,,WC1V 7EY
74fa2148-b2b7-4dad-9f4b-4497c11789aa,"The Truman Brewery - Studio 35, 91 Brick Lane, London, E1 6QL",Primary,,The Truman Brewery - Studio 35,,,91,Brick Lane,Birchanger,London,,,E1 6QL
74fa2148-b2b7-4dad-9f4b-4497c11789aa,"Unit 1, Suite 5, Woodside, Dunmow Road, Birchanger, Bishops Stortford, Hertfordshire, CM23 5RG",Alternate,Current,Unit 1 Suite 5,,Woodside,,Dunmow Road,Birchanger,Bishops Stortford,Hertfordshire,,CM23 5RG
75393d02-6506-458f-8bdc-7f718362fa51,"1st Floor - Century House, Station Way, Cheam, Sutton, SM3 8SW",Primary,,1st Floor - Century House,,,,Station Way,Cheam,Sutton,,,SM3 8SW
7594e648-e6ca-41a9-9eba-91014f0aff0e,"Amadeus House, 27b Floral Street, London, WC2E 9DP",Primary,,Amadeus House,,,27b,Floral Street,,London,,,WC2E 9DP
75b95aab-6600-4d40-8ae7-95bcde49fe04,"Docklands Campus, University Way, London, E16 2RD",Primary,,Docklands Campus,,,,University Way,,London,,,E16 2RD
75b9aa58-a0d2-4073-8a84-9dcc1e205c73,"PO Box 298, York, North Yorkshire, YO1 6YH",Primary,,PO Box 298,,,,,,York,North Yorkshire,,YO1 6YH
762bce24-d0df-47ac-8704-17a07aea59e4,"80  Cheapside, London, EC2V 6EE",Primary,,,,,80,Cheapside,,London,,,EC2V 6EE
76506949-1db1-4de1-b3fa-9b89baf9a66d,"Oxford Road, Manchester, M13 9PL",Primary,,,,,,Oxford Road,,Manchester,,,M13 9PL
76963890-cea4-4af2-95ed-c5ac2f0a80aa,"43 Chalton Street, London, NW1 1JD",Primary,,,,,43,Chalton Street,,London,,,NW1 1JD
76ce1c45-f04f-4ec9-90ff-4d5992d6ae0f,"12 Little Balmer, Buckingham Industrial Park, Buckingham, Buckinghamshire, MK18 1TF",Primary,,,,,12,Little Balmer,Buckingham Industrial Park,Buckingham,Buckinghamshire,,MK18 1TF
7727d2ff-8c14-409d-88ec-4d8704aec042,"Thames Gateway, 11  Burford Road, Stratford, London, E15 2ST",Primary,,Thames Gateway,,,11,Burford Road,Stratford,London,,,E15 2ST
788b629a-fbf1-4f7e-87c2-231554dabc25,"91-93 Baker Street, London, W1U 6QQ",Primary,,,,,91-93,Baker Street,,London,,,W1U 6QQ
78a308bf-291d-4dfd-8e9c-a8e842d50b6b,"42  Wigmore Street, London, W1U 2RY",Primary,,,,,42,Wigmore Street,,London,,,W1U 2RY
78a59504-e037-4915-98c0-fe196fef1d25,"Booth House, 15-17 Church Street, Twickenham, TW1 3NJ",Primary,,Booth House,,,15-17,Church Street,,Twickenham,,,TW1 3NJ
791e3f8c-3789-45c6-841c-611ae019e2cf,"12  Great George Street, Bristol, BS1 5RH",Primary,,,,,12,Great George Street,,Bristol,,,BS1 5RH
7939c1f7-53fa-4ac1-afea-e4bda597e687,"Walnut Tree Road, Erith, DA8 1RS",Primary,,,,,,Walnut Tree Road,,Erith,,,DA8 1RS
79d23412-4d10-44a0-8976-bf0738a0e661,"145a Hastings Road, Pembury, Kent, TN2 4JU",Primary,,,,,145a,Hastings Road,,Pembury,Kent,,TN2 4JU
79d9b102-e070-49f2-96f2-5c4239b99c58,"18 Highfield Avenue, Green Street Green, Orpington, BR6 6LF",Primary,,,,,18,Highfield Avenue,,Orpington,,,BR6 6LF
7aa85c33-5cff-4a37-9b42-a1c111eaa6d9,"200  Kingston Road, Wimbledon, London, SW19 3NU",Primary,,,,,200,Kingston Road,Wimbledon,London,,,SW19 3NU
7aea3477-3977-419f-912f-e171c15af5a9,"Springfield House, 99-101 Crossbrook Street, Waltham Cross, Hertfordshire, EN8 8JR",Primary,,Springfield House,,,99-101,Crossbrook Street,,Waltham Cross,Hertfordshire,,EN8 8JR
7b2ffce8-dd5d-4e0b-8c4d-7a268bd0c12e,"Suite E, 42  Horsemarket, Barnard Castle, County Durham, DL12 8NA",Primary,,Suite E,,,42,Horsemarket,,Barnard Castle,County Durham,,DL12 8NA
7b551383-d812-4adc-8ed6-4e02b3f840e1,"Office 112 Jarrow Business Centre, Rolling Mill Road, Jarrow, Tyne & Wear, NE32 3DT",Primary,,Office 112 Jarrow Business Centre,,,,Rolling Mill Road,,Jarrow,Tyne & Wear,,NE32 3DT
7b6cde50-fcb8-409f-b49d-4feadb508c94,"Heron House, 10  Dean Farrar Street, London, SW1H 0NY",Primary,,Heron House,,,10,Dean Farrar Street,,London,,,SW1H 0NY
7b9c8271-9c5d-407b-935c-2d8749160096,"6-8 Cole Street, London, SE1 4YH",Primary,,,,,06-Aug,Cole Street,,London,,,SE1 4YH
7bbdb501-8f38-4657-8807-799d0d46e0a4,"Civic Centre, Lampton Road, Hounslow, TW3 4DN",Primary,,Civic Centre,,,,Lampton Road,,Hounslow,,,TW3 4DN
7bc97a09-6b1d-4b8a-895f-8513434aee68,"Guildhall, 2 High Street, Kingston upon Thames, KT1 1EU",Primary,,Guildhall,,,2,High Street,,Kingston upon Thames,,,KT1 1EU
7bd61e44-f223-4fa2-9227-7eeb5f775975,"Great Eastern Wharf, 2  Parkgate Road, London, SW11 4TT",Primary,,Great Eastern Wharf,,,2,Parkgate Road,,London,,,SW11 4TT
7bddea49-6898-487a-968e-c58f268af651,"24  Fitzroy Square, London, W1T 6EP",Primary,,,,,24,Fitzroy Square,,London,,,W1T 6EP
7bf1fd9a-bfa0-4b62-b548-05e2453d924e,"English Heritage, Waterhouse Square, ",Primary,,English Heritage,,,,Waterhouse Square,,,,,
7cac05fa-9cd5-4c06-a245-1d0e6f4318af,"5 Maidstone Mews, 72-76 Borough High Street, London, SE1 1GN",Primary,,,5,Maidstone Mews,72-76,Borough High Street,,London,,,SE1 1GN
7ce58ec2-7ce1-4926-ad51-e68e5f8d9360,"Whites Farm, Oaks Lane, Newbury Park, Ilford, IG2 7PR",Primary,,Whites Farm,,,,Oaks Lane,Newbury Park,Ilford,,,IG2 7PR
7cf5d7c4-2425-47f4-aa1b-77d8a5b8e360,"23  Warser Gate, Nottingham, Nottinghamshire, NG1 1NU",Primary,,,,,23,Warser Gate,,Nottingham,Nottinghamshire,,NG1 1NU
7d68af80-900e-4855-8fa6-9e8fba0b1590,"5  High Street, Harrow on the Hill, Harrow, Middlesex, HA1 3HP",Primary,,,,,5,High Street,Harrow on the Hill,Harrow,Middlesex,,HA1 3HP
7d8bec3d-93cd-4b5b-98b5-f046bfef9f5b,"Little London Court, 18  Mill Street, London, SE1 2BF",Primary,,Little London Court,,,18,Mill Street,,London,,,SE1 2BF
7db47f3c-cd12-44a8-8c19-51df136ea1f3,"Unit 12 Mays Farm, Selmeston, Polegate, East Sussex, BN26 6TS",Primary,,,,,Unit 12,Mays Farm,Selmeston,Polegate,East Sussex,,BN26 6TS
7ddfb475-c0e0-4698-a070-1e2846a7578a,"The Office Marylebone, 12 Melcombe Place, London, NW1 6JJ",Primary,,The Office Marylebone,,,12,Melcombe Place,,London,,,NW1 6JJ
7ded9bb0-732f-4618-98a3-ac516afe31d0,"6  Cavendish Place, London, W1G 9NB",Primary,,,,,6,Cavendish Place,,London,,,W1G 9NB
7df2b2b7-bc5c-4707-bc03-101a69b963f2,"Netley House, Shere Road, Gomshall, Guildford, Surrey, GU5 9QA",Primary,,Netley House,,,,Shere Road,Gomshall,Guildford,Surrey,,GU5 9QA
7e34b4ec-4891-4b34-8b37-17ccbf6292ef,"Unit A - Bourton Business Centre, Manor Farm, Buckingham, Buckinghamshire, MK18 7DS",Primary,,Unit A - Bourton Business Centre,,,,Manor Farm,,Buckingham,Buckinghamshire,,MK18 7DS
7e5ecd73-855c-409a-8597-32f168927339,"Clancy Docwra House, Newport Road, Hayes, Middlesex, UB4 8JX",Primary,,Clancy Docwra House,,,,Newport Road,,Hayes,Middlesex,,UB4 8JX
7ea4f17d-715e-4906-9ad4-d64b63f2431a,"University of Birmingham, Edgbaston, Birmingham, West Midlands, B15 2TT",Primary,,,,,,University of Birmingham,Edgbaston,Birmingham,West Midlands,,B15 2TT
7ef0fcc8-67c4-4195-9fec-661c214e8d4a,"Bourne House, Cores End Road, Bourne End, Buckinghamshire, E9 5SH",Primary,,Bourne House,,,,Cores End Road,,Bourne End,Buckinghamshire,,E9 5SH
7f16ef78-933f-469a-8c0b-5a5e7e7f0e07,"Teresa Gavin House, Woodford Avenue, Woodford Green, IG8 8FA",Primary,,Teresa Gavin House,,,,Woodford Avenue,,Woodford Green,,,IG8 8FA
7f7b615a-4b15-4d8c-9398-6e82de4fecc7,"1st Floor - The Clove Building, 4  Maguire Street, Butler's Wharf, London, SE1 2NQ",Primary,,1st Floor - The Clove Building,,,4,Maguire Street,Butler's Wharf,London,,,SE1 2NQ
7fafa47a-9ef8-4cb0-923c-667cd7cbfcc3,"109 Albion Street, Swindon, Wilsthire, SN1 5LP",Primary,,,,,109,Albion Street,,Swindon,Wilsthire,,SN1 5LP
801e0568-0dbf-401a-9166-393ac63b12a4,"177  Kirkdale, Forest Hill, London, SE26 4QH",Primary,,,,,177,Kirkdale,Forest Hill,London,,,SE26 4QH
80949872-c4f3-4ecd-aad7-d49bad923388,"Ashburnham House, 1  Maitland Road, Lion Barn Estate, Needham Market, Suffolk, IP6 8NZ",Primary,,Ashburnham House,,,1,Maitland Road,Lion Barn Estate,Needham Market,Suffolk,,IP6 8NZ
80bfc517-cfc9-47aa-8310-25008896a7fe,"22  High Street, Buckingham, Buckinghamshire, MK18 1NU",Primary,,,,,22,High Street,,Buckingham,Buckinghamshire,,MK18 1NU
8173190c-994b-4498-aa21-28668c630ada,"Kings Place, 90 York Way, London, N1 9GE",Primary,,Kings Place,,,90,York Way,,London,,,N1 9GE
81f14e5e-8a50-473c-ba5e-a972516bff60,"34  Frairs Stile Road, Richmond, Twickenham, TW10 6NE",Primary,,,,,34,Frairs Stile Road,,Richmond,Twickenham,,TW10 6NE
82067729-16cb-42d2-899b-0fa9d0105676,"54  Rivington Street, London, EC2A 3QN",Primary,,,,,54,Rivington Street,,London,,,EC2A 3QN
820ee2dc-859d-42f9-9ea5-8f03afbdba28,"5  Straford Place, London, W1C 1AX",Primary,,,,,5,Straford Place,,London,,,W1C 1AX
82ffb686-49fe-42e1-beda-e8db59c380b1,"The Woolwich Centre, 35  Wellington Street, London, SE18 6HQ",Primary,,The Woolwich Centre,,,35,Wellington Street,,London,,,SE18 6HQ
837000e1-7a0d-4f07-8b78-fef99723b8de,"Lyster Court, 2 Craigie Drive, The Millfields, Plymouth, Devon, PL1 3JB",Primary,,Lyster Court,,,2,Craigie Drive,The Millfields,Plymouth,Devon,,PL1 3JB
83af1a69-4144-4c9b-8c1f-852725431f7a,"86  Bondway, London, SW8 1SF",Primary,,,,,86,Bondway,,London,,,SW8 1SF
83db961c-fd0b-40c7-971f-71ba1a9848d2,"The Manor, South Street, Normanton on Trent, Newark, Nottinghamshire, NG23 6RQ",Primary,,The Manor,,,,South Street,Normanton on Trent,Newark,Nottinghamshire,,NG23 6RQ
83ee1340-0d32-46f3-a3ee-f2f5dc45b39c,"23-25 Great Sutton Street, London, EC1V 0DN",Primary,,,,,23-25,Great Sutton Street,,London,,,EC1V 0DN
8430e15f-139f-4281-b771-2398a30e3a6e,"White Lion House, 5  Broad Street, Eye, Suffolk, IP23 7AF",Primary,,White Lion House,,,5,Broad Street,,Eye,Suffolk,,IP23 7AF
849883d4-0ced-4af7-89bf-8b040ec1c5a8,"The Seed Warehouse, Maidenhead Yard, The Wash, Hertford, Hertfordshire, SG14 1PX",Primary,,The Seed Warehouse,,Maidenhead Yard,,The Wash,,Hertford,Hertfordshire,,SG14 1PX
852cec1f-5aa9-4fbf-a7a0-512a105c5d0a,"Tower of London, Tower Hill, London, EC3N 4AB",Primary,,Tower of London,,,,Tower Hill,,London,,,EC3N 4AB
8569d063-c78d-48dc-b7e9-6a1a2d57c278,"7  Spring Gardens, Abingdon, Oxfordshire, OX14 1AZ",Primary,,,,,7,Spring Gardens,,Abingdon,Oxfordshire,,OX14 1AZ
857d2465-6fdc-465b-87ea-354ba77241b0,"Tyttenhanger House, Coursers Road, St Albans, Hertfordshire, AL4 0PG",Primary,,Tyttenhanger House,,,,Coursers Road,,St Albans,Hertfordshire,,AL4 0PG
85c3ed42-eb61-4849-8804-cee07ba63f91,"Parks Road, Oxford, OX1 3PW",Primary,,,,,,Parks Road,,Oxford,,,OX1 3PW
8633004d-54dc-4cd9-ba15-b07aa3916cab,"22  Hanover Square, London, W1A 2BN",Primary,,,,,22,Hanover Square,,London,,,W1A 2BN
868488a7-6add-4f30-a757-887aa4048766,"12-14 Langley Avenue, Surbiton, KT6 6QL",Primary,,,,,Dec-14,Langley Avenue,,Surbiton,,,KT6 6QL
8690d401-4ace-4999-b6e6-821fb48deb02,"Old King's Yard, Crown Street, Brentwood, Essex, CM14 4BA",Primary,,Old King's Yard,,,,Crown Street,,Brentwood,Essex,,CM14 4BA
86973713-e6c7-4e37-815c-920af1a9ec3e,"Town Hall, King Street, Hammersmith, London, W6 9JU",Primary,,Town Hall,,,,King Street,Hammersmith,London,,,W6 9JU
86e9febd-b8f0-4eaa-b2fa-0589a965757d,"City Hall, Tooley Street, Southwark, London, ",Primary,,City Hall,,,,Tooley Street,Southwark,London,,,
872a1d5f-bb7b-4a51-ba14-78b6dfb3e090,"Port House, 1  Plantation Wharf, London, SW11 3TY",Primary,,Port House,,,1,Plantation Wharf,,London,,,SW11 3TY
873cd203-37e3-4d55-b103-eb44d011514d,"Suite 174, Edgar Buildings, 3 George Street, Bath, BA1 2FJ",Primary,,Suite 174,,Edgar Buildings,3,George Street,,Bath,,,BA1 2FJ
8783f1f8-1ce7-48bd-9f70-c6e6d67c5dcd,"87  Long Road, Cambridge, Cambridgeshire, CB2 8HE",Primary,,,,,87,Long Road,,Cambridge,Cambridgeshire,,CB2 8HE
878d5aeb-f427-45d5-b929-9ac0b41820d3,"Cunard House, 15 Regent Street, London, SW1Y 4LR",Primary,,Cunard House,,,15,Regent Street,,London,,,SW1Y 4LR
88183378-b347-4bd6-9468-1f28e509dffa,"Arkitech House, 35  Whiffler Road, Norwich, Norfolk, NR3 2AW",Primary,,Arkitech House,,,35,Whiffler Road,,Norwich,Norfolk,,NR3 2AW
882a51c6-5918-4344-9a13-b6d4f667d906,"Level 7, 52  Grosvenor Gardens, Belgravia, London, SW1W 0AU",Primary,,Level 7,,,52,Grosvenor Gardens,Belgravia,London,,,SW1W 0AU
887c380f-ac68-49a1-bd14-58d840cc3972,"Baker's Hall, 7  Harp Lane, London, EC3R 6LB",Primary,,Baker's Hall,,,7,Harp Lane,,London,,,EC3R 6LB
88d65973-36df-47a4-b7b8-08e511a26ab2,"University of Leicester, University Road, Leicester, Leicestershire, LE1 7RH",Primary,,University of Leicester,,,,University Road,,Leicester,Leicestershire,,LE1 7RH
88de6a2f-2d88-4642-a79d-108bdddf97c3,"53  Marshfield Road, Chippenham, Wiltshire, SN15 1JS",Primary,,,,,53,Marshfield Road,,Chippenham,Wiltshire,,SN15 1JS
893d6adf-67ab-4363-9104-714984d5966a,"Westminster City Hall, 64  Victoria Street, London, SW1E 6QP",Primary,,Westminster City Hall,,,64,Victoria Street,,London,,,SW1E 6QP
89824f8f-273f-4541-b600-f41a6ce92fe3,"8th Floor, 210  Pentonville Road, London, N1 9JY",Primary,,8th Floor,,,210,Pentonville Road,,London,,,N1 9JY
8990b06c-f2b2-4462-9611-12fe85db6550,"Suite 7 - Galley House, Moon Lane, Barnet, Herts, EN5 5YL",Primary,,Suite 7 - Galley House,,,,Moon Lane,,Barnet,Herts,,EN5 5YL
89ec8e69-2834-4e79-8d37-8a4189f8f4ba,"6-8 Greencoat Place, London, SW1P 1PL",Primary,,,,,06-Aug,Greencoat Place,,London,,,SW1P 1PL
8a359a95-c67d-4091-a5a5-8ce925e9f49c,"Rose Kiln Court, Rose Kiln Lane, Reading, RG2 0BY",Primary,,Rose Kiln Court,,,,Rose Kiln Lane,,Reading,,,RG2 0BY
8a8f9f61-ba8a-4246-ba46-04f52b82514d,"Weston Group Business Centre, Parsonage Road, Takeley, Essex, CM22 6PU",Primary,,Weston Group Business Centre,,,,Parsonage Road,,Takeley,Essex,,CM22 6PU
8acf2098-8bfc-4f6d-9d95-342ed6a95e15,"21  Arlington Street, London, SW1A 1RN",Primary,,,,,21,Arlington Street,,London,,,SW1A 1RN
8b17493a-7020-4ddf-a7b0-e75248cfcd6f,"3  Essex Road, Four Oaks, Sutton Coldfield, West Midlands, B75 6NR",Primary,,,,,3,Essex Road,Four Oaks,Sutton Coldfield,West Midlands,,B75 6NR
8b6505f7-54b3-4d04-985a-b31673fc0cce,"St Olave's House, Ironmonger Lane, London, EC2V 8EY",Primary,,St Olave's House,,,,Ironmonger Lane,,London,,,EC2V 8EY
8b73aa4f-5578-4725-98b8-1c203e9192c8,"9  Devonshire Square, London, EC2M 4Y",Primary,,,,,9,Devonshire Square,,London,,,EC2M 4Y
8b7cc947-3ff5-47d7-b76b-c179f636bcd0,"7 Place de Fontenoy, Paris, France, 75007 Paris",Primary,,,,,7,Place de Fontenoy,,Paris,,France,75007 Paris
8bc22e67-5c95-485b-8149-8ac871dd613e,"Wardown Park Museum, Old Bedford Road, Luton, LU2 7HA",Primary,,Wardown Park Museum,,,,Old Bedford Road,,Luton,,,LU2 7HA
8bdf97f7-a402-4b90-a27d-6e96b9643e39,"Barratt House, Cartwright Way, Bardon Hill, Coalville, Leicestershire, LE67 1UF",Primary,,Barratt House,,,,Cartwright Way,Bardon Hill,Coalville,Leicestershire,,LE67 1UF
8bf16f02-832d-486c-aa9b-f97f23f079ec,"87  Holmes Road, London, NW5 3AX",Primary,,,,,87,Holmes Road,,London,,,NW5 3AX
8d0bcbc0-9039-4e7f-85f5-57bc9e08b4c4,"Shishu Bhavan, 25-27 High Street, Edgware, HA8 7EE",Primary,,Shishu Bhavan,,,25-27,High Street,,Edgware,,,HA8 7EE
8d9c61b5-53d9-41ce-8c60-5a734defe2f2,"The Old Stables, 39b Lesbourne Road, Reigate, Surrey, RH2 7JS",Primary,,The Old Stables,,,39b,Lesbourne Road,,Reigate,Surrey,,RH2 7JS
8e3a4283-5142-4cdb-99e5-1ff064d54640,"4  Ingate Place, London, SW8 3NS",Primary,,,,,4,Ingate Place,,London,,,SW8 3NS
8e594d00-359a-4c97-baa2-faa599af56d7,"Appledore, Barley Grattens, Netherfield Road, Netherfield, Battle, East Sussex, TN33 9QG",Primary,,Appledore,,Barley Grattens,,Netherfield Road,Netherfield,Battle,East Sussex,,TN33 9QG
8e9e6a6a-dcf5-4596-89c1-6c9ccce3f302,"London, ",Primary,,,,,,,,London,,,
8eec1e34-f24a-47c2-a737-4cdc09f22ac9,"The Round Chapel, 1d Glenarm Road, Hackney, London, E5 0LY",Primary,,The Round Chapel,,,1d,Glenarm Road,Hackney,London,,,E5 0LY
8ef56092-855f-4886-8c9c-6ade87211479,"Flitcroft House, 114-116 Charing Cross Road, London, WC2H 0JR",Primary,,Flitcroft House,,,114-116,Charing Cross Road,,London,,,WC2H 0JR
8f270b74-0589-4331-869d-36cf5370c748,"43  Mornington Road, Chingford, London, E4 7DT",Primary,,,,,43,Mornington Road,Chingford,London,,,E4 7DT
8f604c7e-1ed6-443e-8adc-b14ecd8bc9fc,"Unit 2 Sundial Court, Tolworth Rise South, Tolworth, Surbiton, KT5 9RN",Primary,,Unit 2 Sundial Court,,,,Tolworth Rise South,Tolworth,Surbiton,,,KT5 9RN
8f6e7bc1-a0f1-44f7-bd10-1af2c9763f6f,"Cumberland Court, 80  Mount Street, Nottingham, Nottinghamshire, NG1 6HH",Primary,,Cumberland Court,,,80,Mount Street,,Nottingham,Nottinghamshire,,NG1 6HH
8f8ba952-e86d-4a91-a428-2d9aecfba2f8,"25  Savile Row, London, W1S 2ER",Primary,,,,,25,Savile Row,,London,,,W1S 2ER
8fbd46c4-d049-460d-89ec-d56424200e2a,"19 Maltings Place, 169 Tower Bridge Road, London,  SE1 3JB",Primary,,,19,Maltings Place,169,Tower Bridge Road,,London,,, SE1 3JB
8fe2724c-c7ab-4453-8487-e41d555e6ab4,"Parkman House, Lime Kiln Close, Bristol, BS12 6SQ",Primary,,Parkman House,,,,Lime Kiln Close,,Bristol,,,BS12 6SQ
9012b923-a463-4b49-ab6d-1dfd0064be07,"11D Park House, Park Drive, Milton Park, Abingdon, Oxfordshire, OX14 4RS",Primary,,,11D,Park House,,Park Drive,Milton Park,Abingdon,Oxfordshire,,OX14 4RS
90a358dd-386b-42ae-8614-b391a928de1f,"Unecol House, 819  London Road, North Cheam, Surrey, SM3 9BN",Primary,,Unecol House,,,819,London Road,,North Cheam,Surrey,,SM3 9BN
90ac9761-2809-41a6-9f55-eaad4e033bef,"17a High Street, Great Bookham, Surrey, KT23 4AA",Primary,,,,,17a,High Street,,Great Bookham,Surrey,,KT23 4AA
90b8eae7-4ed3-48e6-bd8c-150247d14903,"10  Second Avenue, London, SW14 8QE",Primary,,,,,10,Second Avenue,,London,,,SW14 8QE
9129f3b6-95af-4077-94d6-aaf5bdccb1ce,"13  College Road,  Bedford, MK42 9PL",Primary,,,,,13,College Road,, Bedford,,,MK42 9PL
913084af-49d7-4e65-b750-8a6569e6bb39,"Sandon Valley House, Canon Barns Road, East Hanningfeld, Essex, CM3 8BD",Primary,,Sandon Valley House,,,,Canon Barns Road,,East Hanningfeld,Essex,,CM3 8BD
915ba618-f0a2-4d53-a1f3-a4b3b4a3eff7,"Nenthead Mines Heritage Centre, Nenthead, Alston, Cumbria, CA9 3PD",Primary,,Nenthead Mines Heritage Centre,,,,,Nenthead,Alston,Cumbria,,CA9 3PD
91ce48c4-a232-4585-8155-a99ce23ddc31,"24  Woodham Road, Woking, Surrey, GU21 4DP",Primary,,,,,24,Woodham Road,,Woking,Surrey,,GU21 4DP
91d4bc76-9574-4147-8c25-a2a48e91d5a6,"Eversfield House, Station Road, Warminster, Wiltshire, BA12 9BP",Primary,,Eversfield House,,,,Station Road,,Warminster,Wiltshire,,BA12 9BP
921b7a47-c523-4b2c-81f5-5175307b6d92,"12 St Mary's Gate, Derby, Derbyshire, DE1 3JR",Primary,,,,,12,St Mary's Gate,,Derby,Derbyshire,,DE1 3JR
92441a96-68f3-4a14-b622-f8073f50a5c8,"University of Manchester, Oxford Road, Manchester, M13 9PL",Primary,,University of Manchester,,,,Oxford Road,,Manchester,,,M13 9PL
93390fbc-06b1-4d7a-8ca4-aa5c7a2cba3a,"30  Monck Street, London, SW1P 2AP",Primary,,,,,30,Monck Street,,London,,,SW1P 2AP
93392a48-995c-44fe-820a-c14cf188d922,"Sacombe House, Sacombe Park, Ware, Hertfordshire, SG12 0JA",Primary,,Sacombe House,,,,Sacombe Park,,Ware,Hertfordshire,,SG12 0JA
93b2092c-b93b-4b9b-beca-931c2c2a44b7,"84  Furley Road, London, SE15 IUG",Primary,,,,,84,Furley Road,,London,,,SE15 IUG
940242b8-93de-4063-8c81-193032f92d9e,"Bromley Civic Centre, Stockwell Close, Bromley, BR1 3UH",Primary,,Bromley Civic Centre,,,,Stockwell Close,,Bromley,,,BR1 3UH
94265c19-7369-42e8-abb7-0de2b5c93761,"Riverside House, 26  Osiers Road, Wandsworth, London, SW18 1NH",Primary,,Riverside House,,,26,Osiers Road,Wandsworth,London,,,SW18 1NH
94e0bbb3-c56b-4dec-968f-614134f7419e,"135  Bishopsgate, London, EC2M 3UR",Primary,,,,,135,Bishopsgate,,London,,,EC2M 3UR
94ffff5c-faf7-45a4-a9b9-75a966e609cd,"Design Office B0045, Unit 15, 55 Weir Road, Wimbledon, London, SW19 8UG",Primary,,"Design Office B0045, Unit 15",,,55,Weir Road,Wimbledon,London,,,SW19 8UG
95144a3e-839b-4566-872c-d8f31bb4b4b1,"46-48 London Road, Twickenham, TW1 3RJ",Primary,,,,,46-48,London Road,,Twickenham,,,TW1 3RJ
95571a76-9a28-4ac3-a37c-abe4e4ace7e8,"61  Cavesham Road, Kentish Town, London, NW5 2DH",Primary,,,,,61,Cavesham Road,Kentish Town,London,,,NW5 2DH
95918a8b-a896-488f-bd5a-12e256390adf,"32A Benhill Wood Road, Sutton, SM1 3SL",Primary,,,,,32A,Benhill Wood Road,,Sutton,,,SM1 3SL
95b772fb-4aee-43b3-8b47-52e9f78fec63,"2  High Street South, Ruskington, Sleaford, Lincolnshire, NG34 9DT",Primary,,,,,2,High Street South,Ruskington,Sleaford,Lincolnshire,,NG34 9DT
9656c918-6aed-4821-9188-fd2ee081037f,"Ironbridge International Institute for Cultural Heritage, University of Birmingham, Edgbaston, Birmingham, West Midlands, B15 2TT",Primary,,Ironbridge International Institute for Cultural Heritage,,,,University of Birmingham,Edgbaston,Birmingham,West Midlands,,B15 2TT
965a578c-e571-423a-a03d-99885930467d,"AECOM House, 63-77 Victoria Street, St Albans, Hertfordshire, AL1 3ER",Primary,,AECOM House,,,63-77,Victoria Street,,St Albans,Hertfordshire,,AL1 3ER
9668e134-ecaf-4a7f-be92-de88adb6ff5b,"Kings Parade, Lower Coombe Street, Croydon, CR0 1AA",Primary,,Kings Parade,,,,Lower Coombe Street,,Croydon,,,CR0 1AA
967ff36c-3ab7-4778-8ecc-c182d7d32550,"James Taylor House, St Albans Road East, Hatfield, Hertfordshire, AL10 0HE",Primary,,James Taylor House,,,,St Albans Road East,,Hatfield,Hertfordshire,,AL10 0HE
96a81f3d-b91d-4ff1-999e-f2335947af2d,"15 Steeple Walk, New North Road, London, N1 8TF",Primary,,,15,Steeple Walk,,New North Road,,London,,,N1 8TF
96e844cb-36c2-4799-af32-1648a7ff723a,"Manor Farm, Stanford Dingley, Reading, Berkshire, RG7 6LS",Primary,,,,,,Manor Farm,Stanford Dingley,Reading,Berkshire,,RG7 6LS
9722b452-2850-4709-acfb-85852fa811eb,"1 Canada Square, Canary Wharf, London, E14 5AB",Primary,,,,,1,Canada Square,Canary Wharf,London,,,E14 5AB
976cc3b3-deba-49f6-9d56-57e809b993dc,"School of Archaeology, History and Anthropology - University of Wales Trinity Saint David, Lampeter Campus, Lampeter, Ceredigion, SA48 7ED",Primary,,"School of Archaeology, History and Anthropology - University of Wales Trinity Saint David",,,,Lampeter Campus,,Lampeter,Ceredigion,,SA48 7ED
97a4cf2f-f5fa-411c-ae16-7c59adb7e79b,"Knockhundred House, Knockhundred Row, Midhurst, West Sussex, GU29 9DQ",Primary,,Knockhundred House,,,,Knockhundred Row,,Midhurst,West Sussex,,GU29 9DQ
97d6a35b-cd7b-4c1e-ba75-e55478525615,"227a Stephendale Road, London, SW6 2PR",Primary,,,,,227a,Stephendale Road,,London,,,SW6 2PR
97f5945c-02a1-47b8-acf9-a86ac3090580,"Suite 11 Chalkwell Lawns, 648-656 London Road, Westcliff-on-Sea, Essex, SS0 9HR",Primary,,Suite 11 Chalkwell Lawns,,,648-656,London Road,,Westcliff-on-Sea,Essex,,SS0 9HR
97fdc54a-12d3-4774-a998-c5e463877ae8,"34  St Peters Street, St Albans, Hertfordshire, AL1 3NA",Primary,,,,,34,St Peters Street,,St Albans,Hertfordshire,,AL1 3NA
97fe0c78-776e-4e91-9a63-6bab2cfac716,"13  Beaumont Street, Oxford, Oxfordshire, OX1 2LP",Primary,,,,,13,Beaumont Street,,Oxford,Oxfordshire,,OX1 2LP
980737c4-b97b-4d33-8421-7c96ae3e63ff,"3rd Floor Sterling House, Langston Road, Loughton, Essex, IG10 3TS",Primary,,3rd Floor Sterling House,,,,Langston Road,,Loughton,Essex,,IG10 3TS
98090fb9-5791-413e-93e2-6d4a9577b969,"Old Hyde House, 75  Hyde Street, Winchester, Hampshire, SO23 7DW",Primary,,Old Hyde House,,,75,Hyde Street,,Winchester,Hampshire,,SO23 7DW
98db37db-d45f-48b5-9800-cddfdc87fd0c,"232b Kenton Road, Harrow, HA3 8BY",Primary,,,,,232b,Kenton Road,,Harrow,,,HA3 8BY
990d2e1a-85e4-4a7a-8832-891bdc132854,"Lynton House, 11th Floor Front, 255-259 High Road, Ilford, IG1 1DD",Primary,,"Lynton House, 11th Floor Front",,,255-259,High Road,,Ilford,,,IG1 1DD
99485623-6868-46d7-8cee-9d19717db58b,"Bowman House, 191 South Street, Braintree, Essex, CM7 3QB",Primary,,Bowman House,,,191,South Street,,Braintree,Essex,,CM7 3QB
99b9517e-adcd-4eb1-a284-036f3685b4d3,"Carlton House, Ringwood Road, Woodlands, Southampton, SO40 7HT",Primary,,Carlton House,,,,Ringwood Road,Woodlands,Southampton,Hampshire,,SO40 7HT
99b9517e-adcd-4eb1-a284-036f3685b4d3,"Pentagon House, 52-54 Southwark Street, London, SE1 1UN",Alternate,Current,Pentagon House,,,52-54,Southwark Street,,London,,,SE1 1UN
99bd5d6d-ca74-48c7-8a08-cedcf53556cc,"Civic Centre, High Road, Wood Green, N22 8LE",Primary,,Civic Centre,,,,High Road,,Wood Green,,,N22 8LE
99cd395e-ce35-4106-b0bb-0ec074aa347a,"Brent House, 349  High Road, Wembley, HA9 6BZ",Primary,,Brent House,,,349,High Road,,Wembley,,,HA9 6BZ
99e3a9d1-8808-4962-9aa4-e1a0e9b0e61f,"2 -3 Hind Court, London, EC4A 3DL",Primary,,,,,02-Mar,Hind Court,,London,,,EC4A 3DL
9a3b53ab-a71e-421e-b503-963660e7d102,"The Point, Bradmarsh Way, Rotherham, South Yorkshire, S60 1BP",Primary,,,,The Point,,Bradmarsh Way,,Rotherham,South Yorkshire,,S60 1BP
9aac632a-0efa-4c8f-be68-013bc723123c,"26  Fournier Street, London, E1 6QE",Primary,,,,,26,Fournier Street,,London,,,E1 6QE
9afbbbfb-75ed-4968-8402-dbdeaf1438fb,"70 Cowcross Street, London, EC1M 6EJ",Primary,,,,,70,Cowcross Street,,London,,,EC1M 6EJ
9aff1581-7bf9-49f5-b698-a40d3086fa50,"20  Hertford Road, Worthing, West Sussex, BN11 1HX",Primary,,,,,20,Hertford Road,,Worthing,West Sussex,,BN11 1HX
9be15344-2b3a-45df-b0ce-904afcaaf6db,"Level 6 - Uxbridge Library, 14-15 High Street, Uxbridge, UB8 1HD",Primary,,Level 6 - Uxbridge Library,,,14-15,High Street,,Uxbridge,,,UB8 1HD
9bffa9ab-351a-423b-acb7-015b7c640e0e,"Export House, Cawsey Way, Woking, Surrey GU21 6QX",Primary,,Export House,,,,Cawsey Way,,Woking,Surrey,,GU21 6QX
9c125544-60cd-491b-9aec-9bd23cced6df,"c/o Museum of London, 150 London Wall, London, EC2Y 5HN",Primary,,c/o Museum of London,,,150,London Wall,,London,,,EC2Y 5HN
9c284004-f706-4264-976b-58b05db22907,"St Saviours House, 39-41 Union Street, Southwark, London, SE1 1SD",Primary,,St Saviours House,,,39-41,Union Street,Southwark,London,,,SE1 1SD
9c48ce01-ed8a-4975-9cef-11404a031692,"7  Sping Close, Highwoods, Colchester, Essex, CO4 9TN",Primary,,,,,7,Sping Close,Highwoods,Colchester,Essex,,CO4 9TN
9c4d9927-cef3-4a2b-9e8f-0a3db9abe45e,"6th Floor - Bernard Weatherill House, 8 Mint Walk, Croydon, CR0 1EA",Primary,,6th Floor - Bernard Weatherill House,,,8,Mint Walk,,Croydon,,,CR0 1EA
9c67bbe0-171f-4654-8657-2b4d82ee854f,"Weybridge Park, 3  Addlestone Road, Weybridge, Surrey, KT15 2BW",Primary,,Weybridge Park,,,3,Addlestone Road,,Weybridge,Surrey,,KT15 2BW
9c715e7c-c28e-4d44-b746-2eb9e23c649f,"Pendeford House, Pendeford Business Park, Wobaston Road, Pendeford, Wolverhampton, WV9 5AP",Primary,,Pendeford House,,Pendeford Business Park,,Wobaston Road,Pendeford,Wolverhampton,,,WV9 5AP
9cd1802b-4bb3-4567-b004-e5d5aacc6807,"Enviros House, Shrewsbury Business Park, Sitka Drive, Shrewsbury, Shropshire, SY2 6LG",Primary,,Enviros House,,Shrewsbury Business Park,,Sitka Drive,,Shrewsbury,Shropshire,,SY2 6LG
9cefc4de-98c0-4d74-b1ef-cafbef216312,"120  Fenchurch Street, London, EC3M 5BA",Primary,,,,,120,Fenchurch Street,,London,,,EC3M 5BA
9cf8fdbb-24a7-4c4a-b7c5-4792213087ec,"5  Old Broad Street, London, EC2N 1DW",Primary,,,,,5,Old Broad Street,,London,,,EC2N 1DW
9d0ab126-1b1e-4129-83f6-ce2450984bd2,"Tower House, Lucy Tower Street, Lincoln, Lincolnshire, LN1 1XW",Primary,,Tower House,,,,Lucy Tower Street,,Lincoln,Lincolnshire,,LN1 1XW
9d0fb53c-bd54-4a1e-a8e3-ec8679ea55eb,"Research School of Archaeology - West Court, 2 Mappin Street, Sheffield, South Yorkshire, S1 4DT",Primary,,Research School of Archaeology - West Court,,,2,Mappin Street,,Sheffield,South Yorkshire,,S1 4DT
9d4f1174-16a9-4c73-b6b3-02fb14c722aa,"Power House, Harrison Close, Knowlhill, Milton Keynes, Buckinghamshire, MK5 8PA",Primary,,Power House,,,,Harrison Close,Knowlhill,Milton Keynes,Buckinghamshire,,MK5 8PA
9e428895-fca3-40ca-911b-1b2e2cf4e49f,"Wildhill Road, Wildhill, Hatfield, Hertfordshire, AL9 6EA",Primary,,,,,,Wildhill Road,Wildhill,Hatfield,Hertfordshire,,AL9 6EA
9e5daf22-586e-4a65-afb4-558c135c7c91,"Carriage House Office, Guydens Farm, Garsington, Oxford, SX44 9AZ",Primary,,Carriage House Office,,,,Guydens Farm,Garsington,Oxford,,,SX44 9AZ
9e75d4e9-138d-4dc2-9f06-4885693d921b,"14  Briery Street, Lancaster, LA1 5RD",Primary,,,,,14,Briery Street,,Lancaster,,,LA1 5RD
9ebc4a62-4505-43ba-9b0c-b089cfedb346,"University of Manchester, Oxford Road, Manchester, M13 9PL",Primary,,University of Manchester,,,,Oxford Road,,Manchester,,,M13 9PL
9f4168f4-229c-4ab1-9e19-99c618c057d1,"46  Granvile Road, Southfields, London, SW18 5SQ",Primary,,,,,46,Granvile Road,Southfields,London,,,SW18 5SQ
9f572dc6-b21f-49aa-886a-633fc4a99042,"60  Seymore Road, St Albans, Hertfordshire, AL3 5HW",Primary,,,,,60,Seymore Road,,St Albans,Hertfordshire,,AL3 5HW
9f7bf669-5a16-4569-9840-ee57263e197d,"Pilgrim House, High Street, Billericay, Essex, CM12 9XY",Primary,,Pilgrim House,,,,High Street,,Billericay,Essex,,CM12 9XY
9f815450-135f-4733-a77f-f67f79702874,"74  Victoria Road, Worthing, West Sussex, BN11 1UN",Primary,,,,,74,Victoria Road,,Worthing,West Sussex,,BN11 1UN
9f8856a6-d3b0-4fad-bd36-84be144ffef2,"2  Green Lane, Codford St Peter, Warminster, Wiltshire, BA12 0NY",Primary,,,,,2,Green Lane,Codford St Peter,Warminster,Wiltshire,,BA12 0NY
9fb3acdd-4135-4e76-82bf-67e7f0c718c5,"Chiltern House, Portland Street, London, SE17 2ES",Primary,,Chiltern House,,,,Portland Street,,London,,,SE17 2ES
9fc257c5-45c9-45b6-aebc-35393be30495,"6 Wendell Road, Shepherd's Bush, London, W12 9RT",Primary,,,,,6,Wendell Road,Shepherd's Bush,London,,,W12 9RT
9fc3af68-1557-42c6-90ce-4134862047ab,"Brunswick House, 30  Wandsworth Road, London, SW8 2LG",Primary,,Brunswick House,,,30,Wandsworth Road,,London,,,SW8 2LG
a066c18a-ff3a-41c6-a41c-95a5ad433213,"56  Limes Grove, Lewisham, London, SE13 6DE",Primary,,,,,56,Limes Grove,Lewisham,London,,,SE13 6DE
a06da1d2-6773-4637-b649-31eaea440040,"FAO Accounts, 75  Cowcross Street, London, EC1M 6EL",Primary,,,,,75,Cowcross Street,,London,,,EC1M 6EL
a139b9ac-fd0e-4475-8d6e-9fdf7ca8e150,"66 Porchester Road, London, W2 6ET",Primary,,,,,66,Porchester Road,,London,,,W2 6ET
a1811980-6c70-4a6c-8be4-b836ea63c568,"9  Church Street, New Buckenham, Norwich, Norfolk, NR16 2BA",Primary,,,,,9,Church Street,New Buckenham,Norwich,Norfolk,,NR16 2BA
a1dc717b-7bb9-4f09-89e7-ee68719325e2,"67  Westow Street, London, SE19 3RW",Primary,,,,,67,Westow Street,,London,,,SE19 3RW
a20d21f5-6519-4651-9707-cf3a8a3390ea,"Old Royal Naval Collage, Park Row, Greenwich, London, SE10 9LS",Primary,,Old Royal Naval Collage,,,,Park Row,Greenwich,London,,,SE10 9LS
a29749cd-294f-44da-a9c3-51109319e80a,"65  Gresham Street, London, EC2V 7NQ",Primary,,,,,65,Gresham Street,,London,,,EC2V 7NQ
a2b6c118-2a44-4966-8557-3880597d321d,"25A Milton Street, York, North Yorkshire, YO10 3EP",Primary,,,,,25A,Milton Street,,York,North Yorkshire,,YO10 3EP
a31026b5-1b6d-48f3-9c30-669d2a65b475,"3 Colegate, Norwich, Norfolk, NR3 1BN",Primary,,,,,3,Colegate,,Norwich,Norfolk,,NR3 1BN
a3352f99-bcea-4ab6-bdf6-9b9eb631e074,"33  Cavendish Square, London, W1G 0PW",Primary,,,,,33,Cavendish Square,,London,,,W1G 0PW
a336da3c-64cb-4579-b07b-d05e523f7899,"Bridge House, 1  Walnut Tree Close, Guildford, GU1 4LZ",Primary,,Bridge House,,,1,Walnut Tree Close,,Guildford,,,GU1 4LZ
a3eeeace-8725-4225-9a70-f1612e1a63a6,"Tempsford Hall, Sandy, Bedfordshire, SG19 2BD",Primary,,Tempsford Hall,,,,,,Sandy,Bedfordshire,,SG19 2BD
a429230d-672c-4c9b-b122-289407d749f3,"Versailles Court, 3  Paris Garden, London, SE1 8ND",Primary,,Versailles Court,,,3,Paris Garden,,London,,,SE1 8ND
a433a3a0-119f-4e6d-bd91-9091db5d7552,"64  Chapel Hill, Halstead, Essex, CO9 1JP",Primary,,,,,64,Chapel Hill,,Halstead,Essex,,CO9 1JP
a44fc101-12ad-4d05-b906-cd25590b7490,"57  Summit Road, Northolt, UB5 5HL",Primary,,,,,57,Summit Road,,Northolt,,,UB5 5HL
a45cc0b2-6ec2-40ce-92a5-3bf2386dd162,"33  Old Briad Street, London, EC2N 1HZ",Primary,,,,,33,Old Briad Street,,London,,,EC2N 1HZ
a46baa55-e18d-4ab3-a9fa-d7287cc19c62,"49-51 Central Street, London, EC1V 8AB",Primary,,,,,49-51,Central Street,,London,,,EC1V 8AB
a482837d-4f04-4961-ba98-ec6b2c59be34,"McLaren House, 100  Kings Road, Brentwood, Essex, CM14 4EA",Primary,,McLaren House,,,100,Kings Road,,Brentwood,Essex,,CM14 4EA
a4cde9ae-f4a8-41db-8d79-8ac4550f2ea8,"PO Box 10033, Chelmsford, Essex, CM99 2AL",Primary,,PO Box 10033,,,,,,Chelmsford,Essex,,CM99 2AL
a4d4fec7-a722-4ad8-b5d1-b1be5b93cd20,"35  Trentham Road, Hartshill, Nuneaton, Warwickshire, CV10 0SN",Primary,,,,,35,Trentham Road,Hartshill,Nuneaton,Warwickshire,,CV10 0SN
a55fef8b-ed1d-401b-933b-6910a7b5c62f,"Hanover Close, Cobbs Wood Estate, Ashford, Kent, TN23 1EJ",Primary,,,,,,Hanover Close,Cobbs Wood Estate,Ashford,Kent,,TN23 1EJ
a56c1cea-5989-4275-a019-46784ff8ad41,"61b Judd Street, London, WC1H 9QT",Primary,,,,,61b,Judd Street,,London,,,WC1H 9QT
a58549a8-e6be-4208-9232-fda2e4ef9615,"Estate Yard, 25  Cuckoo Lane, North Leigh, Witney, Oxfordshire, OX29 6PW",Primary,,Estate Yard,,,25,Cuckoo Lane,North Leigh,Witney,Oxfordshire,,OX29 6PW
a58cd132-4582-41b1-85a1-de6c96dd75fe,"37 Barnet Lane, Barnet, EN5 2DW",Primary,,,,,37,Barnet Lane,,Barnet,,,EN5 2DW
a5f115c4-0ab6-4655-8164-363b55b1c772,"1  Rawstorne Place, London, EC1V 7NL",Primary,,,,,1,Rawstorne Place,,London,,,EC1V 7NL
a5faa136-95bc-4cf7-b691-badbbbad5a9d,"12  Lexden Road, Colchester, Essex, CO3 3NF",Primary,,,,,12,Lexden Road,,Colchester,Essex,,CO3 3NF
a64aed59-0aa1-42c3-8811-0195ba36d57a,"Bellway House, London Road, Merstham, Surrey, RH1 3YU",Primary,,Bellway House,,,,London Road,,Merstham,Surrey,,RH1 3YU
a6db3640-da18-4dcb-8a96-544b598a4f94,"85  Kynaston Road, Didcot, Oxfordshire, OX11 8HA",Primary,,,,,85,Kynaston Road,,Didcot,Oxfordshire,,OX11 8HA
a6e1a6c9-82c7-4c14-826f-0094b1aaf6fc,"63-65 Fore Street, Hertford, Hertfordshire, SG14 1AL",Primary,,,,,63-65,Fore Street,,Hertford,Hertfordshire,,SG14 1AL
a6f89e66-6a5d-470c-90b7-b2c3233fa8f6,"Unit 4 - Wharf Studios, 32 Wharf Road, London, N1 7GR",Primary,,Unit 4 - Wharf Studios,,,32,Wharf Road,,London,,,N1 7GR
a73b6fbd-f4f3-4626-8302-819d12f12125,"Maple Cross House, Denham Way, Maple Cross, Rickmansworth, Hertfordshire, WD3 9SW",Primary,,Maple Cross House,,,,Denham Way,Maple Cross,Rickmansworth,Hertfordshire,,WD3 9SW
a7934c9d-b694-42e4-a2f5-66ac1307cfc6,"Forty Hall Farm, Forty Hill, Enfield, EN2 9HA",Primary,,Forty Hall Farm,,,,Forty Hill,,Enfield,,,EN2 9HA
a7d9ad48-a986-483f-8785-6654b84b315a,"50  Queen Anne Street, London, W1M 0HQ",Primary,,,,,50,Queen Anne Street,,London,,,W1M 0HQ
a845dadc-3d5e-4c48-9666-8db27f7b4480,"Toronto, ",Primary,,,,,,,,Toronto,,,
a87ebabc-0378-4692-a408-c37970f258a1,"Palladium House, 1-4 Argyll Street, London, W1F 7LD",Primary,,Palladium House,,,01-Apr,Argyll Street,,London,,,W1F 7LD
a8801334-20ff-42a7-a432-1037a5354f7f,"2 Balkerne House, Balkerne Passage, Colchester, Essex, CO1 1PA",Primary,,,2,Balkerne House,,Balkerne Passage,,Colchester,Essex,,CO1 1PA
a8b03919-5445-4f88-b0c4-32f7431374a1,"Old Engine House, Eskmills Park, Station Road, Musselburgh, East Lothian, EH21 7PQ",Primary,,Old Engine House,,Eskmills Park,,Station Road,,Musselburgh,East Lothian,,EH21 7PQ
a8c8cf80-28a2-45bd-9e9d-42721c55a77a,"369  Station Road , Harrow,  HA1 2AW",Primary,,,,,369,Station Road ,,Harrow,,, HA1 2AW
a91c30bd-2353-4e46-b8b4-963031d0c876,"9  Morgan Close, Arley, Coventry, Warwickshire, CV7 8PR",Primary,,,,,9,Morgan Close,Arley,Coventry,Warwickshire,,CV7 8PR
a94e0916-7eff-443a-9dea-4ce01cee938a,"51  Clarkegrove Road, Sheffield, South Yorkshire, S10 2NH",Primary,,,,,51,Clarkegrove Road,,Sheffield,South Yorkshire,,S10 2NH
a980699f-b292-4c63-9af2-192eb5ca067f,"2 Ardington Courtyard, Roke Lane, Witley, Godalming, Surrey, GU8 5NF",Primary,,,2,Ardington Courtyard,,Roke Lane,Witley,Godalming,Surrey,,GU8 5NF
aa477b09-4d10-48f7-be35-0eea317bff84,"1st Floor Centre Heightd, 137  Finchley Road, London, NW3 6JG",Primary,,1st Floor Centre Heightd,,,137,Finchley Road,,London,,,NW3 6JG
aa6ede79-6378-4c0f-9ff1-a379d980e696,"School Farm Oast, Graveney Road, Faversham, Kent, ME13 8UP",Primary,,School Farm Oast,,,,Graveney Road,,Faversham,Kent,,ME13 8UP
aab58d3a-1018-41af-baff-878af18e0545,"64 Great Titchfield Street, London, W1W 7QH",Primary,,,,,64,Great Titchfield Street,,London,,,W1W 7QH
ab078d17-388a-46cc-821e-9ee14ee2840b,"Sceptre Court, 40  Tower Hill, London, EC3N 4DX",Primary,,Sceptre Court,,,40,Tower Hill,,London,,,EC3N 4DX
ab219dbf-defa-4596-ae9e-3f458599b3d3,"Ground Floor - Building 1000, Lakeside North Harbour, 1000 Western Road, Portsmouth, PO6 3EZ",Primary,,"Ground Floor - Building 1000, Lakeside North Harbour",,,1000,Western Road,,Portsmouth,,,PO6 3EZ
ab270f30-062c-4c3b-936f-5c01cf48d77c,"Crest House, 138  Main Road, Sidcup, DA14 6NY",Primary,,Crest House,,,138,Main Road,,Sidcup,,,DA14 6NY
ac306678-3a69-4a03-9b86-1d928dd2bcd4,"5  Windus Road, London, N16 6UT",Primary,,,,,5,Windus Road,,London,,,N16 6UT
ac3f6923-c830-4fa3-bd4b-cd02b5e23596,"Pointe North, 3  Greenwich Place, London, E14 9NN",Primary,,Pointe North,,,3,Greenwich Place,,London,,,E14 9NN
ac945376-ab82-47fd-a18f-863a14bcc216,"Wildwood, Herons Lea, Copthorne, Crawley, West Sussex, RH10 3HE",Primary,,Wildwood,,,,Herons Lea,Copthorne,Crawley,West Sussex,,RH10 3HE
ad3c9162-affd-438e-bfe5-ece12a656c91,"34  Margery Street, London, WC1X 0JJ",Primary,,,,,34,Margery Street,,London,,,WC1X 0JJ
ad690d91-f7a2-4df0-af10-23e95c3b736c,"The Parade, 10  Brighton Road, Burgh Heath, Surrey, KT20 6AT",Primary,,The Parade,,,10,Brighton Road,,Burgh Heath,Surrey,,KT20 6AT
adecb8a0-f15a-4132-9455-b07bb415b9c0,"1st Floor - Town Hall, Main Road, Romford, RM1 3BD",Primary,,1st Floor - Town Hall,,,,Main Road,,Romford,,,RM1 3BD
ae07233a-d917-49d2-855e-479f8dddce0c,"240 Blackfriars Road, London, SE1 8NW",Primary,,,,,240,Blackfriars Road,,London,,,SE1 8NW
ae07233a-d917-49d2-855e-479f8dddce0c,"Carlton House, Ringwoods Road, Woodlands, Southampton, Hampshire, SO40 7HT",Alternate,Current,Carlton House,,,,Ringwoods Road,Woodlands,Southampton,Hampshire,,SO40 7HT
ae3bf6bd-d29f-4ed3-a7a8-3cb3aa5841fc,"Devonshire House, 60  Station Road, Addlestone, Surrey, KT15 2AF",Primary,,Devonshire House,,,60,Station Road,,Addlestone,Surrey,,KT15 2AF
ae9b6998-3f9a-4c60-bde2-1bad18cba69d,"300 St John Street, London, EC1V 4PP",Primary,,,,,300,St John Street,,London,,,EC1V 4PP
aeb5ba05-a3ff-4bc1-9a67-872433708752,"Apartment 39A - Hampton Court Palace, Hampton Court Way, East Molesey, KT8 9AU",Primary,,Apartment 39A - Hampton Court Palace,,,,Hampton Court Way,,East Molesey,,,KT8 9AU
af190d57-0955-49a8-b032-03c86f92e6d0,"St Faith's Street, Maidstone, Kent, ME14 1LH",Primary,,,,,,St Faith's Street,,Maidstone,Kent,,ME14 1LH
af79ec71-cc98-4a99-a667-84746b51967c,"1  Airlie Road, Winchester, Hampshire, SO22 4NQ",Primary,,,,,1,Airlie Road,,Winchester,Hampshire,,SO22 4NQ
afb1cd84-8755-4fbe-92f7-1c89fbba4b48,"Highgate Cottage, Ingatestone Road, Highwood, Chelmsford, Essex, CM1 3RA",Primary,,Highgate Cottage,,,,Ingatestone Road,Highwood,Chelmsford,Essex,,CM1 3RA
afb23b2b-7cc2-496e-a420-049207b514a0,"College Road, Cranfield, Bedford, Bedfordshire, MK43 0AL",Primary,,,,,,College Road,Cranfield,Bedford,Bedfordshire,,MK43 0AL
b0150c7f-2dc1-4a94-90f8-b3d4edfdd85d,"St James House, 26  Bridge Street, Leatherhead, Surrey, KT22 8BZ",Primary,,St James House,,,26,Bridge Street,,Leatherhead,Surrey,,KT22 8BZ
b076bf51-80f0-4452-bea6-124909765024,"Old Poplar Library, 45  Gillender Street, E14 6RN",Primary,,Old Poplar Library,,,45,Gillender Street,,,,,E14 6RN
b07c612a-43c8-4ff1-91cc-13af9663d056,"3 Alma Studios, 32 Stratford Road, London, W8 6QF",Primary,,,3,Alma Studios,32,Stratford Road,,London,,,W8 6QF
b0896443-fd22-4d77-a0fe-c65787ed557c,"Bruce Kenrick House, 2  Killick Street, London, N1 9FL",Primary,,Bruce Kenrick House,,,2,Killick Street,,London,,,N1 9FL
b0a1cf9b-8e54-4e9f-b35f-3d4e6293ebc2,"Everdene House, Deansleigh Road, Bournemouth, Dorset, BH7 7DU",Primary,,Everdene House,,,,Deansleigh Road,,Bournemouth,Dorset,,BH7 7DU
b0a7d7a2-c960-423e-939e-0ada9bc5bfd0,"Shepherds Lodge, 518a Stag Park, Petworth, West Sussex, GU28 9LT",Primary,,Shepherds Lodge,,,518a,Stag Park,,Petworth,West Sussex,,GU28 9LT
b0d7b390-d311-4f38-89ad-6bd396c46e1f,"19  Worple Road, Wimbledon, London, SW19 4JS",Primary,,,,,19,Worple Road,Wimbledon,London,,,SW19 4JS
b0faa20b-2a86-4a88-9dc6-726eb48536ea,"180  Carnlough Road, Broughshane, Ballymena, County Antrim, BT43 7JW",Primary,,,,,180,Carnlough Road,Broughshane,Ballymena,County Antrim,,BT43 7JW
b1431f3d-1ded-46c5-b829-dd77f6b447e0,"1180 Eskdale Road, Winnersh, Wokingham, Berkshire, RG41 5TU",Primary,,,,,1180,Eskdale Road,Winnersh,Wokingham,Berkshire,,RG41 5TU
b1431f3d-1ded-46c5-b829-dd77f6b447e0,"1 City Walk, Leeds, West Yorkshire, LS11 9DX",Alternate,Current,,,,1,City Walk,,Leeds,West Yorkshire,,LS11 9DX
b1431f3d-1ded-46c5-b829-dd77f6b447e0,"95 Bothwell Street, Glasgow, G2 7HX",Alternate,Current,,,,95,Bothwell Street,,Glasgow,,,G2 7HX
b1431f3d-1ded-46c5-b829-dd77f6b447e0,"4th Floor - Metro, 33 Trafford Road, Manchester, M5 3NN",Alternate,Current,4th Floor - Metro,,,33,Trafford Road,,Manchester,,,M5 3NN
b17adf9b-7b6a-4a72-baa4-c294307b0e9d,"470  London Road, Slough, Berkshire, SL3 8QY",Primary,,,,,470,London Road,,Slough,Berkshire,,SL3 8QY
b19c48f1-8fd2-48e4-8fa0-618a17bad398,"100 Inchinnan Road, Paisley, Renfrewshire, PA3 2RE",Primary,,,,,100,Inchinnan Road,,Paisley,Renfrewshire,,PA3 2RE
b1b8960b-a00a-4350-a3e8-ddcc2ebc5714,"Myddelton House, Bulls Cross, Enfield,  Middlesex, EN2 9HG",Primary,,Myddelton House,,,,Bulls Cross,,Enfield, Middlesex,,EN2 9HG
b1cbe288-a031-4469-ba91-dca1770b1280,"93-95 Greenford Road, Harrow, HA1 3QF",Primary,,,,,93-95,Greenford Road,,Harrow,,,HA1 3QF
b1d39c28-3333-4d5d-b6a6-1467caf21f09,"Randalls, Penshurst Road, Penshurst, Tonbridge, Kent, TN11 8HZ",Primary,,Randalls,,,,Penshurst Road,Penshurst,Tonbridge,Kent,,TN11 8HZ
b2861a6f-19f3-4496-89c8-74f0fd599e31,"86A Broomfield Road, Chelmsford, Essex, CM1 1SS",Primary,,,,,86A,Broomfield Road,,Chelmsford,Essex,,CM1 1SS
b29d5bf6-9eff-4be5-a401-849b01872afa,"67  Santos Road, Wandsworth, London, SW181NT",Primary,,,,,67,Santos Road,Wandsworth,London,,,SW181NT
b307f7bf-bdcd-4c81-8dea-ee3dd4207915,"Unit 3 Liss Business Centre, Station Road, Liss, Hampshire, GU33 7AW",Primary,,,Unit 3,Liss Business Centre,,Station Road,,Liss,Hampshire,,GU33 7AW
b359a520-2d85-4b71-ab53-519238f710ea,"42  Berrylands Road, Surbiton, KT5 8PD",Primary,,,,,42,Berrylands Road,,Surbiton,,,KT5 8PD
b3606d23-ab1a-4f3c-bb05-05d71196770c,"Unit 208 A2, Belgravia Workshops, Marlborough Road, London, N19 4NF",Primary,,Unit 208 A2,,Belgravia Workshops,,Marlborough Road,,London,,,N19 4NF
b36838d7-2d26-41b1-8b95-2e9603ff056a,"23  Old Bond Street, London, W1S 4PZ",Primary,,,,,23,Old Bond Street,,London,,,W1S 4PZ
b3865f85-7857-44c4-b0ea-05e84645cf7c,"133  Nathan Way, West Thamesmead Business Park, London, SE28 0AB",Primary,,,,,133,Nathan Way,West Thamesmead Business Park,London,,,SE28 0AB
b393fcdf-7324-47ea-989e-40136a48383f,"Eldon House, 2-3 Eldon Street, London, EC2M 7LS",Primary,,Eldon House,,,02-Mar,Eldon Street,,London,,,EC2M 7LS
b3e60438-0215-447b-b7e2-4432843411e6,"25-28 Old Burlington Street, London, W1S 3AN",Primary,,,,,25-28,Old Burlington Street,,London,,,W1S 3AN
b3ee1119-5c04-4c62-8da1-5859a8681124,"Level 10 - Stratford Place, 1  Montfichet Road, Stratford, London,  E20 1EJ",Primary,,Level 10 - Stratford Place,,,1,Montfichet Road,Stratford,London,,, E20 1EJ
b4000af0-0de0-496b-84f0-a19756ebb01d,"2c Kings Grove, Peckham, London, SE15 2NB",Primary,,,,,2c,Kings Grove,Peckham,London,,,SE15 2NB
b48f0d53-0f5a-495a-9567-312b8d0643ea,"Foghamshire Timber Yard, Foghamshire Lane, Trudoxhill, Frome, Somerset, BA11 5DG",Primary,,Foghamshire Timber Yard,,,,Foghamshire Lane,Trudoxhill,Frome,Somerset,,BA11 5DG
b492e7f6-75e1-4064-b4d4-4f7e0ff4ebe4,"County Hall, Walton Street, Aylesbury, Buckinghamshire, HP20 1UA",Primary,,County Hall,,,,Walton Street,,Aylesbury,Buckinghamshire,,HP20 1UA
b4e938ea-072e-421f-a108-f9dbdc1c0750,"17  Rosebery Avenue, London, EC1R 4SP",Primary,,,,,17,Rosebery Avenue,,London,,,EC1R 4SP
b5487196-5ad2-4ec7-8afe-728e94eead2d,"The Old Penny School House, 31  Magdalen Road, Saint Leonards-on-Sea, TN37 6ET",Primary,,The Old Penny School House,,,31,Magdalen Road,,Saint Leonards-on-Sea,,,TN37 6ET
b5511fd9-ad6c-4390-97a7-db9af9a6a34c,"30  Warwick Street, London, W1B 5NH",Primary,,,,,30,Warwick Street,,London,,,W1B 5NH
b565ea38-5492-4001-90ef-60809daccb50,"Bangor, Gwynedd, LL57 2DG",Primary,,,,,,,,Bangor,Gwynedd,,LL57 2DG
b56974a4-073c-422c-9446-72b05d345e5e,"The Old School, Cameron Street, Heckington, Sleaford, Lincolnshire, NG34 9RW",Primary,,The Old School,,,,Cameron Street,Heckington,Sleaford,Lincolnshire,,NG34 9RW
b5b863fc-9f46-4e81-b180-f503d2d45a0d,"Brook Holt, 3  Blackburn Road, Sheffield, South Yorkshire, S61 2DW",Primary,,Brook Holt,,,3,Blackburn Road,,Sheffield,South Yorkshire,,S61 2DW
b5f440de-996e-4710-9b10-c8c73db51f08,"102  Victoria Road, Alexandra Park, London, N22 7XF",Primary,,,,,102,Victoria Road,Alexandra Park,London,,,N22 7XF
b6b8f717-ed4a-48bd-bd47-d47946d98791,"First Floor, 436  Kings Road, Chelsea, London, SW10 0LJ",Primary,,First Floor,,,436,Kings Road,Chelsea,London,,,SW10 0LJ
b706814e-5a23-4f28-aa74-84817dbdb8bc,"Home Farm, Harewood End, Hereford, Herefordshire, HR2 8JS",Primary,,Home Farm,,,,Harewood End,,Hereford,Herefordshire,,HR2 8JS
b70d604a-13ff-4cc7-a2f2-9821879ee45f,"Kent House, 14-17 Market Place, London, W1W 8AJ",Primary,,Kent House,,,14-17,Market Place,,London,,,W1W 8AJ
b7868875-95e2-469e-8a55-c3815632d3e5,"5th Floor, 2  City Walk, Leeds, LS11 9AR",Primary,,5th Floor,,,2,City Walk,,Leeds,,,LS11 9AR
b7f3dd9a-5b5c-465e-b20d-fa420b6aca96,"America House Rumford Court, Rumford Place, Liverpool, L3 9DD",Primary,,America House Rumford Court,,,,Rumford Place,,Liverpool,,,L3 9DD
b7fec7fd-9cc5-419b-a559-07e953fbdf7f,"Caburn House, Brooks Road, Lewes, BN7 2BY",Primary,,Caburn House,,,,Brooks Road,,Lewes,,,BN7 2BY
b8258903-094a-4b39-873e-a33209d31f95,"The Stables, Sansaw Business Park, Ladymas Road, Hadnall, Shrewsbury, SY4 4AS",Primary,,The Stables,,Sansaw Business Park,,Ladymas Road,Hadnall,Shrewsbury,,,SY4 4AS
b8265501-aa9c-42fc-bedf-0944320b1f0b,"Astral House, Imperial Way, Watford, Hertfordshire, WD24 4WW",Primary,,Astral House,,,,Imperial Way,,Watford,Hertfordshire,,WD24 4WW
b83a48df-76c3-4d89-b573-4ed4398c4f7f,"30 Jessops Riverside, 800 Brightside Lane, Sheffield, S9 2RX",Primary,,,30,Jessops Riverside,800,Brightside Lane,,Sheffield,,,S9 2RX
b8ef4e70-1ce5-4bfa-abe8-d56ad365f8cc,"Thomas More Way, London, N2",Primary,,,,,,Thomas More Way,,London,,,N2
b9ce2982-1e94-4fba-a300-2560516ee586,"Third Floor, 33  Lowndes Street, London, SW1X 9HX",Primary,,Third Floor,,,33,Lowndes Street,,London,,,SW1X 9HX
b9f25ab1-aa96-4dd0-bcd7-f08f7f9c1b9f,"Ingeni Building, 17  Broadwick Street, London, W1F 0AX",Primary,,Ingeni Building,,,17,Broadwick Street,,London,,,W1F 0AX
ba4717c7-8d87-470a-9825-b2c6766cd092,"Tyttenhanger House, Coursers Road, St Albans, Hertfordshire, AL4 0PF",Primary,,Tyttenhanger House,,,,Coursers Road,,St Albans,Hertfordshire,,AL4 0PF
baa92104-bb81-407f-a10e-6a529dd360ea,"The Tithe Barn, Barnsley Park Estate, Barnsley, Cirencester, Gloucestershire, GL7 5EG",Primary,,The Tithe Barn,,,,Barnsley Park Estate,Barnsley,Cirencester,Gloucestershire,,GL7 5EG
bae0e002-15dc-41a9-b10c-c83addd86eec,"44-46 Old Steine, Brighton, East Sussex, BN1 1NH",Primary,,,,,44-46,Old Steine,,Brighton,East Sussex,,BN1 1NH
baf2d4d1-60bc-4e40-a894-be5f0ae3c2ec,"The Estate Office, Smiths Hall Lower Road, West Farleigh, Maidstone, Kent, MW15 0PE",Primary,,The Estate Office,,,,Smiths Hall Lower Road,West Farleigh,Maidstone,Kent,,MW15 0PE
bb5f1d73-c761-4b3f-bdf6-82cc15d169f5,"5  Bolton Street, London, W1J 8BA",Primary,,,,,5,Bolton Street,,London,,,W1J 8BA
bb640495-079c-4f93-9000-45aaa119ee20,"4  Sutton Close, Abingdon, Oxfordshire, OX14 1ER",Primary,,,,,4,Sutton Close,,Abingdon,Oxfordshire,,OX14 1ER
bb8328f0-b110-4b5b-9e8e-9dd7b88bc8be,"Gunnersbury Park House, Popes Lane, Chiswick, London, W3 8LQ",Primary,,Gunnersbury Park House,,,,Popes Lane,Chiswick,London,,,W3 8LQ
bbd9ca59-f729-4ab4-ab61-3e0020b632fb,"31  Stock Street, Plaistow, London, E13 0BX",Primary,,,,,31,Stock Street,Plaistow,London,,,E13 0BX
bbe32005-8ead-4f45-b641-d175e393c7c8,"193-207 High Road, Ilford, IG1 1LZ",Primary,,,,,193-207,High Road,,Ilford,,,IG1 1LZ
bc169566-48f8-445d-a37a-6ece29e43b4b,"Cromwell Road, Knightsbridge, London, SW7 2RL",Primary,,,,,,Cromwell Road,Knightsbridge,London,,,SW7 2RL
bc2f568d-b66d-44a3-800c-fa2f7bebfcbe,"1 Huguenot Place, Heneage Street, London, E1 5LN",Primary,,,1,Huguenot Place,,Heneage Street,,London,,,E1 5LN
bc3e4d51-e941-4b9c-a0b8-936c29af11d4,"Freestyle House, 8 Mercia Business Village, Torwood Close, Coventry, Warwickshire, CV4 8HX",Primary,,Freestyle House,8,Mercia Business Village,,Torwood Close,,Coventry,Warwickshire,,CV4 8HX
bc4bedb8-095b-4eed-a37d-3d54014a99ff,"8  Wynyatt Street, London, EC1V 7HU",Primary,,,,,8,Wynyatt Street,,London,,,EC1V 7HU
bc79969e-80ba-4996-a7ff-7f151528b397,"32  Herbert Road, Bexleyheath, DA7 4QF",Primary,,,,,32,Herbert Road,,Bexleyheath,,,DA7 4QF
bca3b580-82a4-42a4-a293-5023cffbcf7b,"Voysey House, Barley Mow Passage, Chiswick, London, W4 4PN",Primary,,Voysey House,,,,Barley Mow Passage,Chiswick,London,,,W4 4PN
bca97b5f-c54c-43b3-b3c9-ab080cc20649,"47  Manor Road, Saxilby, Lincoln, Lincolnshire, LN1 2HX",Primary,,,,,47,Manor Road,Saxilby,Lincoln,Lincolnshire,,LN1 2HX
bd102656-0a8c-460b-8b3c-6ad199deb4da,"Caversham Bridge House, Waterman Place, Reading, Berkshire, RG1 8DN",Primary,,Caversham Bridge House,,,,Waterman Place,,Reading,Berkshire,,RG1 8DN
bd63366a-5e5a-4765-8f1b-b2e1b9b58219,"3  Scot Lane, Clapham Old Town, London, SW4 0AL",Primary,,,,,3,Scot Lane,Clapham Old Town,London,,,SW4 0AL
bd699ce3-0f51-45e6-b614-25b56ec8c47f,"Staines, ",Primary,,,,,,,,Staines,,,
bd73fd61-e197-485b-b8b0-1678b6ea990f,"Maxted House, 13  Maxted Road, Hemel Hempstead, Hertfordshire, HP2 7DX",Primary,,Maxted House,,,13,Maxted Road,,Hemel Hempstead,Hertfordshire,,HP2 7DX
bd88f146-7f9c-430f-96f6-c5e7d32885c8,"The Town Hall, Hornton Street, London, W8 7NX",Primary,,The Town Hall,,,,Hornton Street,,London,,,W8 7NX
bdaaf97f-f3d0-4bb1-86c6-7e6ab0477a9c,"Grove House, Mansion Gate Drive, Leeds, West Yorkshire, LS7 4DN",Primary,,Grove House,,,,Mansion Gate Drive,,Leeds,West Yorkshire,,LS7 4DN
bdc3eb29-7184-4c1c-bcca-cb4d3495db8e,"Willow Grange, Church Road, Watford, Hertfordshire, WD17 4QA",Primary,,Willow Grange,,,,Church Road,,Watford,Hertfordshire,,WD17 4QA
bde2b578-f3a5-46b0-b1e1-a7c95b379895,"3  Bute Gardens, Hammersmith, London, W6 7DR",Primary,,,,,3,Bute Gardens,Hammersmith,London,,,W6 7DR
bde9814f-085c-4915-af34-823a37bd7125,"Enterprise Way, Pinchbeck, Spalding, Lincolnshire, PE11 3YR",Primary,,,,,,Enterprise Way,Pinchbeck,Spalding,Lincolnshire,,PE11 3YR
bdfd88c2-8b10-4048-907e-fafcbf22c2db,"Mitre House, 160  Aldersgate Street, London, EC1A 4DD",Primary,,Mitre House,,,160,Aldersgate Street,,London,,,EC1A 4DD
be1988a4-0f9e-489d-96df-7638910b61fa,"5  Strand, London, WC5N 5AF",Primary,,,,,5,Strand,,London,,,WC5N 5AF
be59e405-c9f1-4614-8217-638168d93ded,"3 The Courtyard, Lethame Road, Strathaven, Lanarkshire, ML10 6RW",Primary,,,3,The Courtyard,,Lethame Road,,Strathaven,Lanarkshire,,ML10 6RW
be7291ed-a6ad-4002-82e3-52508cfe0a8e,"17-19 Dungannon Road, Cookstown, Mid Ulster, BT80 8TL",Primary,,,,,17-19,Dungannon Road,,Cookstown,Mid Ulster,,BT80 8TL
beedb25a-9cbe-4f8b-a7fd-0fb05841b447,"95  New Cavendish Street, London, W1W 6XF",Primary,,,,,95,New Cavendish Street,,London,,,W1W 6XF
bf02092c-4048-4b3b-97e6-861593623a25,"Civic Centre, Rainham Road North, Dagenham, RM10 7BN",Primary,,Civic Centre,,,,Rainham Road North,,Dagenham,,,RM10 7BN
bf4183cf-143a-45db-8011-6623cd0eeaf2,"Unit 6, 1-3 Upper Richmond Road, Wandsworth, London, SW15 2RF",Primary,,Unit 6,,,01-Mar,Upper Richmond Road,Wandsworth,London,,,SW15 2RF
bf493881-bd79-4c0a-a18e-b439ef066014,"Unit 60 Horndon Industrial Park, Station Road, West Horndon, Essex, CM13 3XL",Primary,,,Unit 60,Horndon Industrial Park,,Station Road,,West Horndon,Essex,,CM13 3XL
bf542ca4-f5c3-4bc5-a3e4-6d5dc60e3ad4,"Millennium House, 99  Bell Street, Reigate, Surrey, RH2 7AN",Primary,,Millennium House,,,99,Bell Street,,Reigate,Surrey,,RH2 7AN
bf7837bc-ae20-4fa8-90a5-20be8d909461,"5  Leopold Road, Linslade, Bedfordshire, LU7 2QU",Primary,,,,,5,Leopold Road,,Linslade,Bedfordshire,,LU7 2QU
bf7a2efe-d3a6-40ea-a721-7f86ecbb7da1,"Manor Park, 6  Church Road, Great Barton, Bury Saint Edmunds, IP31 2QR",Primary,,Manor Park,,,6,Church Road,Great Barton,Bury Saint Edmunds,,,IP31 2QR
bf9b0b47-b8d8-475e-a91f-04cff100f684,"Connaught House, Alexandra Terrace, Guildford, Surrey, GU1 3DA",Primary,,Connaught House,,,,Alexandra Terrace,,Guildford,Surrey,,GU1 3DA
c0585baa-b0b7-4f78-8f92-2cea3e1ba5fb,"60  High Street, Redhill, Surrey, RH1 1SH",Primary,,,,,60,High Street,,Redhill,Surrey,,RH1 1SH
c09604b3-3fb4-4188-8ef8-ec5717f296cd,"37-41 Church Road, Stanmore, HA7 4AA",Primary,,,,,37-41,Church Road,,Stanmore,,,HA7 4AA
c0a81b76-a88e-4c6c-9557-df08adf428d7,"Russel House, Mill Road, Langley Moor, Durham, County Durham, DH7 8HJ",Primary,,Russel House,,,,Mill Road,Langley Moor,Durham,County Durham,,DH7 8HJ
c0e256ea-320b-47e1-b013-2ee481f901e9,"Rutland House, 148  Edmund Street, Birmingham, ",Primary,,Rutland House,,,148,Edmund Street,,Birmingham,,,
c136785f-9c88-4c03-a878-319f2c4e0dc7,"3  Colleton Crescent, Exeter, Devon, EX2 4DG",Primary,,,,,3,Colleton Crescent,,Exeter,Devon,,EX2 4DG
c1450c5c-e7a6-48bd-9871-559dc5ab49e5,"Waitrose & Partners Head Office, Doncastle Road, Bracknell, Berkshire, RG12 8YA",Primary,,Waitrose & Partners Head Office,,,,Doncastle Road,,Bracknell,Berkshire,,RG12 8YA
c152d22f-e0cc-4112-b0de-7bae89e8fd0a,"Redroof, Green Road, Codford St Peter, Warminster, Wiltshire, BA12 0NW",Primary,,Redroof,,,,Green Road,Codford St Peter,Warminster,Wiltshire,,BA12 0NW
c214aaac-7df8-4b87-9fdb-6eb2e11db3e6,"51  St Mary's Gardens, Hilperton Marsh, Trowbridge, Wiltshire, BA14 7PH",Primary,,,,,51,St Mary's Gardens,Hilperton Marsh,Trowbridge,Wiltshire,,BA14 7PH
c28f981b-dab1-4c4e-b915-880ff42d066f,"Wharf House, Wharf Road, Guildford, Surrey, GU1 4RP",Primary,,Wharf House,,,,Wharf Road,,Guildford,Surrey,,GU1 4RP
c2baa6ef-6b6e-4034-9ee7-dcb3df6f8cd9,"Unit 2, Nix's Hill, Nix's Hill Industrial Estate, Alfreton, Derbyshire, DE55 7GN",Primary,,Unit 2,,,,Nix's Hill,Nix's Hill Industrial Estate,Alfreton,Derbyshire,,DE55 7GN
c2c9cfdf-7e93-487d-97aa-1424f793285b,"Lawrence House, 2  Polstead Road, Oxford, OX2 6TN",Primary,,Lawrence House,,,2,Polstead Road,,,Oxford,,OX2 6TN
c2f266d0-b248-4e23-bf2c-d4d9390d8b0a,"101  Elm Tree Court, London, NW8 9JT",Primary,,,,,101,Elm Tree Court,,London,,,NW8 9JT
c31192b9-b83c-4237-a3af-726b97431691,"First Floor Studio, 86-87 Campden Street, London,  W8 7EN",Primary,,First Floor Studio,,,86-87,Campden Street,,London,,, W8 7EN
c336a6a3-ad67-404a-8641-b0f56fb430d5,"109 Albion Street, Swindon, Wiltshire, SN1 5LP",Primary,,,,,109,Albion Street,,Swindon,Wiltshire,,SN1 5LP
c34b7094-db3a-40c5-9af5-76d9b0fb9dc7,"13  Willow Park, Stoke Golding, Nuneaton, Warwickshire, CV13 6EU",Primary,,,,,13,Willow Park,Stoke Golding,Nuneaton,Warwickshire,,CV13 6EU
c35486e0-ef01-4a38-8c96-ae5cffd3b480,"Netley House, Shere Road, Gomshall, Guildford, Surrey, GU5 9QA",Primary,,Netley House,,,,Shere Road,Gomshall,Guildford,Surrey,,GU5 9QA
c35ced6b-e156-462f-ab17-f38851520fc5,"7-10 Chandos Street, London, W1G 9DQ",Primary,,,,,07-Oct,Chandos Street,,London,,,W1G 9DQ
c3667825-30a7-426a-9f44-f0df2bf9fe04,"Phoenix House, Pyrford Road, West Byfleet, Surrey, KT14 6RA",Primary,,Phoenix House,,,,Pyrford Road,,West Byfleet,Surrey,,KT14 6RA
c38d0605-00f7-47a7-a502-ee53b74d2ff0,"4th Floor, 19  Heddon Street, London, W1B 4BG",Primary,,4th Floor,,,19,Heddon Street,,London,,,W1B 4BG
c3b438df-5cb2-45ca-98b9-ea567f148214,"72  Belmont Avenue, Cockfosters, Barnet, EN4 9LA",Primary,,,,,72,Belmont Avenue,Cockfosters,Barnet,,,EN4 9LA
c40b4767-b9c2-4f42-a7cf-cf1cad8ea840,"Great Maze Pond, London, SE1 9RT",Primary,,,,,,Great Maze Pond,,London,,,SE1 9RT
c4bda0f2-0794-4a39-a2ee-458ca5c2fbe7,"3rd Floor Sterling House, Langston Road, Loughton, Essex, IG10 3TS",Primary,,3rd Floor Sterling House,,,,Langston Road,,Loughton,Essex,,IG10 3TS
c4d2c034-1aec-4042-833b-8b3e7859a38f,"62  British Grove, Chiswick, London, W4 2NL",Primary,,,,,62,British Grove,Chiswick,London,,,W4 2NL
c50d0de6-5128-492f-a3a8-7d7487633aa3,"1  Greenwood Road, London, E8 1AE",Primary,,,,,1,Greenwood Road,,London,,,E8 1AE
c54bb652-d9ff-423f-9770-d30773c086ac,"The Old Boathouse, 1A Putney Embankment, Putney, London, SW15 1LB",Primary,,The Old Boathouse,,,1A,Putney Embankment,Putney,London,,,SW15 1LB
c587f0fa-c04e-49b9-acee-232e37271603,"Charles Rowan House, Margery Street, Islington, London, WC1X 0EH",Primary,,Charles Rowan House,,,,Margery Street,Islington,London,,,WC1X 0EH
c5883203-d0c7-4609-a250-ed5a408122e4,"1  Kingsway, London, WC2B 6AN",Primary,,,,,1,Kingsway,,London,,,WC2B 6AN
c5d5c0ab-7405-4fd9-ada9-486abaed3821,"92a Broad Street, Canterbury, Kent, CT1 2LU",Primary,,,,,92a,Broad Street,,Canterbury,Kent,,CT1 2LU
c5efd66f-f1d2-46d7-9184-abdcfa35596b,"Unit 7 St Margaret's Business Centre, Moor Mead Road, Twickenham, TW1 1JS",Primary,,Unit 7 St Margaret's Business Centre,,,,Moor Mead Road,,Twickenham,,,TW1 1JS
c6a31ccd-f94f-4805-b9df-e9baebf168d7,"130-136 Sydenham Road, Sydenham, London, SE26 5JY",Primary,,,,,130-136,Sydenham Road,Sydenham,London,,,SE26 5JY
c6dcc5bc-3e85-4287-8e79-9f86faeb55d7,"Spaceworks, Harland Works, 70 John Street, Sheffield, South Yorkshire, S2 4QU",Primary,,Spaceworks,,Harland Works,70,John Street,,Sheffield,South Yorkshire,,S2 4QU
c6ebf321-7d99-4b35-8f7e-aeb020b558b1,"46  Chipstead Valley Road, Coulsdon, CR5 2RA",Primary,,,,,46,Chipstead Valley Road,,Coulsdon,,,CR5 2RA
c6ffc689-aa32-4cdf-844b-d03c1ed7eae5,"Churchgate House, 3  Church Road, Cardiff, South Glamorgan, CF14 2DX",Primary,,Churchgate House,,,3,Church Road,,Cardiff,South Glamorgan,,CF14 2DX
c7233020-ea63-4e33-b1de-dd8cb84bad8f,"Amber Court, William Armstrong Drive, Newcastle Business Park, Newcastle upon Tyne, Tyne and Wear, NE4 7YQ",Primary,,Amber Court,,,,William Armstrong Drive,Newcastle Business Park,Newcastle upon Tyne,Tyne and Wear,,NE4 7YQ
c76adb44-2aa3-457e-a8a8-36daaa0f4636,"University College London, 31-34 Gordon Square, London, WC1H 0PY",Primary,,University College London,,,31-34,Gordon Square,,London,,,WC1H 0PY
c7752d11-c0f4-4352-8862-82951c3e76a7,"Church Hill, Orpington, Kent, BR6 0HN",Primary,,,,,,Church Hill,,Orpington,Kent,,BR6 0HN
c7871b53-b718-4a29-8075-c18ea99d1110,"Sessions House, County Hall, County Road, Maidstone, Kent, ME14 1XQ",Primary,,Sessions House,,County Hall,,County Road,,Maidstone,Kent,,ME14 1XQ
c7b901fb-796f-477f-bd36-24e69a6b31bb,"4th Floor, 86  Fetter Lane, London, EC4A 1EN",Primary,,4th Floor,,,86,Fetter Lane,,London,,,EC4A 1EN
c8620e87-0eec-48a2-aa2e-ffafe1f9a2d2,"Eversley House, Wheatsheaf Lane, Oaksey, Malmesbury, Wiltshire, SN16 9TB",Primary,,Eversley House,,,,Wheatsheaf Lane,Oaksey,Malmesbury,Wiltshire,,SN16 9TB
c899f331-e67e-4acd-8e50-b603cc3b0818,"52a Cromwell Road, London, SW7 5BE",Primary,,,,,52a,Cromwell Road,,London,,,SW7 5BE
c8a4d30f-f680-482d-b276-eebdda81d646,"70  Grosvenor Street, London, W1K 3JP",Primary,,,,,70,Grosvenor Street,,London,,,W1K 3JP
c8c4278c-0e24-42ad-855a-74c2956bb2d1,"Palmerston Road, Haringey, London, N22 8RG",Primary,,,,,,Palmerston Road,Haringey,London,,,N22 8RG
c8dfa2cd-3fb3-4340-a088-c52a30a68803,"Room 46 - North Kingston Centre, Richmond Road, Kingston upon Thames, KT2 5PE",Primary,,Room 46 - North Kingston Centre,,,,Richmond Road,,Kingston upon Thames,,,KT2 5PE
c955f60b-1c18-4923-bd4a-923f5567f8fe,"Barratt House, Cartwright Way, Bardon Hill, Coalville, Leicestershire, LE67 1UF",Primary,,Barratt House,,,,Cartwright Way,Bardon Hill,Coalville,Leicestershire,,LE67 1UF
c99a3baa-027c-49db-bd86-6e4fdcb1d31c,"25a Creek Road, Hampton Court, East Molesey, KT8 9BE",Primary,,,,,25a,Creek Road,Hampton Court,East Molesey,,,KT8 9BE
c9c5e003-d6b7-43ee-a7c2-e89f86307b57,"10  Downing Street, Westminster, SW1A",Primary,,,,,10,Downing Street,,Westminster,,,SW1A
ca0c8c7a-a382-4040-a381-66bb48ed9443,"21  East Street, Bromley, BR1 1QE",Primary,,,,,21,East Street,,Bromley,,,BR1 1QE
ca14df13-4d71-4c9c-9087-611e1b219e5e,"51  Whitebread Close, London, N17 0YB",Primary,,,,,51,Whitebread Close,,London,,,N17 0YB
ca1c805b-8a63-4635-aeaa-50d3a493fce1,"152  Millbrook Road East, Southampton, Hampshire, SO15 1JR",Primary,,,,,152,Millbrook Road East,,Southampton,Hampshire,,SO15 1JR
ca935870-a1f8-40b1-ab98-6aec0f44a470,"4th Floor - Cannon Bridge House, 25 Dowgate Hill, London, EC4R 2YA",Primary,,4th Floor - Cannon Bridge House,,,25,Dowgate Hill,,London,,,EC4R 2YA
caa2fa44-99de-4e81-8918-4306b18c7917,"Robert Brett House, Milton Manor Farm, Ashford Road, Chartham, Canterbury, Kent, CT5 7PP",Primary,,Robert Brett House,,Milton Manor Farm,,Ashford Road,Chartham,Canterbury,Kent,,CT5 7PP
cb242683-0aa5-40cd-962d-a5ae6d48b870,"1 Chapel Place, London, W1G 0BG",Primary,,,,,1,Chapel Place,,London,,,W1G 0BG
cb96ebdc-1021-47e5-b049-07d4cb0bd3dc,"Old Chapel Farm, Tylwch, Llanidoes, Powys, SY18 6JR",Primary,,Old Chapel Farm,,,,,Tylwch,Llanidoes,Powys,,SY18 6JR
cbb493ca-fccf-42ce-9eee-c579a4cfb170,"15  Countess Road, London, NW5 2NS",Primary,,,,,15,Countess Road,,London,,,NW5 2NS
cc52728d-b312-41f2-b6ee-6179138db175,"Kingsley Dunham Centre, Nicker Hill, Keyworth, Nottingham, NG12 5GG",Primary,,Kingsley Dunham Centre,,,,Nicker Hill,,Keyworth,Nottingham,,NG12 5GG
cc7b68c9-81e1-4411-b8fb-2fb2c150f1a1,"The Old Vicarage, Stockhill Road, Chilcompton, Radstock, Somerset, BA3 4JQ",Primary,,The Old Vicarage,,,,Stockhill Road,Chilcompton,Radstock,Somerset,,BA3 4JQ
cca11e11-b40f-43cc-bd18-8d591e76b445,"Office 115-B Challenge House, 626  Mitcham Road, Croydon, CR0 3AA",Primary,,Office 115-B Challenge House,,,626,Mitcham Road,,Croydon,,,CR0 3AA
ccb04e2a-4a8b-43c0-b001-c43d0e833c97,"Scott House, Alencon Link, Basingstoke, Hampshire, RG21 7PP",Primary,,Scott House,,,,Alencon Link,,Basingstoke,Hampshire,,RG21 7PP
ccb04e2a-4a8b-43c0-b001-c43d0e833c97,"Crescent Centre, Temple Back, Bristol, BS1 6EZ",Alternate,Current,Crescent Centre,,,,Temple Back,,Bristol,,,BS1 6EZ
cce316f7-602f-405b-bec2-64cf82303f7e,"40  Brookside, Hornchurch, RM11 2RS",Primary,,,,,40,Brookside,,Hornchurch,,,RM11 2RS
cd4295e9-c66b-4376-b388-221e0bbf9a65,"Haslers, Old Station Road, Loughton, Essex, IG10 4PL",Primary,,Haslers,,,,Old Station Road,,Loughton,Essex,,IG10 4PL
cd923c09-ea9b-4176-bd56-84b8fca5ad51,"5 Lafone House, 11-13 Leathermarket Street, London, SE1 3HN",Primary,,,5,Lafone House,Nov-13,Leathermarket Street,,London,,,SE1 3HN
cd95ccba-bda1-4754-92fd-6fa6ea36ee3d,"40 Norman Road, Greenwich, London, SE10 9QX",Primary,,,,,40,Norman Road,Greenwich,London,,,SE10 9QX
cdad947f-ddc8-4080-9573-0a70532daa87,"Studio 4.04, The Tea Building, 56 Shoreditch High Street, London, E1 6JJ",Primary,,"Studio 4.04, The Tea Building",,,56,Shoreditch High Street,,London,,,E1 6JJ
cdf8cba2-b9e6-47d3-8080-9249fc6e934a,"17 Regent Street, London, SW1Y 4LR",Primary,,,,,17,Regent Street,,London,,,SW1Y 4LR
ce1c4142-2676-4877-b1b2-5f9dac7ed2dd,"Floor 3 - Civic Centre, Glebe Street, Stoke-on-Trent, ST4 1HH",Primary,,Floor 3 - Civic Centre,,,,Glebe Street,,Stoke-on-Trent,,,ST4 1HH
ce25ba53-a934-4e41-ba64-0a3197c9703c,"2-4 Tooley Street, London, SE1 2SY",Primary,,,,,02-Apr,Tooley Street,,London,,,SE1 2SY
ce81cfcd-368c-4d12-ad5d-2bee98f0e9e7,"The Green, 10  Beacon Hill Road, Newark, Nottinghamshire, NG24 1NU",Primary,,The Green,,,10,Beacon Hill Road,,Newark,Nottinghamshire,,NG24 1NU
cea56ba0-a39d-40a9-92a1-5345019ef894,"12 Sandiford House, 40 Standsted Road, Caterham, CR3 6AB",Primary,,,12,Sandiford House,40,Standsted Road,,Caterham,,,CR3 6AB
ced0af3a-84fa-4ec0-bc86-3bc916f4085b,"Town Hall, Main Road, Romford, London, RM1 3BB",Primary,,Town Hall,,,,Main Road,,Romford,,,RM1 3BB
cee0219f-2f97-422d-b16c-b8eaa9d848b0,"Denne Court, Hengist Field, Borden, Sittingbourne, Kent, ME9 8FH",Primary,,Denne Court,,,,Hengist Field,Borden,Sittingbourne,Kent,,ME9 8FH
cef5e013-5204-4749-bfad-83d2fffe37b5,"50  Lancaster Road, Enfield, EN2 0BY",Primary,,,,,50,Lancaster Road,,Enfield,,,EN2 0BY
cefc16a6-8c77-4ce4-a398-6a5e04153763,"The Old School House, Bridge Road, Hunton Bridge, Kings Langley, Hertfordshire, WD4 8QR",Primary,,The Old School House,,,,Bridge Road,Hunton Bridge,Kings Langley,Hertfordshire,,WD4 8QR
cf09d309-7ff0-48d8-832f-c0ae79b0f648,"6 Brunel Business Court, Eastern Way, Bury St Edmunds, Suffolk, IP32 7AJ",Primary,,,6,Brunel Business Court,,Eastern Way,,Bury St Edmunds,Suffolk,,IP32 7AJ
cf09d309-7ff0-48d8-832f-c0ae79b0f648,"Sucklings Yard, Church Street, Ware, Hertfordshire, SG12 9EN",Alternate,Current,Sucklings Yard,,,,Church Street,,Ware,Hertfordshire,,SG12 9EN
cf33980c-8ad0-4d0b-a897-5ea0a904882d,"11-12 Wigmore Place, London, W1U 2LU",Primary,,,,,11-Dec,Wigmore Place,,London,,,W1U 2LU
cf3f9693-b1c3-4d53-bd63-9da66ca59970,"38  The Drive, Ickenham, Uxbridge, UB10 8AG",Primary,,,,,38,The Drive,Ickenham,Uxbridge,,,UB10 8AG
cf41722a-8ddc-4155-855d-3fd6885f5704,"14  Holywell Row, London, EC2A 4JB",Primary,,,,,14,Holywell Row,,London,,,EC2A 4JB
cf641312-76ef-44bc-bc4d-0b992acb607e,"Half Moon Passage, 17-19 Alie Street, London, E1 8DE",Primary,,,,Half Moon Passage,17-19,Alie Street,,London,,,E1 8DE
d048f96b-a022-4907-a914-e1a73365de50,"29  Bressenden Place, Victoria, London, SW1E 5DZ",Primary,,,,,29,Bressenden Place,Victoria,London,,,SW1E 5DZ
d07277d6-d299-4298-ae9d-9e24e9a8c0d0,"First Floor, Tayside House, 31  Pepper Street, London, E14 9RP",Primary,,"First Floor, Tayside House",,,31,Pepper Street,,London,,,E14 9RP
d084ffda-b691-4e46-a52b-fda6a57b7b75,"Third Floor - Baird House, 15-17 St Cross Street, London, EC1N 8UW",Primary,,Third Floor - Baird House,,,15-17,St Cross Street,,London,,,EC1N 8UW
d0952b46-2a80-482f-9b38-cf3b8fbbd031,"28  Margaret Street, London, W1W 8RZ",Primary,,,,,28,Margaret Street,,London,,,W1W 8RZ
d0b35809-c3ff-40db-866a-f4a914c5804e,"Head Office, 15  Abbeville Road, London, SW4 9LA",Primary,,Head Office,,,15,Abbeville Road,,London,,,SW4 9LA
d1711c48-f14a-42a7-af61-f9b8a5be98e1,"Jubilee House, 3 The Drive, Warley, Brentwood, Essex, CM13 3FR",Primary,,Jubilee House,,,3,The Drive,Warley,Brentwood,Essex,,CM13 3FR
d1883ac7-0642-4089-9be0-710ec2d34e34,"St Mary's Church, St Mary's Street, Bedford, Bedfordshire, MK42 0AS",Primary,,St Mary's Church,,,,St Mary's Street,,Bedford,Bedfordshire,,MK42 0AS
d19a572e-0a6f-4876-a61f-690f08628c97,"Cowley Business Park, Cowley, Uxbridge, UB8 2AL",Primary,,,,,,Cowley Business Park,Cowley,Uxbridge,,,UB8 2AL
d1eea6d2-a7ab-4e0c-a733-22133f603803,"Southampton Buildings, 25  Chancery Lane, London, WC2A 1AL",Primary,,Southampton Buildings,,,25,Chancery Lane,,London,,,WC2A 1AL
d21feaf7-670c-434e-99f5-e44e7e909030,"1st Floor - Oriel House, 52-54 Coombe Road, New Malden, KT3 4QF",Primary,,1st Floor - Oriel House,,,52-54,Coombe Road,,New Malden,,,KT3 4QF
d22af074-6bbe-4d28-a042-10d21ed35730,"Badgemore House, Greys Road, Badgemore Park, Henley on Thames, Oxfordshire, RG9 4NR",Primary,,Badgemore House,,,,Greys Road,Badgemore Park,Henley on Thames,Oxfordshire,,RG9 4NR
d2389fb8-100e-41fd-a274-9de5268b2887,"17  Savile Row, London, W1S 3PN",Primary,,,,,17,Savile Row,,London,,,W1S 3PN
d26f9fb3-d602-4257-a55c-cd832f4b94e4,"4 Deans Yard, Westminster, London, SW1P 3NL",Primary,,,,,4,Deans Yard,Westminster,London,,,SW1P 3NL
d2ec967f-3f27-40e1-ba94-a78cd0ed5549,"9  Junction Road, Edmonton, London, N9 7JS",Primary,,,,,9,Junction Road,Edmonton,London,,,N9 7JS
d33a8ba2-37c0-4b50-adef-449958f2d944,"Abbey House, 74-76 St Johns Street, London, EC1M 4DZ",Primary,,Abbey House,,,74-76,St Johns Street,,London,,,EC1M 4DZ
d3870849-586d-4c09-8148-544cc6205bdd,"Redhill House, 227  London Road, Worcester, Worcestershire, WR4 9HN",Primary,,Redhill House,,,227,London Road,,Worcester,Worcestershire,,WR4 9HN
d3b15e5a-61f1-4396-bfce-1f4d1b5613be,"31  East India Dock Road, Poplar, London, E14 6DF",Primary,,,,,31,East India Dock Road,Poplar,London,,,E14 6DF
d3eb430c-056b-4e2a-b176-bd207c334cb2,"22  Ganton Street, Carnaby, London, W1F 7FD",Primary,,,,,22,Ganton Street,Carnaby,London,,,W1F 7FD
d401540f-be39-4eca-bf9f-409e7d5f0ac5,"41 Chalton Street, London, NW1 1JD",Primary,,,,,41,Chalton Street,,London,,,NW1 1JD
d4073b69-9791-4526-be37-cf155a61f64b,"Walgrave, NN69PY",Primary,,,,,,,,Walgrave,,,NN69PY
d43e2f22-3d22-4714-9e3a-8cd06cf2b67d,"Elstree Gate, 4  Elstree Way, Cheshunt, Hertfordshire, EN8 7DR",Primary,,,4,Elstree Gate,,Elstree Way,,Cheshunt,Hertfordshire,,EN8 7DR
d44b4665-5f6b-401d-81a5-b5ff29d26231,"Barnet House, 1255  High Road, Whetstone, London, N20 0EJ",Primary,,Barnet House,,,1255,High Road,Whetstone,London,,,N20 0EJ
d45cadc9-589e-42c4-9df7-8be37fdf7d74,"21  Lincoln's Inn Fields, London, WC2A 3DU",Primary,,,,,21,Lincoln's Inn Fields,,London,,,WC2A 3DU
d48a4dc8-3f4c-400f-861f-c1ad77e9aaa8,"Redrow House, 6  Waterside Way, The Lakes, Northampton, NN4 7XD",Primary,,Redrow House,,,6,Waterside Way,The Lakes,Northampton,,,NN4 7XD
d511227c-60b1-4a77-853f-8148b15dcf9d,"Church House, Great Smith Street, London, SW1P 3AZ",Primary,,Church House,,,,Great Smith Street,,London,,,SW1P 3AZ
d524bc88-1c4c-4245-8812-8318bdcf7563,"Robert Brett House, Ashford Road, Canterbury, Kent, CT4 7PP",Primary,,Robert Brett House,,,,Ashford Road,,Canterbury,Kent,,CT4 7PP
d5314307-e8d2-449f-b70b-6a30ee0e858e,"Kings Place, 90  York Way, London, N1 9AG",Primary,,,,Kings Place,90,York Way,,London,,,N1 9AG
d590ed11-0f9f-4b0c-a494-63bd91ca1353,"14  Nelmes Way, Hornchurch, Essex, RM11 2QZ",Primary,,,,,14,Nelmes Way,,Hornchurch,Essex,,RM11 2QZ
d5d3f3a4-695a-4ca9-8731-3ad7e6732716,"1  Sandwich Street, London, WC1H 9PF",Primary,,,,,1,Sandwich Street,,London,,,WC1H 9PF
d5e56fa7-e355-4901-98d9-d276c4676471,"Town Hall, Argyle Street, Camden, London, WC1H 8ND",Primary,,Town Hall,,,,Argyle Street,Camden,London,,,WC1H 8ND
d5ee4f49-90a3-473e-8aaf-aad0f23c430b,"42  Albert Street, London, NW1 7NU",Primary,,,,,42,Albert Street,,London,,,NW1 7NU
d615ca8e-3a27-4800-8dec-2d710f34c5b2,"Television Centre, 101 Wood Lane, White City, London, W12 0TT",Primary,,Television Centre,,,101,Wood Lane,White City,London,,,W12 0TT
d680669a-f4b5-4740-8849-c610e9cb3a9b,"Discovery House, 28-42 Banner Street, London, EC1Y 8QE",Primary,,Discovery House,,,28-42,Banner Street,,London,,,EC1Y 8QE
d6b8eaad-7ac6-4720-b854-866a643117ef,"Mar House, 1036  Stratford Road, Shirley, Solihull, West Midlands, B90 4EE",Primary,,Mar House,,,1036,Stratford Road,Shirley,Solihull,West Midlands,,B90 4EE
d6e49f68-fece-4334-a625-21bfe485732e,"Crest House, Pyrcroft Road, Chertsey, Surrey, KT16 9GN",Primary,,Crest House,,,,Pyrcroft Road,,Chertsey,Surrey,,KT16 9GN
d6f58b4c-6eb7-4abe-867f-30192cc01f82,"Alliance House, 12  Caxton Street, London, SW1H 0QS",Primary,,Alliance House,,,12,Caxton Street,,London,,,SW1H 0QS
d724d60a-b2eb-4e32-8ce9-739c2eddd656,"45 Crescent Lane, London, SW4 9PT",Primary,,,,,45,Crescent Lane,Clapham,London,,,SW4 9PT
d749a74a-b64d-40f8-8b0f-00d4535e7a21,"Faculty of Continuing Education, 26  Russell Square, Bloomsbury, London, WC1B 5DQ",Primary,,Faculty of Continuing Education,,,26,Russell Square,Bloomsbury,London,,,WC1B 5DQ
d76851d4-e39d-49f0-a27e-394d97aeb1b6,"1  The Mount, Lexden, Colchester, Essex, CO3 4JR",Primary,,,,,1,The Mount,Lexden,Colchester,Essex,,CO3 4JR
d80621a8-8d81-464f-a200-cf3a7f2d1fe3,"Downing Street, Cambridge, Cambridgeshire, CB2 3DZ",Primary,,,,,,Downing Street,,Cambridge,Cambridgeshire,,CB2 3DZ
d828e4c7-9ce3-4717-95bc-77f271ad05ad,"467  Rainham Road South, Dagenham, RM10 7XJ",Primary,,,,,467,Rainham Road South,,Dagenham,,,RM10 7XJ
d8801ad9-f284-44cc-916a-f4c6735cdd6f,"Civic Centre, High Street, Uxbridge,, UB8 1UW",Primary,,Civic Centre,,,,High Street,,"Uxbridge,",,,UB8 1UW
d8897665-9cac-4cd9-9738-c8374cc2e175,"The Power House - Gunpowder Mill, Powdermill Lane, Waltham Abbey, Essex, EN9 1BN",Primary,,The Power House - Gunpowder Mill,,,,Powdermill Lane,,Waltham Abbey,Essex,,EN9 1BN
d8bc79e7-df52-49d7-9dd2-b72379d4ac8c,"Centenary House, Unit 11 Meridian Business Park, Fleming Road, Waltham Abbey, Essex,  EN9 3BZ",Primary,,Centenary House,Unit 11,Meridian Business Park,,Fleming Road,,Waltham Abbey,Essex,, EN9 3BZ
d8e480a0-aa53-4b91-aa0c-069add27e2cf,"37D Mildmay Grove, London, N1 4RH",Primary,,,,,37D,Mildmay Grove,,London,,,N1 4RH
d9057837-b263-45a4-b9b8-12383cc0ab10,"The Glasshouse, 177-187 Arthur Road, Wimbledon, London, SW19 8AE",Primary,,The Glasshouse,,,177-187,Arthur Road,Wimbledon,London,,,SW19 8AE
d92680d3-0c0e-445c-ae0e-c69b436598cb,"Town Hall - Mulberry Place, 5  Clove Crescent, Poplar, London, E14 2BG",Primary,,Town Hall - Mulberry Place,,,5,Clove Crescent,Poplar,London,,,E14 2BG
d954c187-a8a7-47fc-bc08-8100eca26b40,"Gainsborough House, Pegler Way, Crawley, West Sussex, RH11 7FZ",Primary,,Gainsborough House,,,,Pegler Way,,Crawley,West Sussex,,RH11 7FZ
d9f2072a-3ccc-455e-808b-8766f3165f2f,"Cowley Business Park, Cowley, Uxbridge, UB8 2AL",Primary,,,,,,Cowley Business Park,Cowley,Uxbridge,,,UB8 2AL
d9f6f35e-72bb-4b07-98f6-608902df968f,"1 Langston Road, Loughton, Essex, IG10 3SD",Primary,,,,,1,Langston Road,,Loughton,Essex,,IG10 3SD
da18e395-a083-4bf8-a62e-5924ee0e1b25,"98  Edgehill Road, Chislehurst, Kent, BR7 6LB",Primary,,,,,98,Edgehill Road,,Chislehurst,Kent,,BR7 6LB
da3271ba-2e31-49ec-b50d-0609e567c7f8,"Suite 332 - Winston House, 2 Dollis Park, London,  N3 1HF",Primary,,Suite 332 - Winston House,,,2,Dollis Park,,London,,, N3 1HF
da67344c-5f31-4446-8fba-06bd06d63f09,"The Compass Centre, Nelson Road, Hounslow, TW6 2GW",Primary,,The Compass Centre,,,,Nelson Road,,Hounslow,,,TW6 2GW
da88ad4e-cc55-4fbb-98ab-cd67e71fe0cd,"Telford House, Queensgate, Britannia Road, Waltham Cross, Hertfordshire, EN8 7TF",Primary,,Telford House,,Queensgate,,Britannia Road,,Waltham Cross,Hertfordshire,,EN8 7TF
dabe7239-88f2-45fd-bee3-ff0c20143cb6,"Pullman Court, 5  Great Western Road, Gloucester, GL1 3ND",Primary,,Pullman Court,,,5,Great Western Road,,Gloucester,,,GL1 3ND
dac15fe4-0d42-4cea-9b18-a26f01d87045,"Dorset House, 1 Church Street, Wimborne, Dorset, BH21 1JH",Primary,,Dorset House,,,1,Church Street,,Wimborne,Dorset,,BH21 1JH
db335bdc-1651-491d-a90d-13ad913b2e83,"55  Blandford Street, London, W1H3AF",Primary,,,,,55,Blandford Street,,London,,,W1H3AF
db6cc09b-0337-4ea6-bf9a-bd0f6faf7093,"Northaw House, Coopers Lane, Northaw, Hertfordshire,  EN6 4PS",Primary,,Northaw House,,,,Coopers Lane,,Northaw,Hertfordshire,, EN6 4PS
dbb5543b-f1b1-4eab-a576-a3de9e3108c0,"Newby House, 309  Chase Road, Southgate, London, N14 6JS",Primary,,Newby House,,,309,Chase Road,Southgate,London,,,N14 6JS
dbc4ad12-4737-488b-add7-5b7280602356,"Department of Geography - Royal Holloway, Egham Hill, Egham, Surrey, TW20 0EX",Primary,,Department of Geography - Royal Holloway,,,,Egham Hill,,Egham,Surrey,,TW20 0EX
dc346ab3-bfcf-4c45-975d-7968994575cf,"116  Princedale Road, London, W11 4NH",Primary,,,,,116,Princedale Road,,London,,,W11 4NH
dc553f25-969c-4684-9cc4-9421d5b94dba,"Skyline 120, 270  Avenue West, Great Notley, Braintree, Essex, CM77 7AA",Primary,,Skyline 120,,,270,Avenue West,Great Notley,Braintree,Essex,,CM77 7AA
dc7ffd26-4bcd-46fc-9486-dffef2c360aa,"49-51 Portland Place, London, W1B 1JL",Primary,,,,,49-51,Portland Place,,London,,,W1B 1JL
dc9d6b42-1bf2-45d3-88f0-5b0f1e12ba80,"The Old College, Gallery Road, Dulwich, London, SE21 7AE",Primary,,The Old College,,,,Gallery Road,Dulwich,London,,,SE21 7AE
dcff75a4-ef63-4eca-8d64-fa8b710152ef,"24  Chiswell Street, London, EC1Y 4TY",Primary,,,,,24,Chiswell Street,,London,,,EC1Y 4TY
dd2329f4-545c-4a5f-82c2-a45e203e04bd,"Flat 4 19  Newport Road, Cowes, Isle of Wight, PO31 7PA",Primary,,,Flat 4,,19,Newport Road,,Cowes,Isle of Wight,,PO31 7PA
dd2523ba-9540-4c54-a512-a6bf160160ea,"1 Alie Street, London, E1 8DE",Primary,,,,,1,Alie Street,,London,,,E1 8DE
dd40c181-bb63-42b1-94b6-6bc10789c5a8,"6  Berry Street, London, EC1V 0AU",Primary,,,,,6,Berry Street,,London,,,EC1V 0AU
de09fdb7-d14f-405a-a8b9-ec42d270c228,"13 Pusey Way, Lane End, High Wycombe, Bucks, HP14 3LG",Primary,,,,,13,Pusey Way,Lane End,High Wycombe,Bucks,,HP14 3LG
de1ffe2a-2439-4766-9487-7ad58ed2fca5,"6  Burstock Road,, London, SW15 2PW",Primary,,,,,6,"Burstock Road,",,London,,,SW15 2PW
de20c4b6-f9a7-4ff0-8ebe-0b6976217c10,"Great Russell Street, London, WC1B 3DG",Primary,,,,,,Great Russell Street,,London,,,WC1B 3DG
df1c5bc1-853f-4a8d-a243-9d4ceeb9c0ac,"Suite 4 - Pioneer House, Vision Park, Chivers Way, Histon, Cambridge, Cambridgeshire, CB24 9NL",Primary,,Suite 4 - Pioneer House,,Vision Park,,Chivers Way,Histon,Cambridge,Cambridgeshire,,CB24 9NL
df52263a-2576-469c-92d6-2e621a20c010,"29  Dewar Drive, Millhouses, Sheffield, South Yorkshire, S7 2GQ",Primary,,,,,29,Dewar Drive,Millhouses,Sheffield,South Yorkshire,,S7 2GQ
dfdcc2f1-73cc-4705-bdc2-9e6ee64fe4ba,"Rydon House, Station Road, Forest Row, East Sussex, RH18 5DW",Primary,,Rydon House,,,,Station Road,,Forest Row,East Sussex,,RH18 5DW
e005fb81-90e6-4434-aa59-509732fbdd1f,"Akara Building, 24  De Catro Street, Wickhams Cay, Road Town, British Virgin Islands, ",Primary,,Akara Building,,,24,De Catro Street,Wickhams Cay,Road Town,British Virgin Islands,,
e04332e7-524f-48e4-b446-351d96e3e659,"Venture House - Boston Enterprise Centre, Enterprise Way, Endeavour Park, Boston, Lincolnshire, PE21 7TW",Primary,,Venture House - Boston Enterprise Centre,,,,Enterprise Way,Endeavour Park,Boston,Lincolnshire,,PE21 7TW
e080d499-a06a-48fe-a834-436b88614ee7,"25  Harley Street, London, W1G 9BR",Primary,,,,,25,Harley Street,,London,,,W1G 9BR
e0ce9dc6-1821-4e69-aee6-835fdfc6fab8,"14th Floor, One Euston Square, 40  Melton Street, London, NW1 2FD",Primary,,"14th Floor, One Euston Square",,,40,Melton Street,,London,,,NW1 2FD
e0dfe067-ee4f-4f09-976e-bc4efe740e78,"Surrey History Centre, 130 Goldsworth Road, Woking, Surrey, GU21 6ND",Primary,,Surrey History Centre,,,130,Goldsworth Road,,Woking,Surrey,,GU21 6ND
e16027cd-c777-4b78-9157-7686c991e2d3,"29  Great James Street, Bloomsbury, London, WC1N 3ES",Primary,,,,,29,Great James Street,Bloomsbury,London,,,WC1N 3ES
e1831fe7-446c-4005-bad9-90df32548e5c,"North Bank, Lazonby, Penrith, Cumbria, CA10 1AJ",Primary,,North Bank,,,,,Lazonby,Penrith,Cumbria,,CA10 1AJ
e1e9da06-a344-49e9-87b9-71e8f882984e,"King George VI Lines - Royal Artillery Barracks, Repository Road, Woolwich, London, SE18 4BB",Primary,,King George VI Lines - Royal Artillery Barracks,,,,Repository Road,Woolwich,London,,,SE18 4BB
e20278af-42a0-4dae-815c-b7e0bc4c7fe6,"28  Gorst Road, London, NW10 6LE",Primary,,,,,28,Gorst Road,,London,,,NW10 6LE
e21c65ff-c823-4023-8eae-48eceb238be5,"20 Wingate Business Exchange, 64-66 Wingate Square, London, SW4 0AF",Primary,,,20,Wingate Business Exchange,64-66,Wingate Square,,London,,,SW4 0AF
e23e5d25-dd28-4ca8-941f-f5eb49a7d76b,"Hamilton House, Mabledon Place, Bloomsbury, London, WC1H 9BB",Primary,,Hamilton House,,,,Mabledon Place,Bloomsbury,London,,,WC1H 9BB
e2b9d1fe-dab5-4387-aae7-a041a6e3db18,"Bridge House, 14  Bridge Street, Taunton, TA1 1UB",Primary,,Bridge House,,,14,Bridge Street,,Taunton,,,TA1 1UB
e2ead850-5c5c-4a3f-9cc9-3f3c160bf6fe,"4  Underwood Row, London, N1 7LQ",Primary,,,,,4,Underwood Row,,London,,,N1 7LQ
e2f4057c-3a7a-4631-88be-87602a1d0850,"Tunnel Wharf, 121  Rotherhithe Street, London, SE16 4NF",Primary,,Tunnel Wharf,,,121,Rotherhithe Street,,London,,,SE16 4NF
e30a45f4-20d1-4ca6-83ac-1c5467428070,"First Floor - The Bonded Warehouse, Atlantic Wharf, Cardiff, CF10 4HF",Primary,,First Floor - The Bonded Warehouse,,,,Atlantic Wharf,,Cardiff,,,CF10 4HF
e34874ec-0f42-48f0-b34a-ee409b0f7b6f,"120-122 Bermondsey Street, London, SE1 3TX",Primary,,,,,120-122,Bermondsey Street,,London,,,SE1 3TX
e3538ca0-3507-4c56-8360-9138f09cf185,"Unit 1, 163 Kimberley Avenue, Peckham, London, SE15 3XD",Primary,,Unit 1,,,163,Kimberley Avenue,Peckham,London,,,SE15 3XD
e363e87f-d724-4fbd-849f-449e4b44fda8,"Skyline House, 200  Union Street, London, SE1 0LX",Primary,,Skyline House,,,200,Union Street,,London,,,SE1 0LX
e3f722c6-0041-4573-975f-f3afde087c41,"Studio 1, 6-16 Arbutus Street, London,  E8 4DT",Primary,,Studio 1,,,Jun-16,Arbutus Street,,London,,, E8 4DT
e40bbca5-f3b8-4ef1-8d67-c8ef5b3093a9,"1 Waterhouse Square, 138-142 Holborn, London, EC1N 2ST",Primary,,,1,Waterhouse Square,138-142,Holborn,,London,,,EC1N 2ST
e41a9fe5-7f2b-4856-a099-20b086f6c637,"177  Shaftesbury Avenue, London, WC2H 8JR",Primary,,,,,177,Shaftesbury Avenue,,London,,,WC2H 8JR
e45bd457-5353-43dd-8a3b-1f497a229301,"3rd Floor - Eldon House, 2 Eldon Street, London, EC2M 7LS",Primary,,3rd Floor - Eldon House,,,2,Eldon Street,,London,,,EC2M 7LS
e4e9b1a7-1d07-4bcb-aa70-6a0ba4ce7fd1,"31  Windmill Street, London, W1T 2JN",Primary,,,,,31,Windmill Street,,London,,,W1T 2JN
e50000b9-8f02-4350-9b69-daed8499b5ef,"Livery Place, 35  Livery Street, Birmingham, West Midlands, B3 2PB",Primary,,,,Livery Place,35,Livery Street,,Birmingham,West Midlands,,B3 2PB
e5285229-e57d-4fec-b0dd-02d67f835cbd,"3 The Crescent, Taunton, Somerset, TA1 4EA",Primary,,,,,3,The Crescent,,Taunton,Somerset,,TA1 4EA
e52dc885-9359-4f87-8e6d-59c9b886fb6c,"Old Bank Court, Morocco Street, Bermondsey, London, SE1 3HB",Primary,,Old Bank Court,,,,Morocco Street,Bermondsey,London,,,SE1 3HB
e532757e-1f7d-4e20-b675-2fd4278346a4,"GVA, 10  Stratton Street, Mayfair, London, W1J 8JR",Primary,,GVA,,,10,Stratton Street,Mayfair,London,,,W1J 8JR
e5353c27-09ec-4055-bc2b-59a3c3a066b9,"125  Old Broad Street, London, EC2N 1AR",Primary,,,,,125,Old Broad Street,,London,,,EC2N 1AR
e5369430-3bb8-49ae-ab6a-13137ef489be,"23  Curtain Road, Shoreditch, London, EC2A 3LT",Primary,,,,,23,Curtain Road,Shoreditch,London,,,EC2A 3LT
e539dce3-e95f-4c00-85b5-073c62eaefe6,"7 Wornal Park, Menmarsh Road, Worminghall, Aylesbury, Buckinghamshire, HP18 9PH",Primary,,,7,Wornal Park,,Menmarsh Road,Worminghall,Aylesbury,Buckinghamshire,,HP18 9PH
e539dce3-e95f-4c00-85b5-073c62eaefe6,"Brew House, Jacob Street, Tower Hill, Bristol, BS2 0EQ",Alternate,Current,Brew House,,Jacob Street,,Tower Hill,,Bristol,,,BS2 0EQ
e5ce8449-3fe0-4c5c-bc4a-395ce1537308,"Three Oxted Chambers, 185  Station Road East, Oxted, Surrey, RH8 0QE",Primary,,Three Oxted Chambers,,,185,Station Road East,,Oxted,Surrey,,RH8 0QE
e5de39af-24fe-49c0-af11-f43ebbe5ddf9,"59  Fitzjohn Avenue, Barnet, EN5 2HN",Primary,,,,,59,Fitzjohn Avenue,,Barnet,,,EN5 2HN
e62dd9fd-3549-4d00-8f38-7bd12ebd50b6,"7  Swallow Place, London, W1B 2AG",Primary,,,,,7,Swallow Place,,London,,,W1B 2AG
e6aa085b-fe43-4f18-aeb2-57cfecd6225d,"2 Abbey Gardens, Great College Street, Westminster, London, SW1P 3NL",Primary,,,2,Abbey Gardens,,Great College Street,Westminster,London,,,SW1P 3NL
e73353b2-537f-4c1b-bb86-77ef9ccae902,"11th Floor, 140  London Wall, London, EC2Y 5ND",Primary,,11th Floor,,,140,London Wall,,London,,,EC2Y 5ND
e77284ee-ade1-4f70-a35b-e01985e7b650,"41  Sulina Road, London, SW2 4EL",Primary,,,,,41,Sulina Road,,London,,,SW2 4EL
e7931e83-9d1b-464e-9d68-99625101cfb6,"Campo House, 54  Campo Lane, Sheffield, S1 2EG",Primary,,Campo House,,,54,Campo Lane,,Sheffield,,,S1 2EG
e7b2e143-a47a-4885-a87f-7feec1c75564,"Aldermary House, 10-15 Queen Street, London, EC4N 1TX",Primary,,Aldermary House,,,Oct-15,Queen Street,,London,,,EC4N 1TX
e7f2ba73-4aaa-40be-9d85-10a5411d0e91,"51  London Road, Forest Hill, London, SE23 3TY",Primary,,,,,51,London Road,Forest Hill,London,,,SE23 3TY
e80c7ec2-a34d-4923-ac2c-d49ead2d83f8,"University Park, Nottingham, Nottinghamshire, NG7 2RD",Primary,,,,,,University Park,,Nottingham,Nottinghamshire,,NG7 2RD
e8589827-fea5-4af0-acad-16f0c5350dde,"967-969 Romford Road, Manor Park, London, E12 5JR",Primary,,,,,967-969,Romford Road,Manor Park,London,,,E12 5JR
e885a29a-6262-4c19-8a26-c2c2f5fa71e6,"Genesis Centre, Garrett Field, Birchwood Science Park, Warrington, WA3 7BH",Primary,,Genesis Centre,,,,Garrett Field,Birchwood Science Park,Warrington,,,WA3 7BH
e8dee182-f4f1-4b86-8a0e-f204616ce3d1,"38  West Hill, Wandsworth, London, SW18 1RX",Primary,,,,,38,West Hill,Wandsworth,London,,,SW18 1RX
e8f02836-70ce-4a26-b7d7-311778fc12f3,"Portway House, Old Sarum Park, Salisbury, Wiltshire, SP4 6EB",Primary,,Portway House,,,,Old Sarum Park,,Salisbury,Wiltshire,,SP4 6EB
e920d1de-8e10-4fcc-85bc-70f1719c75cd,"10  Orange Street, London, WC2H 7DQ",Primary,,,,,10,Orange Street,,London,,,WC2H 7DQ
e968980a-0a3f-47ec-a75b-0022c722793c,"4  Mount Ephraim Road, Tunbridge Wells, Kent, TN1 1EE",Primary,,,,,4,Mount Ephraim Road,,Tunbridge Wells,Kent,,TN1 1EE
e96cecf4-f179-49a2-9a59-25d1ac7525fa,"1  Vicarage Lane, Stratford, London, E15 4HF",Primary,,,,,1,Vicarage Lane,Stratford,London,,,E15 4HF
e996373a-ff8a-4cf5-bb9b-b0767fd82d86,"Guildford, Surrey, ",Primary,,,,,,,,Guildford,Surrey,,
ea41e517-96bc-445a-8ef3-3a839ec3c9e5,"Kings Place, 90 York Way, London, N1 9GE",Primary,,Kings Place,,,90,York Way,,London,,,N1 9GE
ea4bafca-aab6-4acd-bb44-cb9d811c4d06,"11  Fowler Road, Hainault, Ilford, IG6 3UJ",Primary,,,,,11,Fowler Road,Hainault,Ilford,,,IG6 3UJ
ea9b9b9a-df32-4491-9865-f14bd5aedeb6,"Queen's Building, Royal Holloway, Egham, Surrey, TW20 0EX",Primary,,"Queen's Building, Royal Holloway",,,,,,Egham,Surrey,,TW20 0EX
eac4b5a4-93d9-475c-ba7a-c6634bbfd0bf,"The Old Guildhouse, 19  Ladygate, Beverley, East Yorkshire, HU17 8BH",Primary,,The Old Guildhouse,,,19,Ladygate,,Beverley,East Yorkshire,,HU17 8BH
eaf43c2f-c79d-44fa-915d-d7c488796445,"2  Ottenham Close, Polegate, East Sussex, BN26 5AZ",Primary,,,,,2,Ottenham Close,,Polegate,East Sussex,,BN26 5AZ
eb28cef3-e065-416f-8742-3f74a40522e5,"16  Woodfield Road, London, W9 2BE",Primary,,,,,16,Woodfield Road,,London,,,W9 2BE
eb33b1b7-e6e1-4918-983c-2468e84b391d,"Ealing Gateway, 26-30 Uxbridge Road, London, W5 2AU",Primary,,Ealing Gateway,,,26-30,Uxbridge Road,,London,,,W5 2AU
eb8a14a2-d4a7-4850-9c93-1062736d58c4,"18-22 Disney Place, London, SE1 1HJ",Primary,,,,,18-22,Disney Place,,London,,,SE1 1HJ
ebb4adf4-7b7f-4da0-bde5-721b51ab4c3b,"Grange Court, Abingdon Science Park, Barton Lane, Abingdon, Oxfordshire, OX14 3NB",Primary,,Grange Court,,Abingdon Science Park,,Barton Lane,,Abingdon,Oxfordshire,,OX14 3NB
ebc95af0-e624-403d-b7c6-470b49e927c8,"Fort Cumberland, Fort Cumberland Road, Portsmouth, Hampshire, PO4 9LD",Primary,,Fort Cumberland,,,,Fort Cumberland Street,,Portsmouth,Hampshire,,PO4 9LD
ec420b64-4d39-4867-b25d-ce58f4943056,"Becket House, 1 Lambeth Palace Road, London, SE1 7EU",Primary,,Becket House,,,1,Lambeth Palace Road,,London,,,SE1 7EU
ec4e18e3-8d70-4fee-b4cd-ff181fc2d699,"25  Gwydir Street, Cambridge, Cambridgeshire, CB1 2LG",Primary,,,,,25,Gwydir Street,,Cambridge,Cambridgeshire,,CB1 2LG
ec5cefe9-f13f-41d5-8b3f-37f3a267ae4a,"Hill House, 67-71 Lowlands Road, Harrow, HA1 3EQ",Primary,,Hill House,,,67-71,Lowlands Road,,Harrow,,,HA1 3EQ
ec631601-85b6-4346-9558-7819f98d1bb5,"4  Pear Tree Court, London, EC1R 0DS",Primary,,,,,4,Pear Tree Court,,London,,,EC1R 0DS
ec6fa842-d3bd-4205-84d2-3b1e60c2a5d8,"Institute of Archaeology - UCL, 31-34 Gordon Square, London, WC1H 0PY",Primary,,Institute of Archaeology - UCL,,,31-34,Gordon Square,,London,,,WC1H 0PY
ec7d21f3-2f9a-4b1e-99de-8ed8b09e4082,"23  St Leonards Road, Bexhill-On-Sea, East Sussex, TN40 1HH",Primary,,,,,23,St Leonards Road,,Bexhill-On-Sea,East Sussex,,TN40 1HH
ecd10314-b481-4f3f-aa6b-aab1dfdedb36,"Tyrell House, Challenge Court, Barnett Wood Lane, Leatherhead, Surrey, KT22 7LL",Primary,,Tyrell House,,Challenge Court,,Barnett Wood Lane,,Leatherhead,Surrey,,KT22 7LL
ecda8416-1694-4183-aee3-f69f468b981b,"35  Paul Street, London, EC2A 4UQ",Primary,,,,,35,Paul Street,,London,,,EC2A 4UQ
ed036490-875d-48b0-8b6f-89034d76723b,"98  St James Street, Shaftesbury, Dorset, SP7 8HF",Primary,,,,,98,St James Street,,Shaftesbury,Dorset,,SP7 8HF
ed12aaa9-ea83-482d-ad9a-247462671644,"25  The Embankment, Twickenham, Middlesex, TW1 3DU",Primary,,,,,25,The Embankment,,Twickenham,Middlesex,,TW1 3DU
ed3dabb6-eeed-4df2-ab26-ef3d5960d084,"14-16 Great Pulteney Street, London, W1F 9ND",Primary,,,,,14-16,Great Pulteney Street,,London,,,W1F 9ND
ed514331-18ca-49d6-bb64-97eba8574162,"University of York, King's Manor, York, North Yorkshire, YO1 7EP",Primary,,University of York,,,,King's Manor,,York,North Yorkshire,,YO1 7EP
ed676dce-4626-47ec-abf9-d3c522499ced,"Civic Centre, 44  York Street,,  Twickenham,  TW1 3BZ",Primary,,Civic Centre,,,44,"York Street,",, Twickenham,,, TW1 3BZ
ed7a09e3-995a-4fee-86fb-a3c755521cf7,"21  New Globe Walk, London, SE1 9DT",Primary,,,,,21,New Globe Walk,,London,,,SE1 9DT
ed7b52b5-397b-461c-885d-626dbcf74b46,"93  Park Lane, Mayfair, London, W1K 7TB",Primary,,,,,93,Park Lane,Mayfair,London,,,W1K 7TB
edaf50bf-8c93-4196-b461-5240ce5601c7,"Office B, Gainsborough Studios West, 1  Poole Street, London, N1 5EA",Primary,,"Office B, Gainsborough Studios West",,,1,Poole Street,,London,,,N1 5EA
edc4b32b-5f28-4f20-aaf7-0199e41d2225,"114  Balham High Road, London, SW12 9AA",Primary,,,,,114,Balham High Road,,London,,,SW12 9AA
eded56aa-997c-435c-9ce5-7887f279470d,"18-20 Market Street, Dartford, Kent, DA11EU",Primary,,,,,18-20,Market Street,,Dartford,Kent,,DA11EU
edf55e8c-8cc1-4632-ae8e-b2d342dc9a37,"Clockhouse Barn, Canterbury Road, Challock, Ashford, Kent, TN25 4BJ",Primary,,Clockhouse Barn,,,,Canterbury Road,Challock,Ashford,Kent,,TN25 4BJ
ee33b84c-0b7d-41ed-9af9-f504a043f99d,"47-49 De Beauvoir Road, Reading, Berkshire, RG1 5NR",Primary,,,,,47-49,De Beauvoir Road,,Reading,Berkshire,,RG1 5NR
ee33b84c-0b7d-41ed-9af9-f504a043f99d,"77a Hollingdean Terrace, Brighton, BN1 7HB",Alternate,Current,,,,77a,Hollingdean Terrace,,Brighton,,,BN1 7HB
ee6d2aef-5ff9-4545-afd9-9b2e957a781c,"1 America Street, London, SE1 0NE",Primary,,,,,1,America Street,,London,,,SE1 0NE
ee80ed29-a096-48f5-9a3a-3d1854c21fdf,"1 The Drive, Great Warley, Brentwood, Essex, CM13 3DJ",Primary,,,,,1,The Drive,Great Warley,Brentwood,Essex,,CM13 3DJ
eee8231e-461e-4107-ac17-ef33d1c4c980,"King's Head House, King's Head Yard, Borough High Street, Southwark, London, SE1 1NA",Primary,,King's Head House,,King's Head Yard,,Borough High Street,Southwark,London,,,SE1 1NA
ef2fea9e-e3ca-4e2e-a650-b241e7f023cb,"5  Spedan Close, London,  NW3 7XF",Primary,,,,,5,Spedan Close,,London,,, NW3 7XF
ef5887c5-f136-4713-806b-59c1ec945087,"George Edwards Road, Fakenham, Norfolk, NR21 8NL",Primary,,,,,,George Edwards Road,,Fakenham,Norfolk,,NR21 8NL
ef6efb1d-b512-44e8-9a6b-2eda6372b69e,"Tooting, ",Primary,,,,,,,,Tooting,,,
ef8d2849-fd04-4a5a-9a45-c887692a3be4,"3 Blacklands Crescent, Forest Row, East Sussex, RH18 5NN",Primary,,,,,3,Blacklands Crescent,,Forest Row,East Sussex,,RH18 5NN
effae40a-24b9-4449-9111-6e99930d9813,"10  Upper Berkeley Street, London, W1H 7PE",Primary,,,,,10,Upper Berkeley Street,,London,,,W1H 7PE
f0c891e7-2d96-4e60-8189-f9f856bef81b,"Thamesfield House, Boundary Way, Hemel Hempstead, Hertfordshire, HP2 7SR",Primary,,Thamesfield House,,,,Boundary Way,,Hemel Hempstead,Hertfordshire,,HP2 7SR
f0e1a214-f16c-4b9d-88f1-9ccce4037ee1,"Townshend House, 30 Crown Road, Norwich, Norfolk, NR1 3DT",Primary,,Townshend House,,,30,Crown Road,,Norwich,Norfolk,,NR1 3DT
f102e0c1-b264-4b73-a213-aedaa4c80c06,"8  Salisbury Square, London, EC4Y 8BB",Primary,,,,,8,Salisbury Square,,London,,,EC4Y 8BB
f136de7a-f6ab-4b29-b829-58497dc4f1a8,"83  Weston Street, London, SE1 3RS",Primary,,,,,83,Weston Street,,London,,,SE1 3RS
f150226c-7a10-4d9f-8422-e4e37380ef85,"Lydling Farm, Puttenham Lane, Shackleford, Godalming, Surrey, GU8 6AP",Primary,,Lydling Farm,,,,Puttenham Lane,Shackleford,Godalming,Surrey,,GU8 6AP
f16261ac-6389-421c-a64b-46b6b4c359e1,"20 Hillcrest Grove, Sherwood, Nottingham, Nottinghamshire, NG5 1FT",Primary,,,,,20,Hillcrest Grove,Sherwood,Nottingham,Nottinghamshire,,NG5 1FT
f1777356-2472-4e66-9cab-b5b35b22c813,"451C Skipton House, 80 London Road, London, SE1 6LH",Primary,,451C Skipton House,,,80,London Road,,London,,,SE1 6LH
f1de5951-18e9-43a0-81fa-2f640bd71042,"24  Wales Street, Kings Sutton, Banbury, Oxfordshire, OX17 3RR",Primary,,,,,24,Wales Street,Kings Sutton,Banbury,Oxfordshire,,OX17 3RR
f214e0f6-d26f-442e-9aa8-b8a408857adb,"3  Southlands Road, Bromley, BR2 9QR",Primary,,,,,3,Southlands Road,,Bromley,,,BR2 9QR
f2326322-960c-4a85-acc2-427f1f4aef56,"School of Archaeology, Geography and Environmental Science - PO Box 227, Whiteknights, Reading, Berkshire, RG6 6AB",Primary,,"School of Archaeology, Geography and Environmental Science - PO Box 227",,,,Whiteknights,,Reading,Berkshire,,RG6 6AB
f286ca36-2f05-43bf-b82c-665b96ba59a9,"13  Jane Street, Edinburgh, EH6 5HE",Primary,,,,,13,Jane Street,,Edinburgh,,,EH6 5HE
f286ca36-2f05-43bf-b82c-665b96ba59a9,"Building 68C, Wrest Park, Silsoe, Bedfordshire, MK45 4HS",Alternate,Current,Building 68C,,,,Wrest Park,,Silsoe,Bedfordshire,,MK45 4HS
f299421c-411c-4890-80bb-c10992f5abdc,"The Stables Courtyard Office, Copped Hall, Crown Hill, Epping, Essex, CM16 5HS",Primary,,The Stables Courtyard Office,,Copped Hall,,Crown Hill,,Epping,Essex,,CM16 5HS
f2bfbb6c-76e9-43ca-9a7d-d5aa24671fb7,"5 Lambeth Palace Road, London, SE1 7LB",Primary,,,,,5,Lambeth Palace Road,,London,,,SE1 7LB
f33a233d-7435-44fb-a3d4-b191d461aede,"Hill House, 17 Highgate Hill, London, N19 5NA",Primary,,Hill House,,,17,Highgate Hill,,London,,,N19 5NA
f37b9c04-2d85-424f-946c-e0298e7d513b,"135-139 Curtain Road, London, EC2A 3BX",Primary,,,,,135-139,Curtain Road,,London,,,EC2A 3BX
f3c9a62c-db10-4d84-9de0-5c019f3a6d4d,"Bramley Business Centre, 1  Station Road, Bramley, GU5 0AZ",Primary,,Bramley Business Centre,,,1,Station Road,,Bramley,,,GU5 0AZ
f3ca3289-2ad1-459c-82fb-2811756a79b2,"Partnership House, Regent Farm Road, Gosforth, Newcastle upon Tyne, Tyne and Wear, NE3 3AF",Primary,,Partnership House,,,,Regent Farm Road,Gosforth,Newcastle upon Tyne,Tyne and Wear,,NE3 3AF
f40babcb-86a8-4470-a88e-8a27f6ae8a57,"26  High Street, Wimbledon, London, SW19 5BY",Primary,,,,,26,High Street,Wimbledon,London,,,SW19 5BY
f4479e61-393d-40a2-a77b-b2b491fd5f6a,"165  Fleet Street, London, EC4A 2DW",Primary,,,,,165,Fleet Street,,London,,,EC4A 2DW
f490fda2-dd75-44f9-b420-6b8b09a3d45c,"20  Soho Square, London, W1D 3QW",Primary,,,,,20,Soho Square,,London,,,W1D 3QW
f4eecdb1-2b82-436a-a006-df28886a02d0,"Block D - Ocean Wharf, 60  Westferry Road, Isle of Dogs, London, E14 8JE",Primary,,Block D - Ocean Wharf,,,60,Westferry Road,Isle of Dogs,London,,,E14 8JE
f5377d5d-f473-4b94-8a66-1c49a87f2d7e,"Marston Park, Tamworth, Staffordshire, B78 3HN",Primary,,,,,,Marston Park,,Tamworth,Staffordshire,,B78 3HN
f54b015a-37b6-4fe6-b7aa-865c2517c0fa,"15th Floor, Capital House, 25  Chapel Street, London, NW1 5WX",Primary,,"15th Floor, Capital House",,,25,Chapel Street,,London,,,NW1 5WX
f54da2f2-8c56-4455-9bd9-182187d0297b,"15  The Retreat, Thornton Heath, CR7 8LD",Primary,,,,,15,The Retreat,,Thornton Heath,,,CR7 8LD
f554846e-b31c-4865-824d-4fe37db178ff,"Unit 7, 98 Goldstone Villas, Hove, East Sussex, BN3 3RU",Primary,,Unit 7,,,98,Goldstone Villas,,Hove,East Sussex,,BN3 3RU
f5aaaf03-bad9-4c2b-8352-4c26ca67563a,"The Capita Building, Kingmoor Business Park, Carlisle, Cumbria, CA6 4SJ",Primary,,The Capita Building,,,,Kingmoor Business Park,,Carlisle,Cumbria,,CA6 4SJ
f5dfe498-76dd-4a40-bca6-1bdf062bc2c1,"United House, North Road, London, N7 9DP",Primary,,United House,,,,North Road,,London,,,N7 9DP
f5e4c6a8-5424-4879-8fe6-cfaecd5e9b41,"Verde Building, 10 Bressenden Place, London, SW1E 5DH",Primary,,Verde Building,,,10,Bressenden Place,,London,,,SW1E 5DH
f6064353-c699-4c5a-a2b0-b70d39ea1705,"Unit 5 Cooks Yard, 88 Mile End Road, London, E1 4UN",Primary,,,Unit 5,Cooks Yard,88,Mile End Road,,London,,,E1 4UN
f64e5296-151c-44b6-85dc-4a0a8db97194,"Unit 3 Hurlingham Business Park, Sulivan Road,  London, SW6 3DU",Primary,,,Unit 3,Hurlingham Business Park,,Sulivan Road,, London,,,SW6 3DU
f70a55df-433a-4356-b4fa-1e2663818e47,"1  King George Close, Romford, RM7 7LS",Primary,,,,,1,King George Close,,Romford,,,RM7 7LS
f7424f98-2396-4df4-9e95-1803b47eb61f,"110  Buckingham Palace Road, London, SW1W 9SA",Primary,,,,,110,Buckingham Palace Road,,London,,,SW1W 9SA
f75d2825-5b20-4c5e-ae71-34d11b1ff028,"27  Broadley Terrace, London, NW1 6LG",Primary,,,,,27,Broadley Terrace,,London,,,NW1 6LG
f7625c47-e699-4512-b3ce-eeb41c12b1f1,"Surrey House, 36-44 High Street, Redhill, Surrey, RH1 1RH",Primary,,Surrey House,,,36-44,High Street,,Redhill,Surrey,,RH1 1RH
f7b8f8e5-00c0-4d4b-8627-2bb89454d94c,"10  Orchard Close, Woolhampton, Reading, Berkshire, RG7 5SD",Primary,,,,,10,Orchard Close,Woolhampton,Reading,Berkshire,,RG7 5SD
f825c45f-81c8-41c4-80ed-8d9fe8af7e8c,"98  Aldermans Hill, London, N13 4PT",Primary,,,,,98,Aldermans Hill,,London,,,N13 4PT
f8d245dc-8f34-41ec-87b4-7ce01a979881,"Cantay House, Park End Street, Oxford, OX1 1JD",Primary,,Cantay House,,,,Park End Street,,Oxford,,,OX1 1JD
f8daa675-f0c5-4910-9d68-5f959550ec26,"Bugler House, 1  Norfolk Road, Rickmansworth, Hertfordshire, WD13 1JY",Primary,,Bugler House,,,1,Norfolk Road,,Rickmansworth,Hertfordshire,,WD13 1JY
f910e70b-91b6-4408-b9c2-5515afc8e873,"Hyde House, Edgware Road, The Hyde, London, NW9 6LH",Primary,,Hyde House,,,,Edgware Road,The Hyde,London,,,NW9 6LH
f9584855-6c62-4a70-8c6f-4abe038c6deb,"Cecil House, Foster Street, Harlow, Essex, CM17 9HY",Primary,,Cecil House,,,,Foster Street,,Harlow,Essex,,CM17 9HY
f9a6429a-fac4-4ec5-86fb-7714592fa5cb,"Ancient Monuments Laboratory - English Heritage, 23 Savile Row, London, W1S 2ET",Primary,,Ancient Monuments Laboratory - English Heritage,,,23,Savile Row,,London,,,W1S 2ET
f9f531e0-0a59-41a3-a529-f3160497af11,"40  Great Portland Street, London, W1W 7LZ",Primary,,,,,40,Great Portland Street,,London,,,W1W 7LZ
fa1604e0-120f-4866-9383-fb6df2c7706e,"45  Pont Street, London, SW1X 0BD",Primary,,,,,45,Pont Street,,London,,,SW1X 0BD
fa26d2b4-c364-463b-8c74-933bf83f4c3f,"15  Justice Mill Lane, Aberdeen, Aberdeenshire, AB11 6EQ",Primary,,,,,15,Justice Mill Lane,,Aberdeen,Aberdeenshire,,AB11 6EQ
fa4dd36a-5dbc-4a2b-b402-e72f6364713a,"10  Barley Mow Passage, Chiswick, London, W4 4PH",Primary,,,,,10,Barley Mow Passage,Chiswick,London,,,W4 4PH
fa7010f8-3755-4c70-9df3-25a9558394eb,"Felford Cottage, Back Lane, Ford End, Chelmsford, Essex, CM3 1LG",Primary,,Felford Cottage,,,,Back Lane,Ford End,Chelmsford,Essex,,CM3 1LG
fa7016ae-f6b1-4076-ba73-0add6b5daa62,"Leadbitter Site Office, Hanworth Road, Hampton, TW12 3HB",Primary,,Leadbitter Site Office,,,,Hanworth Road,,Hampton,,,TW12 3HB
fa8cea68-6c2d-4ae7-b715-b18030878b5b,"4-5 Coleridge Gardens, South Hampstead, London, NW6 3QH",Primary,,,,,04-May,Coleridge Gardens,South Hampstead,London,,,NW6 3QH
fa936fab-f51a-4278-a9fb-31195c4edb5e,"Sir Henry Doulton House, Forge Lane, Etruria, Stoke On Trent, Staffordshire, ST1 5BD",Primary,,Sir Henry Doulton House,,,,Forge Lane,Etruria,Stoke On Trent,Staffordshire,,ST1 5BD
fa94b52a-6eb9-45ba-a535-accc0467c6ca,"100  Fetter Lane,  London, EC4A 1BN",Primary,,,,,100,Fetter Lane,, London,,,EC4A 1BN
faba7f9f-ec0f-438b-9502-d76cd35d01b0,"9th Floor - Maritime House, 1  Linton Road, Barking, IG11 8HG",Primary,,9th Floor - Maritime House,,,1,Linton Road,,Barking,,,IG11 8HG
fb388cc3-6911-428d-967b-c6ee56c94c15,"Langford Hall Barn, Witham Road, Langford, Maldon, Essex, CM9 4ST",Primary,,Langford Hall Barn,,,,Witham Road,Langford,Maldon,Essex,,CM9 4ST
fb436944-1442-447e-8481-06d3e3c0daa9,"33  Cavendish Square, London, W1G 0DT",Primary,,,,,33,Cavendish Square,,London,,,W1G 0DT
fb80068e-fc76-4c93-bdfc-fffbd2de7e05,"12  Valentine Place, London, SE1 8QH",Primary,,,,,12,Valentine Place,,London,,,SE1 8QH
fbe591e4-ed37-4f3a-837c-9071819e1821,"ASDA House, Southbank, Great Wilson Street, Leeds, West Yorkshire, LS11 5AD",Primary,,ASDA House,,Southbank,,Great Wilson Street,,Leeds,West Yorkshire,,LS11 5AD
fbf5f10e-41f8-46c0-9651-c7de789f87e1,"175a Hoe Street, London, E17 3AP",Primary,,,,,175a,Hoe Street,,London,,,E17 3AP
fc22b5fa-3c1d-4373-a424-e9312418871d,"100  Queen's Park, Toronto, Ontario, Canada, ",Primary,,,,,100,Queen's Park,,Toronto,,Canada,
fc41d650-2b73-43f9-bbc4-69c51aba7814,"The Old Printworks, 77a Brunswick Street, Edinburgh, EH7 5HS",Primary,,The Old Printworks,,,77a,Brunswick Street,,Edinburgh,,,EH7 5HS
fc785232-3f8b-45a7-9cee-66884a3d3afb,"6  New Bridge Street, London, EC4V 6AB",Primary,,,,,6,New Bridge Street,,London,,,EC4V 6AB
fc7e4ff3-a825-4445-a672-9937b5fb3441,"Town Hall, Peckham Road, London, SE5 8UB",Primary,,Town Hall,,,,Peckham Road,,London,,,SE5 8UB
fcfa375e-703b-4f80-a30a-fe6ee8d04b8a,"Raven House, 29  Linkfield Lane, Redhill, Surrey, RH1 1SS",Primary,,Raven House,,,29,Linkfield Lane,,Redhill,Surrey,,RH1 1SS
fd7b1c50-eca4-4854-bd0a-f002d1904f01,"United House, North Road, London, N7 9DP",Primary,,United House,,,,North Road,,London,,,N7 9DP
fda2c0a1-0b7b-4d21-94d2-2d2881a7560e,"Hendon Airfield, Hendon, London, NW9",Primary,,Hendon Airfield,,,,,Hendon,London,,,NW9
fe6cddc8-abd2-4d26-a377-8e76f5030adb,"Britannia Archaeology Ltd, 115  Osprey Drive,, Stowmarket, Suffolk, IP14 5UX",Primary,,Britannia Archaeology Ltd,,,115,"Osprey Drive,",,Stowmarket,Suffolk,,IP14 5UX
fec0b8be-8b8a-4407-8d32-47ca827ae484,"New Tesco House, Delamare Road, Cheshunt, Hertfordshire, EN89SL",Primary,,New Tesco House,,,,Delamare Road,,Cheshunt,Hertfordshire,,EN89SL
ff6d7f3c-03db-464e-8522-f904d751a186,"99  Lincoln Court, London, N16 5EA",Primary,,,,,99,Lincoln Court,,London,,,N16 5EA
ffa03b4b-0576-4a82-a326-f245ab818740,"11  Silver Street, Ashwell, Baldock, Hertfordshire, SG7 5QJ",Primary,,,,,11,Silver Street,Ashwell,Baldock,Hertfordshire,,SG7 5QJ
ffb57ff9-2580-4557-b42a-dbafccd56345,"28  Beconsfield Road, London, N15 4SJ",Primary,,,,,28,Beconsfield Road,,London,,,N15 4SJ
ffbfc543-1c78-4b2d-9c13-eaf5c4ef2505,"776  Chester Road, Stretford, Manchester, M32 0QH",Primary,,,,,776,Chester Road,Stretford,Manchester,,,M32 0QH
